id,name,city,address_1,address_2,lat,lon
10008462,"Songkick","London","Third Floor, 12-18 Hoxton Street, N1 6NG",,51.513435,-0.109462
1001702,"Google London","London","76 Buckingham Palace Rd",,51.494926,-0.146192
10085502,"10gen London Office","London","Zetland House, 2nd Floor Units F & G",,51.507336,-0.127683
1014510,"Hummus Bros Victoria House","London","37-63 Southampton Row, Holborn","WC1B 4DA",51.518452,-0.122272
10185392,"Open Credo","SE1 0NZ, London","5-11 Lavington Street",,51.505108,-0.099677
10185422,"OpenCredo","London","5 - 11 Lavington Street, London, SE10NZ",,51.505241,-0.101121
101958,"The Green Man and French Horn,  -","London","54, St. Martins Lane - Covent Garden","WC2N 4EA",51.52,-0.1
1022224,"Royal Festival Hall","London SE1 8XX","South Bank Centre","Belvedere Road",51.50658,-0.115437
10237892,"Darwin B15 Lecture Theatre","London","UCL, Gower Street, London, WC1E 6BT",,51.523567,-0.132527
10317582,"Salesforce London Office","London","Level 27A, 25 Old Broad Street, London. EC2N 1HQ ",,51.515289,-0.084091
1040306,"The Skills Matter eXchange","London","116-120 Goswell Road","EC1V 7DP",51.524521,-0.099231
1048829,"The Water Poet","London","9-11 Folgate St","London, E1 6BX",51.52083,-0.076813
10558052,"NESTA","London","1 Plough Place, EC4A 1DE",,51.51672,-0.108908
1057276,"The Crown Tavern","London","43 Clerkenwell Green","EC1R 0EB",51.522906,-0.105205
1059205,"Young Foundation","London","18 Victoria Park Square","E2 9PF",51.528717,-0.053709
10630452,"3rd Floor Space, Google Campus, ","London","4-5 Bonhill Street, London, EC2A 4BX",,51.522694,-0.085303
10711022,"google campus london","London","4-5 Bonhill Street, London EC2A 4BX, United Kingdom",,51.522694,-0.085303
107295,"The Yorkshire Grey Pub","London","46 Langham Street","W1W 7AX",51.52,-0.1
1073057,"Mallet Place Building","London","Room 1.03, Malet Place Engineering Building","Malet Place, UCL",51.500152,-0.126236
1088885,"University of London Student Union","London","Bloomsbury (WC1E 7HY)",,51.524402,-0.122808
10904292,"EMBANKMENT :  PUB - The Sherlock Holmes ","London","10-11 Northumberland Street, Westminster, WC2N 5DB, London",,51.507309,-0.125276
10972582,"The Craft Beer Co.","London","55 White Lion St., N1 9PP",,51.532745,-0.110972
1106260,"Victoria and Albert Museum ","London ","Cromwell Road ","SW7 2RL",51.494934,-0.184045
11080412,"LMG Training & Development","London","202 Blackfriars Road, Southwark, SE1 8NJ",,51.504444,-0.104309
11103902,"The Barrowboy & Banker","London","6-8 Borough High Street,   SE1 9QQ",,51.50626,-0.08884
1110586,"Lincoln Lounge","London","52 York Way","N1 9AB",51.532999,-0.122443
1112237,"UCL, Christopher Ingold Building","London","Gordon Street",,51.525692,-0.133038
11139532,"Park Plaza Sherlock Holmes","London, W1U 6LJ","108 Baker Street",,51.520897,-0.156898
1118949,"London Olympia","London","Kensington Olympia tube","W14 8UX",51.497809,-0.210383
1119349,"SkillsMatter","London, EC1V 7DP","116-120 Goswell Road",,51.527359,-0.100445
11205172,"online","London","online",,51.490025,-0.132004
1121355,"De Hems","London","11 Macclesfield Street,","Leicester Square",51.51213,-0.13144
1135097,"TBD","London","TBD also",,51.500152,-0.126236
11359782,"Central Working Shoreditch","London EC2A 4BX","6-8 Bonhill Street ",,51.522694,-0.085303
11362552,"The Old Fountain","London","3 Baldwin Street, EC1V 9NU","Near Old Street Station",51.526907,-0.088936
1136882,"Southbank Centre ","London SE1 8XX","Southbank Centre Square","Belvedere Road",51.507739,-0.099049
1140333,"The Old Star","London","66 Broadway, Westminster, SW1H 0DB","Outside St James Park Tube",51.499954,-0.133796
1140448,"The Rugby Tavern","London","19 Great James Street ","WC1N 3ES ",51.522076,-0.117176
11449462,"Sekforde Arms","London","34 Sekforde Street, Clerkenwell, London. EC1R 0HA",,51.524029,-0.104482
11591712,"Conversocial","London","Epworth House - 25 City Road",,51.523125,-0.08702
1160990,"The Antelope","London","22-24 Eaton Terrace, London,","by Sloane Square",51.494599,-0.155401
11629722,"Google Campus 3rd Floor","London EC2A 4BX","4-5 Bonhill Street",,51.522709,-0.085336
1169467,"ONLINE","London","Online meeting",,51.500152,-0.126236
1170729,"The Doric Arch","London","1 Eversholt Street","NW1 2DN",51.52805,-0.131836
11725,"Roadhouse Live Music Restaurant , Bar & Club","London","The Piazza","Covent Garden",51.52,-0.1
11749052,"Mind Candy ","London","15 bonhill street london ec2a 4dn",,51.523033,-0.085178
117583,"horse & Groom","London","128, Great Portland St, London, W1W 6PX",,51.519993,-0.142694
1178561,"The Queen Elizabeth II Conference Centre","London","Broad Sanctuary","Westminster, SW1P 3EE",51.50008,-0.127838
11798272,"10gen London","London","Zetland House, Units 2F-G, 5 - 25 Scrutton Street, EC2A 4HJ",,51.523617,-0.083438
11824122,"Darwin B40 Lecture Theatre, UCL","London","Gower Street, London, WC1E 6BT",,51.522484,-0.132641
1191094,"Google","London","Belgrave House","76 Buckingham Palace Road",51.4948,-0.1467
12012142,"Online Webinar","London","Online Webinar",,51.511215,-0.119824
1208061,"The Slug and Lettuce","London","19/20 Hanover Street",,51.513912,-0.144299
12123712,"Makers Academy","London EC1Y 1AA","25 City Road,  4th Floor",,51.522995,-0.08713
1212407,"Packt Publishing Promotion","There will be no physical meetup","This is an online promotion",,0,0
1213633,"The Bridge House","SE1 2UP","218 Tower Bridge Road","London",51.504102,-0.076328
12140722,"Level 39 Technology Accelerator at Canary Wharf","London E14","One Canada Square",,51.505001,-0.019611
12195932,"Slaughtered Lamb Pub","London","34-35 Great Sutton St",,51.523376,-0.101161
1227635,"Hoxton Apprentice - Restaurant & Bar","London N1 6NT ","16 Hoxton Square","Mezzanine Area",51.52811,-0.081627
12280032,"Forward","London","19 Mandela St, Camden, NW1 0DU ",,51.537731,-0.136678
1229420,"The Ledger Building ","London","4 Hertsmere Rd ","Canary Wharf",51.507624,-0.025106
1232158,"Centre for Creative Collaboration","London","16 Acton Street","16 Acton Street, London WC1X 9NG",51.528741,-0.116529
12333552,"Infusion Dev","London","Exchange Tower, 7th Floor, 2 Harbour Exchange Square, E14 9GE",,51.498844,-0.014327
12333552,"Infusion Dev","London","Exchange Tower, 7th Floor, 2 Harbour Exchange Square, E14 9GE",,51.499058,-0.014863
12336342,"Google Hangout","London","londonwebmeetup.org street",,51.511215,-0.119824
1236675,"SkillsMatter","London EC1V 7DP","116-120 Goswell Road","116-120 Goswell Road",51.52653,-0.100107
12371662,"JustAddRed","London","81 Leonard Street, EC2A 4QS",,51.524712,-0.083073
12405302,"Minster Exchange ","London","Minster Pavement, Mincing Lane, EC3R 7PP",,51.511612,-0.080728
1244904,"Fry-IT","London SE1 9PG","503 Enterprise House","1/2 Hatfields",51.50754,-0.107718
12503012,"London Hackspace","London","447 Hackney Road, E2 9DY",,51.532082,-0.060795
12512292,"Twickenham Stadium","London","Twickenham",,51.511215,-0.119824
125360,"The Old Crown, Bloomsbury","London","33 New Oxford Street","London, WC1A 1BH",51.52,-0.1
12600362,"Congress Centre,","London, WC1B 3LS","28 Great Russell Street",,51.517376,-0.129372
1261589,"The Old Monk Exchange","London","Strutton Ground","(opposite New Scotland Yard)",51.497397,-0.133906
1264766,"eBay / PayPal Office","Richmond","Whittaker House","2 Whittaker Avenue",51.461342,-0.303547
12661052,"Club Workspace Chiswick","London","10 Barley Mow Passage, W4 4PH",,51.491844,-0.261768
12661052,"Club Workspace Chiswick","London","10 Barley Mow Passage, W4 4PH",,51.49191,-0.262062
1268734,"Infusion Development","Poplar","40 Marsh Wall","2nd Floor",51.50162,-0.023799
12737932,"Financial Times - FT Offices, Southwark Bridge","London","One Southwark Bridge, 6th floor SE1 9HL ",,51.507465,-0.09442
1275562,"The Old Truman Brewery","London, E1 6QL","91-95 Brick Lane",,51.521946,-0.071709
12767312,"Royal Festival Hall","London","Southbank Centre","Belvedere Road,  SE1 8XX",51.506437,-0.104342
12802982,"Leukaemia & Lymphoma Research, ","WC1R 4TH","39-40 Eagle Street, London",,51.518883,-0.117213
12874422,"hammersmith ram","London","at 81 King St Hammersmith W6 9HW",,51.49247,-0.227705
12907852,"The Makers Academy","London","Floor 4, Epworth House, 25 City Rd. London, EC1Y 1AA ",,51.523125,-0.08702
12939492,"Sports Bar & Grill Farringdon","London"," 19-25 Cowcross Street, London, EC1M 6DQ",,51.520306,-0.103397
1294160,"Edinboro Castle","London","57 Mornington Terrace","NW1 7RU",51.535939,-0.144442
1302327,"2e2 Training Ltd","London","Gillingham House","38-44 Gillingham Street",51.493862,-0.140953
13032532,"Expedia","London","Angel Building, 407 St John St, London, England EC1V",,51.526794,-0.098381
13079772,"eBay","TW9 1EJ","1 Heron Square, Whittaker Avenue, Richmond",,51.458813,-0.306901
13167072,"Goldman Sachs","London","Christchurch Court, 10-15 Newgate Street, London EC1A 7HD",,51.5154,-0.100329
13168372,"UCL - Anatomy G29 JZ Young Lecture Theatre, Anatomy Building,","London","Gower Street, London, WC1E 6BT.",,51.522484,-0.132641
13338782,"Wikimedia UK","London","Development House, 56-64 Leonard Street London, LON, EC2A 4LT",,51.524433,-0.084557
1337040,"IPC, Blue Fin Building","London","110 Southwark Street",,51.506132,-0.090062
13401242,"Crown & Anchor","London","Chiswick",,51.49242,-0.26092
13401242,"Crown & Anchor","London","Chiswick",,51.49255,-0.26386
13459222,"Strongroom Bar and Kitchen","London EC2A 3SQ","120-124 Curtain Road, Shoreditch",,51.526009,-0.080137
13462432,"ASOS.com","London","Greater London House, Hampstead Road, NW1 7QX",,51.53344,-0.139618
1347106,"CONWAY HALL","London","25 RED LION LANE SQUARE",,51.519381,-0.117093
1350344,"Vodafone","London","One Kingdom St","Paddington Central",51.501054,-0.125757
1352013,"The Verve","London","1 Upper St Martins Lane","WC2H 9NY",51.512172,-0.127104
1359032,"Institute of Directors","London","116 Pall Mall",,51.507066,-0.132654
13620452,"Camden Collective, ","London","37 Camden High Street, NW1 7JE",,51.535019,-0.139323
1365728,"The Guardian","London","King's Place","90 York Way",51.492835,-0.269087
1370795,"Dexter House","London","No 2 Royal Mint Court ","Tower Hill",51.510359,-0.071157
13716712,"42 Princelet Street","London","Shoreditch, E1 5LP",,51.522873,-0.077742
1373233,"ExCeL London","London","One Western Gateway","Royal Victoria Dock",51.508066,0.021828
1374221,"This is an online promotion","This is an online promotion","This is an online promotion",,0,0
137477,"The Livery","London","130 Wood Street, in the City of London","EC2V 6DL",51.52,-0.1
1377229,"Novotel London West","London","Hammersmith",,51.492916,-0.225792
13777182,"ThoughtWorks UK Office","London","9th floor Berkshire House 168-173 High Holborn London WC1V 7AA",,51.515732,-0.125307
13812682,"7digital Offices","London","69 Wilson Street, 3rd Floor, London EC2A 2BB",,51.521965,-0.084819
13930812,"Which?","London","2 Marylebone Road, NW1 4DF ",,51.524506,-0.144451
1393647,"The Cittie of Yorke","London","22 High Holborn, WC1V 6BS",,51.518356,-0.112739
1393909,"seven dials club","London","42, Earlham st","Covent Garden",51.513825,-0.126325
13954812,"UCL - Christopher Ingold XLG1 LT","WC1H 0AJ","Christopher Ingold Building, 20 Gordon Street, London",,51.524376,-0.131734
1404354,"Radisson Edwardian Kenilworth Hotel","London","97 Great Russell Street","WC1B 3LB",51.517809,-0.127718
14060422,"The Bakery","London"," 25 City Road, London, EC1Y 1AA ",,51.523106,-0.08729
14070242,"The Defectors Weld","London","170 Uxbridge Rd, London W12 8AA ",,51.505211,-0.224504
14187292,"Veda Consulting","London","Arch 462, Kingsland Viaduct 83 Rivington Street London, EC2 3AY",,51.511215,-0.119824
14190522,"UCL - Rooms 112, 113, 114 & 130, Foster Court","London","Malet Place, off Torrington Place, WC1E 7JE",,51.522484,-0.132641
1423018,"Electricity Showrooms","London","39a Hoxton Square","N1 6NN ",51.52735,-0.08196
14244832,"Erlang Solutions and the Erlang User Group","London","New Loom House, 101 Back Church Lane, E1 1LU",,51.51276,-0.067536
1429460,"JRebel Prize Draw","There will be no physical meetup","This is an online promotion",,0,0
14313862," Chadwick G08, Chadwick Building, UCL","London","Gower Street, London, WC1E 6BT",,51.525143,-0.135253
14321962,"Just Eat offices","London EC4M 7RF","2 Fleet Place",,51.515308,-0.1033
1432252,"IBM Southbank (SE1 9PZ)","London","76/78 Upper Ground","Southbank",51.506952,-0.111438
1438218,"Penderel's Oak","London","283-288 High Holborn, WC1V 7HP",,51.518143,-0.115084
14383902,"Mozilla London HQ","London","101 St Martin's Ln Floor 3. London WC2N 4AZ",,51.510372,-0.127545
14462052,"Gamesys Limited","London","10 Piccadilly, W1J 0DD",,51.509621,-0.135639
14498652,"Square One","London, EC2M 4YE","3rd Floor, 6 Devonshire Square",,51.516392,-0.077818
14500752,"Candid Arts Trust","London","3 Torrens Street",,51.532124,-0.105432
14526582,"The Melton Mowbray","London","18, Holborn, London, EC1N 2LE",,51.517822,-0.110042
1453826,"The Brewery","London","Chiswell Street","EC1Y 4SD",51.520996,-0.092077
1459239,"Limehouse Town Hall","London","646 Commercial Rd, E14 7HA",,51.515003,-0.070197
1461646,"The Porterhouse Covent Garden ","London","21-22 Maiden Lane","Covent Garden ",51.510426,-0.123819
1463178,"Playfish Offices","London","60 Sloane Avenue",,51.492077,-0.165232
14787042,"Wimbledon library","London","Wimbledon Hill Rd, London, Greater London SW19 7NB",,51.42337,-0.210618
14834822,"Net-A-Porter. 1 The Village Offices, Westfield London Shopping Centre","London","Ariel Way W12 London",,51.507526,-0.219097
14876642,"JP Morgan","London","25 Bank Street, Canary Wharf, E14 5JP",,51.503254,-0.020288
14963152,"MongoDB London 5 - 25 Scrutton Street, Unit 1E","EC2A 4HJ","London",,51.523617,-0.083438
15070602,"Salesforce London office.  Floor 25, Heron Tower","London","110 Bishopsgate, London EC2N 4AY",,51.516335,-0.08111
15074632,"Rainmaking Loft"," London, E1W 1TW","International House 1 St Katharine’s Way",,51.50724,-0.074055
15101742,"QE2 Conference Centre","London","Westminster",,51.498608,-0.133906
15118212,"Ticketmaster","London, N1 9HF","4 Pentonville Road",,51.531849,-0.108151
1511864,"The Red Gallery","London","3 Rivington Street, Shoreditch",,51.526131,-0.080584
15200122,"Home of the Royal College of General Practitioners","London","30 Euston Square",,51.527443,-0.130868
15225682,"VisualDNA HQ","London","67-71 Shoreditch High Street, E1 6JJ",,51.524128,-0.076224
1524027,"West Road Concert Hall","Cambridge CB39DP","11, West Road",,52.202744,0.108234
1531258,"Congress Centre","London","28 Great Russell Street",,51.517807,-0.127561
1531697,"Westbourne Studios  242 Acklam Road, W10 5JJ","London W10 5JJ","242 Acklam Road, W10 5JJ",,51.520908,-0.204448
15391322,"The Crypt on the Green ","London","St James Clerkenwell",,51.522526,-0.11164
15443822,"Resource For London","London","356 Holloway Road London N7 6PA",,51.555832,-0.116209
1551946,"Christopher Ingold Chemistry Lecture Theatre","London","University College London (UCL), 20 Gordon Street, London, WC1H 0AJ",,51.525418,-0.132189
15523502,"Salesforce London Office - Floor 26, Heron Tower","London","110 Bishopsgate, London EC2N 4AY",,51.516335,-0.08111
15553742,"1st Floor, Trans-World House","EC1Y 2BP","100 City Road (Silicon Roundabout)",,51.527531,-0.087738
1556337,"London Palace Superbowl","London","First Floor, Elephant & Castle Shopping Centre, SE1 6TE",,51.494598,-0.10047
1557899,"Viet Hoa","London, E2 8DP","70-72 Kingsland Road",,51.529919,-0.077417
15696122,"UCL - Christopher Ingold XLG2 LT Christopher Ingold Building,","London","20 Gordon Street, London, WC1H 0AJ",,51.525272,-0.13258
15789132,"Kings College London Strand Campus","London","Strand, London WC2R 2LS",,51.511253,-0.119225
1581180,"Channel 4 Television Corporation","SW1P 2TX","124 Horseferry Road, London",,51.495758,-0.133237
15824142,"Room 431, University College London","London","16 Taviton Street, London, WC1H 0BW",,51.525372,-0.131554
1583911,"Jerwood Hall, LSO St Luke's","London","161 Old Street",,51.526546,-0.084219
15937872,"Mozilla Space London","London","101 St. Martins Lane (3rd Floor) ",,51.510262,-0.12705
15940992,"The (popup) Shoreditch Village Hall","London"," 33 Hoxton Square,  N1 6NN",,51.527607,-0.080866
1601792,"Look Mum No Hands!","London","49 Old St,,  EC1V 9HX",,51.526546,-0.084219
16019632,"British Library","London, NW1 2DB","96 Euston Road","NW1 2DB",51.528832,-0.127119
1603299,"The Business Design Centre, 52 Upper Street","London"," N1 0QH",,51.535587,-0.106323
1603678,"National Audit Office","London","157-197 Buckingham Palace Road",,51.492218,-0.148023
16085912,"Seren Offices","London","55 - 57 Rivington Street , London EC2A 3QA",,51.525749,-0.081116
16129382,"Westminster University","London, W1W 6UW","115 New Cavendish Street",,51.520706,-0.139976
16175482,"The Crypt, St James Church Clerkenwell","London","Clerkenwell Close, Clerkenwell, EC1R 0EA",,51.524326,-0.106458
16204752,"Beurs van Berlage","Amsterdam","Damrak 243",,52.375187,4.895984
16220702,"Harrie Massey Lecture Theatre, University College London,","London","25 Gordon Street, London, WC1H 0AY",,51.52573,-0.133219
16224832,"Mozilla London","London","101 St. Martins Lane (3rd Floor)","WC2N 4AZ",51.510342,-0.127076
16225002,"Mozilla","London","Mozilla, Floor 3, 101 St Martin's Ln, London, United Kingdom","WC2N 4AZ",51.511215,-0.119824
16227252," Room S-1.06, Basement 1, Strand Building, WC2R 2LS, London","London","Strand Campus  King's College London, Strand, London",,51.511528,-0.116852
16311972,"Central London","London","Central London",,51.51387,-0.143758
1632928,"Scott Room, The Guardian (Kings Place)","London","90 York Way, N1 9AG",,51.53373,-0.12234
16393922,"Ravensbourne","London","6 Penrose Way Greenwich Peninsula London SE10 0EW",,51.501736,0.005539
16426022,"The Polo Bar","London","176 Bishopsgate",,51.517605,-0.080189
16573452,"Idea London","London","69 Wilson Street, EC2A 2BB",,51.521965,-0.084819
16600522,"Intuit Limited ","London","1 Cathedral Piazza VIctoria London SW1E 5BP ",,51.511215,-0.119824
16602622,"Compucorp Ltd","London","4th Floor 27 - 33 Bethnal Green Road",,51.524212,-0.074217
16637492,"Red Badger","London","12 Mallow Street London EC1Y 8RQ, London",,51.524769,-0.088613
16637492,"Red Badger","London","12 Mallow Street London EC1Y 8RQ, London",,51.52477,-0.088613
16806882,"Mozilla London","London","101 St. Martins Lane WC2N 4AZ",,51.510372,-0.127545
16882762,"Yammer UK HQ","EC2A 3JL","80 Great Eastern St.",,51.525806,-0.082877
16882762,"Yammer UK HQ","EC2A 3JL","80 Great Eastern St.",,51.52587,-0.08299
16882762,"Yammer UK HQ","EC2A 3JL","80 Great Eastern St.",,51.525871,-0.08299
16889412,"The Gypsy Moth","London","Greenwich SE10 9LW",,51.482773,-0.009034
16970532,"The Shooting Star","London","125-129 Middlesex St, City of London, Greater London E1 7JF",,51.518044,-0.078769
17012682,"Cafe Restaurant Bekeerde Suster","Amsterdam","Kloveniersburgwal 6",,52.372055,4.899301
17028282,"Dragon Hall","London","17 Stukeley St WC2B 5LT",,51.516891,-0.122593
17091862,"La Penderie Bar","Paris ","17 rue Etienne Marcel",,48.863655,2.349491
17145432,"Pivotal Labs","London","Bentima House, 168-172 Old Street",,51.525024,-0.090486
17173602,"The Bakery","London","2nd Floor, Epworth House, 25 City Road, London, EC1Y 1AA",,51.523125,-0.08702
17199842,"Sapient London","London","Eden House  8 Spital Square  London E1 6DU",,51.520859,-0.077703
17199922,"SapientNitro","London","Eden House, 8 Spital Square, E1 6DU",,51.520859,-0.077703
17256392,"Interact Lab","Leicester","Interact Lab, Phoenix, 4 Midland Street,Leicester, LE1 1TG",,0,0
17300632,"uSwitch","London","Notcutt House, 36 Southwark Bridge Road","SE1 9EU",51.50612,-0.095859
17417202,"Trend Micro","London","2 Kingdom Street, London, W2 6BD",,0,0
17445082,"Grange Tower Bridge Hotel","London E1 8GP ","45 Prescot Street ",,51.511654,-0.071703
17464152,"JUST EAT","London","Fleet Place House, 2 Fleet Place, EC4M 7RF ",,51.516418,-0.103211
1752361,"Innovation Warehouse","London","1st Floor, 1 East Poultry Avenue","EC1A 9PT",51.519106,-0.101962
17610622,"Shoreditch Works Village Hall","London","33 Hoxton Square, N1 6PB, London",,51.527145,-0.081472
1764941,"Innovation Warehouse","EC1A 9PT","1 East Poultry, 1st Floor",,51.513508,-0.090439
17753742,"Mediaocean","London","1st Floor, Blue Fin Building. 110 Southwark Street. ","SE1 0TA",51.506321,-0.099883
17775212,"Somerset House, West Wing ","London","Strand, WC2R 1LA",,51.510742,-0.11695
17853912,"George Inn","London","George Inn Yard, 77 Borough High Street, Southwark, SE1 1NH",,51.504253,-0.090503
17891112,"Bloomberg European HQ","EC2A 1PQ","39-45 Finsbury Square, City Gate House",,51.520084,-0.086223
17905002,"Central Foundation Boys’ School","London","Cowper Street EC2A 4SH",,51.525265,-0.085861
17931682,"Sports Bar & Grill Waterloo","London","Unit 1 The Balcony, Waterloo Railway Station",,51.503479,-0.11191
17948492,"Skimlinks","London, N1 6BL","52 Bevenden Street",,51.52951,-0.085943
17973542,"Shoreditch Village Hall","London","33 Hoxton Square N1 6NN",,51.527618,-0.080601
17975672,"116-120 Goswell Rd, ","London","London EC1V 7DP",,51.524597,-0.099007
18040192,"Google London, St Giles High Street","WC2H 8AG","1-13 St Giles High Street, London",,51.516113,-0.127293
18111992,"Lassco, Ropewalk","London","41 Maltby Street, Bermondsey, London SE1 3PA ",,51.499641,-0.076129
18114952,"Rainmaking Loft - St. Katherines Docks","London","International House, 1 St. Katharines Way, London, E1W 1UN",,51.507324,-0.07373
18230022,"Neo Technology","London","5 - 11 Lavington Street, London, SE10NZ",,51.505302,-0.100214
18434542,"Virtual Event","London","Live Broadcast, London",,51.508499,-0.12574
18483622,"Google Campus","London","4-5 Bonhill St, London EC2A 4BX",,51.522579,-0.085512
18514922,"Floor 4, Greater London House","London","Mornington Crescent, NW1 7EJ",,0,0
18519322,"Level 39","London","One Canada Square, Canary Wharf, E14 5AB",,51.504963,-0.019462
18542002,"Ticketmaster","London","4 Pentonville Road, N1 9HF",,0,0
18560922,"Hult International Business School,","London"," London 37-38 John St, WC1N 2AT",,51.521698,-0.115417
18647572,"UCL Medical Sciences Building -  Room number: 131 A V Hill Lecture Theatre","London","Malet Place, WC1E 6BT",,51.524784,-0.133439
18673182,"FDM Group","London","Cottons Centre, Cottons Ln, London SE1 2QG, UK",,51.506077,-0.084735
18690682,"The Fable","London","52 Holborn Viaduct  ",,51.517159,-0.104827
18717142,"Craft Beer Co","London","82 Leather Lane Clerkenwell London EC1N ",,51.52123,-0.10986
18755392,"Hotels.com","London","Angel Building, 407 St John St","EC1V",51.53138,-0.106974
1890531,"47 Chandos Place, Covent Garden","London","WC2N 4HS",,51.509769,-0.125783
18929802,"Lyst HQ, 48 Hoxton Square"," N1 6PB","London",,51.527145,-0.081472
18960762,"Central Working Whitechapel","London","68-89 Mile End Road, E1 4TT",,51.520901,-0.052804
1907181,"Atos Origin Offices","London","4 Triton Square, NW1 3HG",,51.525173,-0.140431
19136882,"IDEALondon","London","69 Wilson St, EC2A 2BB ",,51.521976,-0.084831
19264952,"Lyst Studios","N1 6PB","48 Hoxton Square London",,51.527145,-0.081472
19401142,"UCL Malet Place Engineering 1.03","London","WC1E 6BT",,51.524784,-0.133439
19488942,"Net-A-Porter HQ ","London","1 The Village Offices, Westfield London Shopping Centre, W12 7GF , London",,51.50758,-0.22128
1950331,"Atos Origin Offices, LTQ Meeting Room","London","4 Triton Square, London NW1 3HG",,51.525173,-0.140431
19504802,"Royal Statistical Society","EC1Y 8LX","12 Errol St, London",,51.522533,-0.090934
19580202,"Parkside Building, Birmingham City University","Birmingham","5 Cardigan Street, B4 7BD",,52.484383,-1.889389
19580202,"Parkside Building, Birmingham City University","Birmingham","5 Cardigan Street, B4 7BD",,52.48449,-1.884325
19588162,"Park Plaza Westminster Bridge","London","200 Westminster Bridge Road",,51.498829,-0.112366
19597392,"Betfair ","London","Hammersmith Embankment Winslow Road, London, England W6 9HP",,51.485962,-0.225391
19679392,"Huddle ","London","1 Braham Street, Maersk House London, E1 8EP",,51.51429,-0.071736
19725082,"McGregor Boyall boardroom","London","110 Middlesex Street, E1 7JH",,51.517891,-0.078027
19768252,"Pivotal","London","4th Floor Bentima House, 168-172 Old Street, EC1V 9BP",,51.525036,-0.090498
19798562,"Microsoft Accelerator, Central Working (Whitechapel)","London","69-89 Mile End Road, London, E1 4TT",,51.520901,-0.052804
1985611,"Canonical Group Limited","London","27th Floor Millbank Tower 21-24 Millbank, SW1P 4QP",,51.491699,-0.12557
19863192,"Pact Coffee","London","Unit A404a, The Biscuit Factory, 100 Clement's Road, Bermondsey, SE16 4DG",,51.493675,-0.062911
19964452,"Corbet Place","London","Ely’s Yard,  Truman Brewery,  15 Hanbury St, E1 6QR",,51.520237,-0.073113
19977772,"Goldman Sachs, River Court, ","London","120 Fleet Street",,51.514179,-0.105747
19978922,"The Innovation Loft","London","69-89 Mile End Road, E1 4TT",,51.520901,-0.052804
20080402,"Ministry of Justice","London","102 Petty France",,51.499359,-0.136434
20128872,"The Betsey Trotswood","London","The Betsey Trotswood, 56 Farringdon Rd, EC1R 3BL",,51.523323,-0.107984
20142822,"ASOS Plc","London","Greater London House, Hampstead Road. London. NW1 7FB",,51.533401,-0.14602
20145332,"Furniture Makers' Hall","London","12 Austin Friars EC2N 2HE",,51.515919,-0.085648
20231302,"Furtherfield commons ","London","330 Seven Sisters Rd N4 2PF ",,51.568851,-0.09842
20246322,"University College London, Malet Place","London","WC1E 7JE",,51.522984,-0.13223
20247532,"UCL University, Darwin B40LT  Darwin Building","London","Gower Street   London  WC1E 6BT ",,51.524784,-0.133439
20291922,"Mediaocean Blue Fin Building","London","110 Southwark Street",,51.505764,-0.100136
20320582,"Idea London","London","69 Wilson St London EC2A 2BB ",,51.521976,-0.084831
20369222,"The Apartment at The Hoxton Hotel ","London","81 Great Eastern St, EC2A 3HU ",,51.525368,-0.0827
20464492,"Slug & Lettuce","London","19 Hanover St, London W1S 1YR",,51.513763,-0.141758
20485962,"Round Foundry Media Centre","Leeds","Foundry St, Leeds, LS11 5QP",,53.790806,-1.552252
20528932,"69 Wilson Street","EC2A 2BB","London",,51.521976,-0.084831
20619252,"3rd Floor, Campus London","London","4-5 Bonhill St, EC2A 4BX ",,51.522579,-0.085512
20619262,"3rd Floor, Campus London","London","4-5 Bonhill St, EC2A 4BX ",,51.522579,-0.085512
20641612,"OpenCredo Offices, , 5-11 Lavington Street","London","SE1 0NZ",,51.505302,-0.100214
20643012,"Google HQ  ","London","123 Buckingham Palace Road SW1W 9SH ",,51.493111,-0.146531
20661352,"Central Working ","London","69-89 mile end rd, e1 4tt",,51.520901,-0.052804
20666912,"One Canada Square","London","Canary Wharf E14",,51.50642,-0.12721
20769572,"Skills Matter","London","116-120 Goswell Road, EC1V 7DP",,51.524509,-0.098982
20779532,"Royal Garden Hotel","London W8 4PT","2-24 Kensington High St",,51.502941,-0.188119
20812662,"Twitter UK ","London","20 Air Street, W1B 5AN",,51.510769,-0.136101
20874622,"Skills Matter","EC1V 7DP","116-120 Goswell Road",,51.524509,-0.098982
21123582,"Shoreditch Village Hall ","London","33 Hoxton Square - London, N1 6PB",,51.527145,-0.081472
21182952,"Moonfruit HQ Suite 200","London","50 Eastcastle Street London, England W1W 8EA",,51.516376,-0.138539
21183272,"Central Foundation Boys School","London","Cowper Street, London, EC2A 4SH",,51.525265,-0.085861
21290302,"Battersea  Park ","London","Battersea",,51.50642,-0.12721
21302352,"BT Infinity Lab @ TechHub Old Street","London","2nd Floor, 207 Old Street, EC1V 9NR",,51.525841,-0.089153
21376342,"Salesforce London Office - 26th / 27th Floors, Salesforce Tower","London","110 Bishopsgate, London. EC2N 4AY",,51.516247,-0.080935
21438932,"Facebook London","London","Brock Street NW1 3FG",,0,0
21449272," Fab Lab London","London","Current place: Fab Lab London 1 Fredrick's Place - off Old Jewry / Near Bank Station, London",,0,0
21449772,"Fab Lab London","London","1, Fredericks Place London, EC2R 8AE",,51.514275,-0.091237
21449782,"Fab Lab London","London","1, Fredericks Place London, EC2R 8AE",,51.514275,-0.091237
21449792,"Fab Lab London","London","1, Fredericks Place London, EC2R 8AE",,51.514275,-0.091237
21634102,"GoCardless","London","338-346 Goswell Road","EC1V 7LQ",51.53071,-0.103844
21640892,"Online Webinar","Online","Online",,51.462582,-0.074072
216428,"the two chairmen","London","1 Warwick House Street",,51.50755,-0.130081
21793942,"The Screening Room","WC2R 1LA","Somerset House",,51.510742,-0.11695
21888172,"DotMailer","London","No.1 London Bridge London SE1 9BG",,51.506554,-0.087596
21903932,"London Metropolitan University","London, N7 8DB","Room TM1-83, Tower Building, 166-220 Holloway Road",,51.55183,-0.110248
22046382,"Equal Experts","London","30 Brock Street, NW1 3FG",,51.533401,-0.14602
22083142,"1 Matthews yard","Croydon"," CR0 1FF",,51.372154,-0.10119
22085302,"Hackney Pirates Ship of Adventures","London","138 Kingsland High Street E8 2NS ",,51.549286,-0.074987
22110142,"Queen Mary University","London","Bancroft Road Teaching Rooms, Bancroft Road, Mile End, E1 4NS",,51.523418,-0.040544
22114192,"Wonga","London","Floor 4, Greater London House, Hampstead Road, NW1 7EJ",,51.533451,-0.13963
22177322,"University College London, 26 Bedford Way","London","WC1H 0DS",,51.526333,-0.130853
22181102,"The Joker (Upstairs)","London","58 Penton St London N1 9PZ",,51.533508,-0.111224
22181102,"The Joker (Upstairs)","London","58 Penton St London N1 9PZ",,51.53351,-0.111224
22203302,"Argos Digital Hub","London","279 Vauxhall Bridge Road, SW1V 1EJ",,51.493912,-0.140851
22203802,"JD Weatherspoon","London","1 Poultry, Bank Station Exit 9, EC2R 8EJ",,51.513264,-0.090875
2238231,"Hoxton Grill","London","81 Great Eastern Stree",,51.525631,-0.082742
22394032,"BBC New Broadcasting House","London","Portland Place, London, W1A 1AA",,51.51857,-0.143811
22417522,"Linux Recruit, 2-6 Boundary Row","SE1 8HP","London",,51.502064,-0.105824
22424772,"Kings Place","London","90 York Way, London, N1 9AG, GB",,51.534286,-0.121991
22446322,"Slug and Lettuce Canary Wharf ","London","30 S Colonnade, London, Canary Wharf E14 5EP",,51.504333,-0.020542
22529932,"Vibrant Media, 3rd Floor","London","140 Aldersgate Street",,51.519764,-0.09727
22531792,"Startup Institute Hub","London","4 Crown Place, EC2A 4BT",,51.52076,-0.083124
22576462,"The Britannia Pub, 1 Allen Street","London","Kensington,  W8 6UX",,51.497108,-0.194733
22693272,"HAYS, 107 Cheapside","London","EC2V 6DN",,51.514294,-0.093599
22695232,"OpenTable,  15 Worship St","London","EC2A 2DT",,51.522453,-0.086066
22761012,"The Studio - Dominion Theatre","London","268-269 Tottenham Court Rd W1T 7AQ",,51.516972,-0.129679
22843572,"etc. venues victoria","London","1 Drummond Gate",,51.489265,-0.13193
22859862,"Digits 2 Widgets","London","61-63 Rochester Pl, London NW1 9JU",,51.544052,-0.139097
22879642,"The Watershed, ","Bristol, BS1 5TX","1 Canon's Rd, ",,51.45163,-2.598225
22947432,"Trifork/OpenCredo Offices","London","5-11 Lavington Street, London, SE1 0NZ, UK",,51.505302,-0.100214
23018342,"Queen Elizabeth II Conference Centre","London","Broad Sanctuary","Westminster",51.500099,-0.127957
23073402,"The Ministry Of Startups","London"," 4 Elder Street, E1 6BT",,51.521366,-0.076698
23106062,"Box.com EMEA HQ ","London","64 North Row, W1K 7LL - Entrance behind the Primark building",,51.512997,-0.156467
23129722,"St. Pancras Renaissance Hotel","London"," Euston Rd, NW1 2AR",,51.529812,-0.126255
23258762,"Campus london","London","4-5 BONHILL STREET LONDON EC2A 4BX",,51.522579,-0.085512
23282962,"Skills Matter","London","116-120 Goswell Road, EC1V 7DP",,51.524509,-0.098982
23303702,"Finch Bar","London","12A Finsbury Square London EC2A 1AN",,51.521767,-0.087464
23416352,"Skyline Bar at CCT Venues Plus","London E14 5NR","32nd Floor, 40 Bank Street ",,51.502563,-0.019379
23419572,"The Boardroom, Impact Hub Kings Cross","London","34b York Way, King's Cross",,51.532421,-0.122426
23420552,"Creation Technology Solutions","Chiswick","Unit G.03B, Barley Mow Centre 10 Barley Mow Passage",,51.4918,-0.2618
23471296,"Lyst HQ","London","48 Hoxton Square London N1 6PB, London, gb",,51.527145,-0.081472
23473184,"The Craft Beer Co.","London","55 White Lion Street, London, N1 9PP",,51.532845,-0.110227
23473236," Bloomberg building in Finsbury Square ","London","City Gate House",,51.540504,-0.084103
23477625,"IT Training Room Hire","London, SE1 8NJ","202 Blackfriars Road, Southwark",,51.504452,-0.104227
23484303,"The Camel and Artichoke, ","SE1 7AE","121 Lower Marsh ",,51.500557,-0.113753
23492022,"DigitasLBi, 146 Brick Lane","London","E1 6RU",,51.521732,-0.071522
23501835,"citizenM","London","20 Lavington Street, SE1 0NZ",,51.505302,-0.100214
23508457,"Trifork/OpenCredo Offices","London","Europoint Centre, 5-11 Lavington Street, SE1 0NZ",,51.505302,-0.100214
23513670,"Makers Academy","London","2nd Floor 50-52 Commercial Street E1 6LT",,51.51747,-0.073302
23521472,"Trifork/OpenCredo Offices","London","EuroPoint House, 5-11 Lavington Street, SE1 0NZ, London",,51.505302,-0.100214
23523091,"etc venues","London","155 Bishopsgate",,51.515419,-0.082425
23524229,"Simply Business","London EC2A 1AE","1 Finsbury Square",,51.520718,-0.087609
23530706,"The Hoxton Seven","London","66 Great Eastern Street",,51.525295,-0.082037
23532451,"Couchbase London ","London"," 11-21 Paul Street [2nd floor] EC2A4JU",,51.523125,-0.084682
23538191,"BT Tower","London","Maple Street",,51.522396,-0.138083
23572184,"3rd Floor of Google Campus London","London","4-5 Bonhill St, Shoreditch EC2A 4BX",,51.522579,-0.085512
23577668,"133 Great Suffolk Street","London","SE1 1PP",,51.500481,-0.096899
23581199,"Prospect Of Whitby","London","57 Wapping Wall",,51.50663,-0.052752
23583201,"All Bar One","E14 5EH","Mackenzie Walk/Reuters Plaza, Canary Wharf",,51.504333,-0.020541
23585313,"Badoo Tech","London","Ground Floor, Medius House, 2 Sheraton Street, London, W1F 8BH",,51.515079,-0.135132
23588000,"Brixton Impact Hub","London","Lambeth Town Hall, Brixton Hill, SW2 1RW",,51.46067,-0.116967
23591845,"Mozilla Paris","Paris","16 Bis Boulevard Montmartre",,48.871834,2.341002
23592071,"Duedil, 25 Christopher Street","London","EC2A 2BS",,51.521408,-0.084135
23595320,"AHL","London","AHL Riverbank House, 2 Swan Lane, EC4R 3AD",,51.509415,-0.088917
23595320,"AHL","London","AHL Riverbank House, 2 Swan Lane, EC4R 3AD",,51.50974,-0.088582
23595321,"AHL","London","AHL Riverbank House, 2 Swan Lane, EC4R 3AD",,51.509415,-0.088917
23599622,"Stack Overflow","London","2nd Floor, Bentima House, 168-172 Old Street, EC1V 9BP",,51.525036,-0.090498
23600043,"14 Palmers Road","London","E2 OSY",,51.526691,-0.06257
23604588,"Citigroup Centre","London E14 5LB","33 Canada Square",,51.50415,-0.018272
23607036,"8 Warner Yard","London","Clerkenwell",,51.50642,-0.12721
23615441,"The Atrium, Lloyds Banking Group ","London","48 Chiswell Street, EC1Y 4XX",,51.521313,-0.092124
23618541,"The Cross Keys Leeds","Leeds","107 Water Lane, LS11 5WD",,53.79166,-1.552561
23629317,"Online Virtual","London","Any Global Location",,51.481918,-0.113512
23638306,"TechHub Riga","Riga","Kalku Str. 12",,56.986511,24.002661
23643235,"WeWork SouthBank","London","22 Upper Ground",,51.507912,-0.107195
23649549,"ThoughtWorks London","London","First Floor, 76 Wardour Street, W1F 0UR",,51.513191,-0.133494
23653618,"The Hoxton Holborn","London","199 - 206 High Holborn London, WC1V 7BD",,51.517048,-0.12257
23664196,"ThoughtWorks London office","London","First Floor  76-78 Wardour Street  London, W1F 0UR ",,51.513191,-0.133494
23665066,"The Bull, 100 Upper Street,","London","London, N1 0NP",,51.537239,-0.103355
23669935,"Facebook London","London","10 Brock Street, NW1 3FG",,51.525608,-0.139647
23677264,"Radisson Blu Edwardian at Bloomsbury St Hotel  ","London","9-13 Bloomsbury Street,  WC1B 3QD",,51.517406,-0.127614
23680415,"Canvas Cafe ","London","42 Hanbury Street, London E1 5JL",,51.520191,-0.071025
23683796,"Digital Catapult","London","101 Euston Road, London, NW1 2RA",,51.5284,-0.127423
23687413,"St Albans District Council Chamber","St Albans","Civic Centre, Saint Peter's Street",,51.754112,-0.336952
23690384,"Cititec","London","50 Featherstone Street, EC1Y 8RT",,51.52486,-0.089683
23705351,"University College London, G29, Anatomy Building","London","Gower Street, WC1E 6BT",,51.52478,-0.133438
23705659,"Sheraton New York Times Square Hotel","New York","811 7th Avenue 53rd St",,40.710148,-74.006577
23708432,"The Mermaid","AL1 3RL","98 Hatfield Road, St Albans",,51.75359,-0.332361
23712496,"IDEA London","London","69 Wilson St","EC2A 2BB",51.522045,-0.084545
23719896,"BlackRock, 12 Throgmorton Avenue","London","EC2N 2DL",,51.516258,-0.086556
23725743,"thetrainline","London","50 Farringdon Rd",,51.525379,-0.111124
23742358,"Christopher Ingold XLG1 Chemistry LT, Chemistry Building","London","Gordon Street",,51.525433,-0.132785
23748554,"WeWork Soho","London","2 Sheraton Street, London, W1F 8BH",,51.515079,-0.135132
23761931,"Appirio","London","23 Hanover Square, London. W1S 1JB",,51.513317,-0.144341
23762757,"Grant Thornton Office","St Albans","Churchill House 26-30 Upper Marlborough Road St Albans AL1 3UU",,51.753258,-0.333649
23778274,"Urban Innovation Centre","London","One Sekforde St London EC1R 0BE",,51.523998,-0.104827
23803223,"Greenhouse London, ","London","49 Green Lanes,  N16 9BU",,51.553261,-0.088263
23812834,"notonthehighstreet.com","London","63 Kew Road, Richmond, Surrey TW9 2NQ, London",,51.464725,-0.301008
23813392,"eBay Office","London","247 Tottenham Ct Rd, Fitzrovia, London W1T 7QX",,51.51801,-0.131651
23815217,"Bilderberg Garden Hotel","Amsterdam","Dijsselhofplantsoen 7, 1077 BJ",,52.351181,4.874
23815333,"The Cat and the Canary ","London","Canary Wharf ",,51.504662,-0.01704
23815374,"Campus London, a Google space","Greater London","4-5 Bonhill Street London EC2A 4BX",,51.522579,-0.085512
23816290,"Rising Sun, 44 / 46 EBURY BRIDGE Road","London","PIMLICO, LONDON, SW1W 8PZ",,51.490116,-0.150412
23821018,"Level 24, ","E14 5AB","One Canada Square, Canary Wharf, London",,51.504963,-0.019462
23828433,"Connect39 meeting room","London","Level39, One Canada Square, Canary Wharf",,51.504555,-0.01929
23831953,"Dice FM","London","62 Shoreditch High St, London, UK",,51.524502,-0.077232
23841090,"10th Floor, Central Saint Giles","WC2H 8AG"," 1 Saint Giles High Street",,51.516113,-0.127293
23841785,"The Brewery","London","52 Chiswell Street London EC1Y 4SD",,51.52293,-0.091344
23842367,"King","London","10th Floor Central Saint Giles 1 Saint Giles High Street, WC2H 8AG ",,51.516113,-0.127293
23850047,"110 Southwark St.","London","Tableau (11th floor)",,51.50642,-0.12721
23850907,"The London Escalator","London","69-89 Mile End Road, Whitechapel, E1 4TT",,51.520901,-0.052804
23851173,"UCL, Rooms 130, 132 & 233","London","Foster Court, off Malet Place, WC1E 7JE",,51.522984,-0.132229
23871524,"coLenguando","Madrid","c/ Encomienda 21",,40.410542,-3.706286
23876917,"ThoughtWorks Ltd.  First Floor ","London","76-78 Wardour Street  London, W1F 0UR",,51.513191,-0.133494
23876920,"ThoughtWorks Ltd. ","London","First Floor  76-78 Wardour Street, W1F 0UR ",,51.513191,-0.133494
23880386,"Skills Matter CodeNode","London","10 South Place",,51.51889,-0.086563
23902252,"One Cabot Square","London","London, E14 4QJ",,51.506031,-0.023523
23902476,"CloudSherpas","London","182-194 Union Street, SE1 0LH",,51.503883,-0.100388
23905297,"WebGL: The Future Of The Web","London","20 Rosebery Avenue, Clerkenwell, EC1R 4SX, London",,0,0
23908225,"Keynote Theatre, Olympia Grand","London, W14 0BA","Hammersmith Rd",,51.495739,-0.2098
23909910,"Campus London (Google)","London","4-5 Bonhill Street, London, EC2A 4BX",,51.522579,-0.085512
23911143,"Skillsmatter (CodeNode)","London","CodeNode, 10 South Place, London, EC2M 2RB, GB ",,51.519547,-0.087081
23922669,"Wework","London","9 Devonshire Square, London EC2M 4YD",,51.516914,-0.077274
23924878,"Media Village","London","131-151 Gt. Titchfield Street W1W 5BB  ",,51.521721,-0.142313
23924927,"WeWork Moorgate","London","1 Fore Street, EC2Y 5EJ",,51.51775,-0.090457
23926352,"Google UK Ltd 1 St Giles High St  WC2H 8AG ","London","1 St Giles High St  WC2H 8AG",,51.516113,-0.127293
23926531,"TY Old Street ","London","61-67 Old Street, EC1V 9HW ",,51.524242,-0.096441
23936196,"Autodesk Ltd","London","Ingeni Building, 15-17 Broadwick Street, W1F 0DE",,0,0
23937745,"Location to be confirmed","England","Central London",,51.50642,-0.12721
23940890,"TransferWise","London","186 City Road, London, EC1V 2NT",,51.527706,-0.090645
23942307,"PwC","London","7 More London, Riverside, SE1 2RT",,51.50457,-0.081324
23947978,"TES Global Ltd","London","26 Red Lion Square London WC1R 4HQ ",,51.519749,-0.11887
23948001,"Venntro London","London","Floor 7, 10 Southampton St, WC2E 7HA , London",,51.511208,-0.121844
23948557,"The Office Group","London","50 Liverpool Street",,51.517662,-0.083766
23949123,"QEII Centre London","London","Broad Sanctuary  SW1P 3EE ",,51.50071,-0.129033
23960547,"MAE Wimbledon","London, SW19 7NB","Compton Road",,51.422451,-0.207989
23963476,"Digital Catapult Centre","London","101 Euston Road, Kings Cross, NW1 2RA",,51.5284,-0.127423
23968496,"Code Node ","London","10 South Place EC2M 2RB",,51.519547,-0.087081
23972476,"Impact Hub King's Cross","London N1 9AB","34b York Way,  King's Cross",,51.532749,-0.122227
23980139,"Campus London","London ","4-5 Bonhill Row ",,51.52367,-0.090057
23982156,"Code Node","London","10 South Place EC2M 2RB",,51.519547,-0.087081
23989385,"The Inn of Court","EC1N 2LE","18 Holborn",,51.517719,-0.110291
23992696,"Skills Matter CodeNode, 10 South Place","London","London, EC2M 2RB, GB",,51.518543,-0.085987
23992696,"Skills Matter CodeNode, 10 South Place","London","London, EC2M 2RB, GB",,51.51857,-0.085997
23992696,"Skills Matter CodeNode, 10 South Place","London","London, EC2M 2RB, GB",,51.51955,-0.087081
23995411,"Google Campus","London","4-5 Bonhill Street, London, EC2A 4BX",,51.522579,-0.085512
24003438,"3rd Floor of Google Campus London","Greater London","4 - 5 Bonhill Street",,51.522724,-0.086026
24005917,"Skills Matter","London","10 South Place, EC2M 2RB",,51.519547,-0.087081
24008429,"Pitcher and Piano","London","28 – 31 Cornhill, London, EC3V 3ND",,51.513218,-0.08713
24011115,"Shakespeare’s Globe - The Balcony Room ","London","21 New Globe Walk, Bankside",,51.508335,-0.096337
24012881,"http://ibm.biz/codingchallenge ","Online","Online",,51.462582,-0.074071
24016418,"Kings Cross Skip Garden","London","Tapper Walk, Kings Cross,  N1C 4AQ",,51.538528,-0.124253
24019327,"Skills Matter | CodeNode","London","10 South Place, London, EC2M 2RB",,51.519547,-0.087081
24020637,"Skills Matter at CodeNode","EC2M 2RB","10 South Place, London",,51.519547,-0.087081
24026273,"Lost My Name","London","38-50 Pritchards Rd. London, E29AP United Kingdom",,0,0
24037374,"Moonpig.com","London","30 Great Guildford Street London SE1 0HS",,51.504684,-0.09766
24047380,"Just-Eat Holding Limited","London","Floor 7, Fleet Place House, 2 Fleet Place, EC4M 7RF",,51.516418,-0.10321
24048960,"Balderton Capital","London","The Stables, 28 Britannia Street",,51.529861,-0.118402
24049333,"Skills Matter","London","CodeNode, 10 South Place, London, EC2M 2RB, GB ",,51.519547,-0.087081
24057995,"Newspeak House","London","133-135 Bethnal Green Road, E2 7DG",,51.525402,-0.071136
24074118,"Credit Suisse","London E14 4QJ","1-5 Cabot Square, Canary Wharf ",,51.505646,-0.017409
24074118,"Credit Suisse","London E14 4QJ","1-5 Cabot Square, Canary Wharf ",,51.50582,-0.023589
24074194,"Ground Floor, Ivor House","London","1-9 Acre Lane SW2 5BF",,51.460854,-0.117229
24076117,"Kawiarnia","Tarnów","Tarnow",,50.0121,20.98584
24079449,"Braintree Office (1st Floor)","London"," 247 Tottenham Court Road, London, W1T 7QX",,51.518276,-0.131746
24080640,"Founders and Coders","E2 0SY"," 14 Palmers Rd, London",,51.529533,-0.042295
24081608,"JUST EAT Technology","London"," Fleet Place House 2 A40 London EC4M 7RF",,51.514133,-0.104869
24082059,"Makers Academy","E1 6LT","50-52 Commercial Street, London",,51.517372,-0.073569
24090797,"The Trainline ","London","50 Farringdon Road",,51.520344,-0.105889
24093326,"The Montcalm Marble Arch Hotel","London","31 Great Cumberland Place London W1H 7TA",,51.515133,-0.160073
24095589,"Ustwo (TEA Building)","London",", 62 Shoreditch High St E1 6JJ",,51.524124,-0.077224
24095992,"MobileSuite Coworking Space ","Berlin","Pappelallee 79 10437 Berlin",,52.543121,13.414203
24098578,"London South Bank University","London","103 Borough Road SE1 0AA",,51.498486,-0.102498
24103838,"The Iron Yard","London, SE1 3ER","Studio 8.2, The Leathermarket, Weston St",,51.500652,-0.085317
24107042,"WeWork Moorgate","London","1 FORE STREET, EC2Y 9DT",,51.518002,-0.090888
24107105,"Skills Matter at CodeNode","London","10 South Place, EC2M 7EB",,51.518906,-0.086611
24107464,"Skills Matter","London","CodeNode, 10 South Place, London, EC2M 7EB, GB",,51.518562,-0.085991
24119842,"The Crypt (basement)","London","St Johns Church, Hoxton, Pitfield Street, N1 6NP",,51.530258,-0.083511
24130096,"UCL/BBC London Media Technology Campus","London","5th Floor, One Euston Square, 40 Melton Street, London NW1 2FD",,51.527336,-0.133582
24136269,"Pivotal Labs","London","4th floor, Bentima House, 168-172 Old Street, London, EC1V 9BP",,51.525154,-0.090522
24139670,"Kingsway Hotel","London","66 Great Queen St",,51.515862,-0.120097
24141823,"Goldsmiths, University of London, New Cross, SE14 6NW","London","The Altrium, Professor Stuart Hall Building",,51.507351,-0.127758
24141931,"Interchange Triangle","London","The Stables Market, Camden Lock Road, NW1 8AH",,51.541409,-0.146597
24142254,"Skills Matter | CodeNode","London","10 South Place, EC2M 7EB",,51.518551,-0.086114
24149803,"Microsoft London","London","4th Floor, 2 Waterhouse Square, EC1N 2ST",,51.518459,-0.110305
24151371,"Erlang Solutions Ltd","London","Back Church Lane E1 1LU",,51.512688,-0.067046
24152820,"Skills Matter | Code Node","London","10 South Place EC2M 2RB",,51.518551,-0.086114
24155096,"Lever Building","London","85 Clerkenwell Road",,51.52257,-0.102973
24155180,"Salesforce.com UK","London","Salesforce Tower, 110 BISHOPSGATE, EC2",,51.507351,-0.127758
24163987,"Fablab London","EC2R 8AE","1 Frederick’s Place, Off Old Jewry ",,51.514187,-0.091538
24164202,"British Gas Connected Homes","London","20 Rathbone Place, W1T 1HY",,51.517479,-0.133578
24166110,"Mendix Office","London","3 More London",,51.504177,-0.079725
24166110,"Mendix Office","London","3 More London",,51.504177,-0.07973
24170365,"WeWork South Bank","SE1 9PD","22 Upper Ground",,51.507904,-0.107153
24173553,"Canonical,","London"," 5th Floor, Blue Fin Bldg, 110 Southwark St, SE1 0SU",,51.506176,-0.100236
24176182,"St Johns Church of Hoxton (Main Church)","London","Pitfield Street, N1 6NP",,51.53101,-0.082917
24181934,"Barclays","London","5 The North Colonnade, Canary Wharf, E14 4BB",,51.50592,-0.02173
24183005,"Birbeck University","WC1E 7JL","Clore Management Building, Torrington Square, Room 101",,51.522995,-0.130342
24183656,"Excel Centre London","London","Royal Victoria Dock, 1 Western Gateway, E16 1XL",,51.508457,0.025091
24185525,"Stratified Medical","London","40 Churchway, NW1 1LW",,51.528511,-0.130355
24186084,"Thoughtworks  ","London","78 Wardour St, W1F",,51.513214,-0.133658
24188232,"Code Node","London","10 South Place, London, EC2M 7EB",,51.518551,-0.086114
24190442,"Carwow Offices","London","Carwow  6th Floor  New Penderel House  283-288 High Holborn  London  WC1V 7HP",,51.518089,-0.115502
24193056,"Runway East","London","10 Finsbury Square",,51.52124,-0.087505
24196022,"Royal Festival Hall - Outside Le Pain Quotidien","SE1 8XX","Festival Walk",,51.505775,-0.116825
24200300,"WeWork Spitalfields","London","1 PRIMROSE STREET, LONDON, EC2A 2EX",,51.520279,-0.079775
24201479,"WeWork Moorgate","London","1 Fore Street",,51.518105,-0.090487
24202245,"STUDIO 7, 4th Floor, next to Look Mum No Hands","London","49-59 Old Street, EC1V 9HX, London",,51.524166,-0.096889
24203491,"Cloudreach","London","1 Waterhouse Square, 138 - 142 Holborn, EC1N 2ST",,51.518253,-0.110329
24203580,"Ovo Energy","Bristol BS1 6ED ","1 Rivergate",,51.451012,-2.583269
24207500,"Eligo Recruitment","London","Barry House, Worple Rd, Wimbledon SW19 4DH",,51.421135,-0.209581
24207510,"EIP, Fairfax House","London","15 Fulwood Place London WC1V 6HU",,51.518841,-0.113386
24214341,"Central Working - Whitechapel","London","83 - 89 Mile End Road, E1 4UJ",,51.521099,-0.051986
24214872,"CodeNode - 10 South Place","EC2M 7EB","London",,51.518562,-0.086245
24216070,"WeWork Aldgate","London","Aldgate Tower, 35 Whitechapel High St, E1 7PU",,51.514759,-0.072156
24217933,"Cruciform LT1, Cruciform Building, UCL","London","Gower Street, London, WC1E 6BT",,51.524284,-0.134608
24226932,"OpenTable","London","  Alphabeta Building  14-18 Finsbury Square  London, EC2A 1AH",,51.521854,-0.086316
24229188,"Cloudflare","London","25 Lavington St SE1 0NZ",,51.504795,-0.100216
24229237,"WeWork","London","9 Devonshire Square, London EC2M 4YD",,51.516838,-0.080202
24234006,"Forest Technologies","London","Woolyard, 52-56 Bermondsey Street, SE1 3UD",,51.501816,-0.082414
24234054,"Hotels.com","EC1V 4AB","Angel Building, 407 St John Street",,51.531151,-0.106025
24234083,"Apple Retail Store","WC2E 8HB","No. 1-7 The Piazza, Covent Garden, London",,51.512272,-0.123449
24234200,"ONLINE EVENT","ONLINE","http://bluemixconnectedlife.com/",,0,0
24238025,"Uber London, Aldgate Tower","London","1st Floor, 2 Leman Street, E1 8FA",,51.514862,-0.071774
24239985,"The Fox","London","28 Paul Street, Shoreditch, EC2A 4LB",,51.523903,-0.083815
24247524,"WeWork Spitalfields","EC2A 2EX","1 Primrose Street",,51.520279,-0.079775
24248873,"Skills Matter, CodeNode","London","10 South Place, London, EC2M 7EB",,51.518551,-0.086114
24248895,"Hewlett Packard Enterprise, 1 Aldermanbury Square","London","EC2V 7SB",,51.516785,-0.092935
24251891,"Lansons","London","24a St John Street, EC1M 4AY",,51.52039,-0.101476
24264800,"Google Campus","London","4-5 Bonhill Street London EC2A 4BX",,51.522598,-0.085515
24266856,"Old Billingsgate","London","1 Old Billingsgate Walk, EC3R 6DX",,51.508537,-0.084187
24279884,"Rise London (previously London Escalator)","London","69-89 Mile End Road, E1 4TT",,51.520878,-0.052311
24294093,"Wayra UK","London","Shropshire House, 2-10 Capper St London WC1E 6JA",,51.522541,-0.135032
24296539,"Sainsburys Technology Hub","London","33 Holborn, London, EC1N 2HT",,51.517307,-0.108527
24304962,"Markel","London","20 Fenchurch Street London EC3M 3AZ",,51.511093,-0.083468
24306010,"WorldRemit","SW1E 6PA","2nd Floor, 62 Buckingham Gate, London",,51.497723,-0.136051
24310904," King's College London Waterloo campus","London","Stamford Street London SE1 9NH",,51.506222,-0.11007
24313634,"The Hub @ Argos","London","279 Vauxhall Bridge Road, Victoria, SW1V 1EJ ",,51.494823,-0.14203
24315540,"WeWork , Liverpool Street ","London","1 Primrose Street, EC2A 2EX. ",,51.520279,-0.079775
24315607,"Balls Brothers Carey Lane","London","5-6 Carey Ln, London EC2V 8AE",,51.515465,-0.096231
24323806,"Campus London","London EC2A 4BX","4-5 Bonhill Street",,51.522598,-0.085515
24330345,"Graph Aware","London","2nd floor, 133-135 Great Suffolk Street, London, SE1 1PP",,51.500259,-0.096437
24330457,"WeWork Studio","London"," 2 Sheraton Street, Soho, W1F 8BH",,51.514957,-0.134479
24332378,"Medical Sciences 31 A V Hill LT, Medical Sciences Building,","London","UCL, Malet Place, WC1E 6BT ",,51.524773,-0.133427
24334421,"38 - 40 Commercial Road, London, E1 1LN","London","1st Floor - MISTER DEE DEE building",,51.507351,-0.127758
24349554,"BT Centre Showcase","London","81 Newgate St",,51.515594,-0.097853
24352651,"LT3, Tanaka Building","London","South Kensington Campus, SW7 2AZ",,51.500141,-0.176603
24358104,"Birbeck,University of London","London","43 Gordon Square, Room G01. WC1H 0PD",,51.524635,-0.13038
24361081,"WeWork Old Street","London","18-21 Corsham Street, London  N1 6DR",,51.527657,-0.086574
24363357,"CompareTheMarket.com","London","Sixth Floor, Albert House,  Singer Street, EC2A 4BQ",,51.525894,-0.085188
24363713,"Slalom","London","2 London Bridge, 2nd Floor East, SE1 9RA",,51.50663,-0.088758
24368069,"The Proud Archivist ","London","2-10 Hertford Rd London N1 5SH GB",,51.537186,-0.078691
24375229,"Byron","WC1V 6JQ","114 High Holborn",,51.517799,-0.119848
24382296,"Microsoft","London","2 Kingdom Street Paddington Central London,  W2 6BD",,51.519028,-0.181703
24385630,"Birkbeck College","London","Room 414 Malet Street Torrington Square WC1E 7HX",,51.522526,-0.130085
24387000,"Microsoft, 2 Kingdom Street ","London","Paddington",,51.515972,-0.174943
24389085,"M06B (서울특별시 성동구 왕십리로 2길 20, 카우앤독 2층 M06B)","Seoul","Cow & Dog 2F, 2Gil 20, Wangsipri-ro, Seongdong-gu",,0,0
24392460,"Finsbury Square, London","London","EC2A 1RR",,51.521126,-0.086858
24396542,"St. Paul's","London","200 Aldersgate Conference Centre St. Paul's, London EC1A 4HD",,51.517517,-0.097762
24398983,"King, The Ampersand Building","London","178 Wardour Street, W1F 8FY",,51.515526,-0.135311
24399084,"AOL Europe, 4th Floor, Albert House,","London","1 - 4 Singer Street, London, EC2A 4BQ ",,51.525925,-0.085236
24399642,"The Wellington ","London","351 The Strand",,51.511429,-0.119533
24401709,"Onfido","London"," 40 Long Acre, Covent Garden, WC2E 9LG ",,51.512913,-0.124242
24403746,"The Brewery","London","52 Chiswell Street, EC1Y 4SD",,51.520802,-0.091355
24406006,"Boyle, Darwin & Fleming rooms, IBM Client Centre, 76/78 Upper Ground, South Bank","London","SE1 9PZ",,51.507462,-0.11262
24408125,"Impact Hub Kings Cross","N1 9AB","34b York Way, London",,51.53257,-0.122261
24421039,"Grind ","NY 10007","2nd Floor, 140 West St / Vesey",,40.713799,-74.013931
24425072,"The Bakery Worldwide ","London, EC1V 2TT","5th Floor, 230 City Road ",,51.528477,-0.093009
24428818,"Blenheim Chalcot Group","London","One Hammersmith Broadway, Hammersmith, W6 9DL",,0,0
24430752,"Google Office","London","1–13 St. Giles High Street, London, WC2H 8AG",,51.516056,-0.127148
24430880,"Marks& Spencers HQ","London","Waterside House, 35 N Wharf Rd, London, W2 1NW",,51.518898,-0.174967
24435078,"Mendix UK Office","London","20 St Dunstans Hill, London, EC3R 8HL ",,51.509235,-0.082272
24435080,"Mendix UK Office","London","20 St Dunstans Hill",,51.509235,-0.082272
24438247,"IDEA London","London","69 Wilson Street",,51.521877,-0.08494
24439632,"Future Labs","Leeds","1 Eastgate LS2 7LH",,53.799053,-1.539296
24440008,"IdeaLondon","London","69 Wilson Street",,51.521877,-0.08494
24440737,"Adzuna","London","Floor 2, Alexander House, 14-16 Peterborough Road, Fulham, SW6 3BN",,51.471653,-0.199184
24455241,"4th Floor ","London","33 Cannon Street",,51.512829,-0.094755
24457015,"Yieldify @ WeWork","London","18- 21 Corsham St, London N1 6DR",,51.527657,-0.086574
24467095,"LendInvest - Please sign up here https://fatj-lendinvest.eventbrite.com","London","W1T3JJ",,51.518383,-0.138762
24467628,"Brixton Impact Hub","SW9 8PQ","Pop Brixton, 49 Brixton Station Rd, London",,0,0
24472142,"HUCKLETREE SHOREDITCH","London","Alphabeta Building 18 Finsbury Square, London, EC2A 1AH, United Kingdom",,51.507351,-0.127758
24479166,"Campus London","London","4-5 Bonhill Street, London EC2A 4BX, United Kingdom",,51.522598,-0.085515
24481310,"Mergermarket Group","EC4R 1BE","10 Queen Street Place, London",,51.51022,-0.092705
24483743,"Zone Digital","London","12-13 Stable Street, N1C 4AB",,51.535767,-0.125768
24487773,"The Van Nelle Factory","Rotterdam","Van Nelleweg 1 3044 BC Rotterdam",,51.922821,4.433711
24495246,"Red Hat","London","4th floor, 30-36 Monument Street, London EC3R 8NB",,51.509609,-0.08528
24497037,"London Sciene Museum","London","Exhibition Road, South Kensington, London SW7 2DD",,51.49818,-0.174115
24499440,"Empiric London","London","1 Old Jewry EC2R 8DN",,51.513824,-0.090765
24501702,"Meltdown, 342 Caledonian Road","London","N1 1BB",,51.540142,-0.116676
24510838,"River Beat","Gateshead","Pipewellgate",,54.964638,-1.610912
2452131,"The Jam Tree","London","541 Kings Road, Chelsea, SW6 2EB",,51.4795,-0.187082
24524226,"디캠프 4층 세미나실","Seoul","서울시 강남구 역삼동 683-34 새롬빌딩, Seoul",,37.507938,127.045097
24525137,"Eight Members Club","London","1 Dysart Street",,51.521473,-0.083795
24527949,"Next Jump","London","2nd Floor 99 Waterloo Road SE1 8UL",,51.503063,-0.110342
24529399,"The Grand Hotel","Berlin","Hirtenstraße 4",,52.525784,13.411395
24530215,"LSE - New Academic Building","London"," 54 Lincoln's Inn Fields, London WC2A 3LJ",,51.515312,-0.117738
24531252,"School of Electronic Engineering and Computer Science at Queen Mary University London","London","Mile End Road, E1 4NS",,51.522934,-0.040163
24535606,"SapientNitro - Please sign up here https://fatj-sapientnitro.eventbrite.com","London","E1 6DU",,51.5205,-0.078337
24536302,"ONE Campaign Office","London","151 Wardour Street",,51.514282,-0.134893
24537974,"Hotels.com","London","Block 1, Angel Square, London, EC1V 1NS",,51.531986,-0.105111
24538495,"Jane Street","London","20 Fenchurch St, London EC3M 3BY",,51.512539,-0.080723
24545792,"Funding Circle","London","71 Queen Victoria St",,0,0
24547251,"Level 24/25 The Shard - iland Europe Ltd.","London","32 London Bridge St. London SE1 9SG",,51.504417,-0.0863
24548297,"Impact Hub King's Cross","London","34B York Way, London N1 9AB",,51.53257,-0.122261
24550275,"Playtech Offices ","London","10 Jamestown Road London, Greater London NW1 7BY",,51.540535,-0.145245
24561743,"Academy Class","London","39 York Road, SE1 7NQ",,51.503307,-0.115234
24562164,"Zoopla","London","Harlequin Building, 65 Southwark Street",,51.505043,-0.097573
24565705,"Unit 2, Old Street Station ","London","EC1Y 1BE",,51.525669,-0.087562
24566337,"Rothschild lecture theatre (2nd floor of the School of Medicine building) St Mary's Campus","London","norfolk place & praed street",,51.517105,-0.17288
24568547,"The Innovation Hub","London","Alder Hey Children's Hospital, E Prescot Rd, L14 5AB",,51.507351,-0.127758
24571743,"CodeNode","London","10 South Place, EC2M 2RB",,51.51855,-0.086114
24572934,"Puppet Offices","SE1 3UD","Woodyard, 52 Bermondsey St, London",,51.501842,-0.082424
24583532,"Room 114, Foster Court, Malet Place, Off Torrington Place","London","WC1E 7JE",,51.522972,-0.132217
24589976,"6th Floor, The Walbrook Building","London","25 Walbrook, EC4N 8AF",,51.512077,-0.089888
24590141,"WeWork Studio","London","1 Fore Street, Moorgate, EC2Y 5EJ",,51.518326,-0.088251
24603400,"See Eventbrite!","London","https://fatj-ga.eventbrite.com",,51.507351,-0.127758
24603702,"London Hackerspace","London","447 Hackney Rd, London E2 9DY",,51.532173,-0.060725
24605752,"Lecture Theatre 1.02 Malet Place Engineering Building, Enter through Roberts Building, Malet Place, Off Torrington Place","London","WC1E 7JE",,51.522697,-0.132566
24606745,"See RSVP link","London","https://generalassemb.ly/education/how-code-changed-content-forever/london/25790",,0,0
24609779,"Moving Picture Company Ltd","London","141 Wardour Street, Soho",,51.513901,-0.134439
24610206,"St Luke’s Community Centre, 90 Central Street","London","EC1V 8AJ",,51.52684,-0.096566
24620770,"TMRW Hub","Croydon","75 High St, Croydon, Greater London CR0, UK",,51.371269,-0.100333
24621211,"Prism Digital","London","EC2A 1AH",,51.521935,-0.08632
24624241,"CC Space","Seoul","서울특별시 마포구 와우산로19길 21 5층",,37.551155,126.92186
24631262,"Masabi","London","37 Bevenden St, London N1 6BL",,51.529617,-0.085862
24633035,"la fosse associates","London","Portland House, 5th Floor Bressenden Place London, SW1E 5BH",,51.497055,-0.142078
24636766,"MongoDB Offices London","London","16 Hatfields,  SE1 8DJ",,51.506523,-0.107064
24636873,"JustIT","London","St Clare 30 – 33 Minories London EC3N 1DD",,51.512344,-0.075278
24643628,"eBay/Gumtree","London","Hothom House, 2 Heron Square, Richmond, TW9 1EJ",,0,0
24643634,"Rentify","London","4th Floor, 6-8 Long Lane, London EC1A 9HF",,0,0
24658788,"Adi","London","IG119EN",,51.549789,0.108605
24668260,"Tesco Digital Offices","London","85 Clerkenwell Road",,51.522022,-0.110251
24670445,"Nexmo","London","44 Featherstone Street EC1Y 8RN  ( Old Street underground station )",,51.524555,-0.089092
24674339,"See eventbite","London","http://bit.ly/2a57nTl",,0,0
24675081,"Room MAL 415, Birkbeck, University of London","London, WC1E 7HX","Malet Street, Bloomsbury",,51.520996,-0.127844
24683555,"Edale","London","Peak District",,53.250969,-1.911313
24684961,"Broadbean","London","6th Floor, South Quay Building 189 Marsh Wall London E14 9SH",,51.500748,-0.017054
24687879,"Deloitte, 2 New Street Square ","London","London EC4A 3BZ",,51.516079,-0.107781
24690248,"MozLDN","London","Metal Box Factory Suite 441, 4th floor 30 Great Guildford Street London SE1 0HS",,51.504871,-0.097048
24690274,"The Auditorium at Digital Catapult","London","101 Euston Road, NW1 2RA",,51.52853,-0.126954
24698655,"Google HQ ","London","76 Buckingham Palace Road SW1W 9TQ",,51.494972,-0.146683
24699233,"TBD`","London","London",,51.507351,-0.127758
24700520,"Rise Manchester","Manchester"," 231 Deansgate, M3 4EN",,53.477665,-2.249747
24700756,"The Boardroom","Bristol","Market Chambers, 20 St Nicholas St, BS1 1UB",,51.453869,-2.593649
24702607," Excel, Royal Victoria Dock, 1 Western Gateway","London","E16 1XL",,51.50816,0.02712
24703252,"Hotel Novotel West","London","1 Shortlands, W6 8DR",,51.492271,-0.220205
24713575,"Pivotal Labs [New Location]","London","2nd floor, The Warehouse, The Bower, 211 Old Street London EC1V 9NR",,51.525902,-0.08913
24718456,"Interchange Atrium","London","Stables Market, Chalk Farm Road, Camden, NW1 8AH",,51.54229,-0.148351
24719328,"BPL Global","London EC3V 4QT","150 Leadenhall Street",,51.51363,-0.083582
24728116,"General Assembly London - Relay Building","London","1 Commercial Street, E1 7PT",,51.51535,-0.072503
24730232,"techUK","London","10 St Bride Street, EC4A 4AD",,51.515045,-0.105116
24756118,"ASI Data Science","London","48 Fitzroy Street W1T 5BS",,51.523708,-0.140051
24758401,"General Assembly Whitechapel","London","1 Commercial Street",,51.51535,-0.072503
24768159,"St Mary's Campus, Paddington - Imperial College London","London","Norfolk Place, W2 1PG",,51.516693,-0.172331
24769923,"Neo Technology UK","London","5-11 Lavington Street, London, SE1 0NZ",,51.504944,-0.100046
24769952,"Digital McKinsey","London","1 Jermyn Street, Piccadilly",,51.506588,-0.143221
24770474,"Rise London","London","69-89 Mile End Road, London E1 4TT",,51.520878,-0.052311
24777144,"Room MAL 402, Birkbeck, University of London","London WC1E 7HX","Malet Street, Bloomsbury",,51.520996,-0.127844
3134461,"Queen Mary University","London, E1 4NS","Room 1.13 in the Francis Bancroft Building",,51.522949,-0.040855
3354222,"London Hackspace","London","E2 8HD",,51.530537,-0.076169
3425742,"Club Workspace Clerkenwell Workshops  EC1R 0AT London United Kingdom","London","27/31 Clerkenwell Close ",,51.524548,-0.10642
3479202,"Hitachi Consulting offices","London","2 More London, Riverside, 2nd floor, SE1 2AP",,51.50524,-0.080434
3628292,"Oracle Corporation","London","One South Place London EC2M 2RB",,51.519234,-0.087501
3687512,"Sourcesense's office","London","Room 23, London Fruit and Wool Exchange, 56 Brushfield Street",,51.518925,-0.078949
3742282,"Queen Mary University","London E1 4NS","Room 115, Bancroft Building",,51.525166,-0.049134
3743242,"Queen Elizabeth II Conference Centre","London","Broad Sanctuary, Westminster, London, SW1P 3EE",,51.50008,-0.127838
3929882,"The Hub Westminster","London","First floor, New Zealand House, 80 Haymarket, SW1Y 4TE",,51.507904,-0.131782
3971092,"JAX London - 239 Vauxhall Bridge Road","SW1V 1EQ","London",,51.494156,-0.141506
4018872,"The Slug and Lettuce ","London","County Hall, Waterloo",,51.501949,-0.11669
4036252,"Victoria Park Plaza, 239 Vauxhall Bridge Road","London","London, SW1V 1EQ",,51.494156,-0.141506
4127832,"Holborn House VIP Club","London","266-267 High Holborn,",,51.517967,-0.116584
4218432,"Queen Mary University Room 113a,","London","Bancroft Building, London E1 4NS",,51.525719,-0.047924
4327622,"The Centre for Creative Collaboration","London","16 Acton Street, WC1X 9NG",,51.52874,-0.116528
4337372,"Webinar - Online","London","London",,51.500153,-0.126236
4343292,"Apple Retail Store","London","235 Regent Street, W1B 2EL",,51.514339,-0.141787
4465402,"Doggett's Coat And Badge","London","1 Blackfriars Bridge",,51.509724,-0.104323
4477842,"THECUBE, Studio 5, 155 Commercial Street","London","E1 6BJ",,51.521149,-0.075657
4596962,"The Innovation Warehouse","London","1 East Poultry Avenue",,51.518719,-0.10263
4763082,"10gen","London","Suite 115, 200 Aldersgate Street, EC1A 4HD",,51.518219,-0.097069
4817212,"The Westminster Hub","London","1st Floor, New Zealand House, 80 Haymarket, SW1Y 4TE",,51.507915,-0.131582
4817342,"Skills Matter","London","116-120 Goswell Road London, EC1V 7DP United Kingdom",,51.524509,-0.099154
4817682,"Rangespan Offices","London","W2 1FT",,51.517506,-0.177439
4842202,"The Knights Templar","London","95 Chancery Lane, WC2A 1DT",,51.515457,-0.112059
5050822,"UCL Roberts 106","London","Roberts Building, Torrington Place, WC1E 7JE",,51.521744,-0.134188
517314,"Skills Matter Limited","London","1 Sekforde Street",,51.524506,-0.104589
5254412,"Queen Mary University","London","Room FB 2.40 in the Francis Bancroft Building, London, E1 4NS",,51.523411,-0.040532
5254692,"The White Lion","London","37 Central Street, City Road, London, EC1V 8AB",,51.518974,-0.104858
5309102,"TIMGroup (formerly YouDevise)","London","3 Copthall Avenue, EC2R 7BH, London",,51.515545,-0.087669
535419,"Sun Microsystems Ltd","London","Regis House, 45 King William Street",,51.52,-0.1
5416312,"Innovation Warehouse","London","1 East Poultry Avenue, EC1A 9PT",,51.519104,-0.101962
545413,"The Horse and Groom","London","128 Great Portland St",,51.519987,-0.14267
5579032,"Eight Moorgate","London","London EC2A 2BX ",,51.521568,-0.08413
5588392,"Skills Matter","London","116-120 Goswell Road London, EC1V 7DP",,51.524506,-0.099152
5631802,"Innovation Warehouse","EC1A 9PT","1 East Poultry Avenue, 1st Floor","1 East Poultry Avenue",51.51872,-0.102631
5698342,"IPC Media Building (Bluefin)","SE1 0SU","110 Southwark Street",,51.505924,-0.100221
5775322,"Media Science","London","53 Frith St, Soho, London, W1D 4SN",,51.513718,-0.13202
599764,"JWUG ","London","PLEASE SEE END OF MEETING DESCRIPTION FOR LOCATION DETAILS",,51.500153,-0.126236
606989,"Lowlander Cafe","London","20, Creechurch Lane, London EC3 5AY",,51.52,-0.1
611352,"London Geek Nights","London","168 High Holborn","9th Floor, Berkshire House",51.515856,-0.125975
6143962,"Forward Internet Group","London","Floor 2, Centro 3, 19 Mandela Street, NW1",,51.537804,-0.136739
6216252,"University College London","London","Gower Street, WC1E 6BT",,51.522053,-0.132362
625278,"Montagu Pyke","London","105-107 Charing Cross Road",,51.512653,-0.12882
628729,"Doggett's","London","1 Blackfriars Bridge","SE1 9UD ",51.508457,-0.1049
628729,"Doggett's","London","1 Blackfriars Bridge","SE1 9UD ",51.51102,-0.104256
6293062,"Earls Court 2","London","Warwick Rd, SW5 9TA",,51.490124,-0.195271
6371982,"1.15 Bancroft Building, Queen Mary, University of London","E1 4NS","London",,51.523411,-0.040532
6519152,"Techhub @ Campus","London EC2A 4BX","4-5 Bonhill St",,51.522713,-0.08535
6525682,"Campus London","London","4-5 BONHILL STREET LONDON EC2A 4BX",,51.522724,-0.084817
6530092,"Shakespears Head - Holborn","London","64-68 Kingsway - WC2B 6BG","Holborn",51.515618,-0.119158
6591392,"Duke and Duchess","London, EC4V 5BR","2/3 Creed Lane,",,51.51342,-0.10119
6617232,"HUB WESTMINSTER","London","New Zealand House","80 Haymarket",51.507789,-0.131651
6738442,"UCL, Malet Place Engineering Building 1.02","WC1E 6BT","Gower Street, London",,51.521782,-0.132372
6741752,"TIM Group","London","3 Copthall Avenue, EC2R 7BH",,51.515968,-0.087815
6777292,"Mozilla","London","Mozilla, Floor 3, 101 St Martin's Ln","WC2N 4AZ",51.51026,-0.12705
681899,"UCL university, Garwood Lecture Theatre","London","Gower Street WC1E 6BT",,51.522451,-0.132625
683253,"Adobe Regents Park Office","London","12 Park Crescent",,51.522884,-0.146312
683594,"The Square Pig, Holborn","London","30/32 Procter Street, WC1R 4QG",,51.518983,-0.11964
6858902,"Google Campus","London","4-5 BONHILL STREET LONDON EC2A 4BX",,51.522724,-0.084817
6858912,"Google Campus","London","4-5 Bonhill Street, London, EC2A 4BX",,51.522724,-0.084817
690383,"Conway Hall","London","25 Red Lion Square ","WC1R 4RL",51.51952,-0.118572
6931892,"Park Plaza Westminster Bridge Hotel","London SE1 7 UT","200 Westminster Bridge Road",,51.501411,-0.117241
6974102,"UCL, Darwin Building, University College London, Gower Street ","London","University College London, Gower Street, London WC1E",,51.524536,-0.134037
6996362,"Regus ","London","1 Northumberland Avenue, Trafalgar Square, London, WC2N 5BW",,51.507103,-0.125636
710657,"Princess Louise Pub","Holborn","208 High Holborn",,51.517424,-0.121685
7116402,"Jewel St Pauls","London","130 Wood Street, EC2V 6DL London",,51.514511,-0.094657
7131842,"Moz Space","London","101 St. Martins Lane Suite 300",,51.510262,-0.12705
713623,"ThoughtWorks UK Office","London","168 High Holborn","9th Floor, Berkshire House",51.515856,-0.125975
7154122,"Google Campus, "," LONDON ","4-5 BONHILL STREET, EC2A 4BX",,51.522713,-0.08535
716492," Doggetts Coat and Badge","London","1 Blackfriars Bridge","SE1 9UD",51.511022,-0.104256
7169472,"Business Design Centre","London","52 Upper Street, Islington, London N1 0QH",,51.535286,-0.105164
7207792,"Fujitsu","W1U 3BW","22 Baker St",,51.517708,-0.155345
7219122,"Blake Hall College","London","Surrey Quays Road SE16 2XU",,51.496822,-0.051113
733330,"Theodore Bullfrog","London","26 John Adam Street   London   WC2N 6HL","(next to Charing X Station)",51.50878,-0.123749
733556,"The Pembury Tavern ","London","90 Amhurst Rd","E8 1JH",51.553086,-0.066993
7382392,"SkillsMatter eXchange","London","116-120 Goswell Road London, EC1V 7DP",,51.524506,-0.099152
742447,"Nordic Bar","London","25 Newman St","(just off Oxford street to the North)",51.517805,-0.135793
7490452,"Method","London","The Tea Building, Studio 7.01 56 Shoreditch High Street ",,51.524128,-0.076224
7494922,"Cedar Room, MWB Business Exchange,","London","88 Kingsway, London WC2B 6AA",,51.517193,-0.119997
751305,"The Wheatsheaf","London","25 Rathbone Pl",,51.517685,-0.134118
7577202,"Proud Camden","London","Chalk Farm Road, Camden, NW1 8AH",,51.542953,-0.149196
759316,"Old Fountain","London","3 Baldwin St EC1V 9NU",,51.527003,-0.088566
7595422,"Badoo's offices","London","Medius House, 2 Sheraton Street, W1F 8BH",,51.514889,-0.134692
76192,"Pied Bull Court","London","Galen Place, London, WC1A 2JR",,51.516747,-0.12719
764371,"Lord’s Cricket Ground","London","St John's Wood Rd",,51.527965,-0.173441
7706602,"The Blacksmith Arms","St Albans","56, St Peters Street",,51.755116,-0.335935
772127,"The Green","London","29 Clerkenwell Green",,51.522611,-0.106347
780879,"Old Crown Pub","London","33 New Oxford St","WC1A 1BH",51.517099,-0.125057
7830522,"Qubit","London, W1F 8HT","20 Broadwick Street",,51.513691,-0.1354
8004692,"Centre For Creative Collaboration","London WC1X 9NG","16 Acton Street",,51.528782,-0.1165
8023572,"Opengamma","London","185 Park Street, London, SE1 9BL",,51.507004,-0.097743
805913,"Skills Matter","London EC1V7DP","The Skills Matter eXchange","116-120 Goswell Road",51.524823,-0.099109
813778,"Hoop and Grapes","City of London","80 Farringdon Street ","EC4A 4BL ",51.516402,-0.104873
815343,"Wahoo Sports Bar - Putney","London SW15 1SL","14 Putney High St","Upstairs where it's quieter",51.473697,-0.24902
822387,"London College of Communication","London","Elephant & Castle","Podium Lecture Theatre",51.495777,-0.10073
8226872,"Oracle Corporation UK Ltd","London","One South Place, London, EC2M 2RB",,51.519184,-0.086995
8285102,"Google Campus","EC2A 4BX","4-5 Bonhill Street",,51.52272,-0.085348
8287592,"ONLINE","London","Cyberspace",,51.507336,-0.127683
8293452,"The George Inn","London","77 Borough High Street, Southwark,  SE1 1NH",,51.502567,-0.092188
835790,"Counting House Pub","London","50 Cornhill Rd","EC3V 3PD",51.513407,-0.085022
8399802,"13 Kingly Court","London"," W1B 5PW",,51.512341,-0.138734
8418232,"10gen London Office","London","2F-G, 5-25 Scrutton Street",,51.523361,-0.08379
845900,"01zero-one, Westminster Kingsway College","London","Hopkins Street","Soho",51.513109,-0.135035
849277,"LVPO Bar","London","50 Dean Street","Soho",51.512614,-0.131788
85217,"Earl's Court Exhibition Centre","London","Warwick Road","SW5 9TA",51.49233,-0.199735
8533712,"Edgar Wallace","Al","40 Essex Street, WC2R 3JE",,51.512691,-0.112831
8548412,"Facebook London","London","42 Earlham Street",,51.51384,-0.126126
857987,"ThoughtWorks UK Office","London","168 - 173 High Holborn","9th Floor, Berkshire House",51.517861,-0.10926
8593492,"Milk Bar, inside Grace ","London","42-44 Great Windmill Street, W1D 7NB",,51.511059,-0.134132
8603892,"Westminster Millennium Pier","SW1A 0AA","Next to Westminster Bridge on the North bank of the Thames",,51.49984,-0.124663
865785,"UCL Chadwick Lecture Theatre","London","Gower St",,51.522644,-0.132834
867750,"The Building Centre","London","Store Street","WC1E 7BT",51.519696,-0.131908
870171,"London Java Community","London","PLEASE SEE END OF MEETING DESCRIPTION FOR LOCATION DETAILS",,51.500153,-0.126236
8764022,"Campus, powered by Google","London","4-5 Bonhill Street",,51.522721,-0.085348
9096272,"Holborn Whippet Pub","London","25-29 Sicilian Avenue, Holborn, London, WC1A 2QH",,51.518375,-0.121336
9125102,"The Yorkshire Grey 2 Theobalds Road"," WC1X 8PN","London",,51.521519,-0.113884
9132042,"Fidelity Growth Partners Europe","London","25 Cannon Street",,51.513058,-0.095584
919327,"Queen Of Hoxton","London","1 Curtain Rd","EC2A 3JX",51.524485,-0.080301
9281922,"The Lamb Brewery","London","9 Barley Mow Passage",,51.492363,-0.262531
9286362,"Grand Connaught Rooms,","London WC2B 5DA","61-65 Great Queen Street, Holborn, ",,51.515568,-0.120687
9303642,"UCL, Medical Sciences AV Hill Lecture Theatre, Medical Sciences Building","London","Malet Place, off Torrington Place, WC1E 6BT",,51.522484,-0.132641
941618,"The Porterhouse","London","21-22 Maiden Lane, Covent Garden, WC2E 7NA","WC2E 7NA",51.510472,-0.123808
9481792,"Tay Do Cafe","London, E2 8AG","65 Kingsland Road",,51.529736,-0.077611
953145,"Westminster Pier","London","Victoria Embankment","sw1a0aa",51.507064,-0.121839
9565212,"Bloomberg","London","50 Finsbury Square, EC2A 1HD",,51.520401,-0.087082
96579,"Olympia 2","London","Near Olympia tube station",,51.52,-0.1
9695352,"OpenCredo","London","5-11 Lavington Street, ",,51.508244,-0.316883
9853252,"Whittaker House","London","2 Whittaker Avenue, TW91EH ",,51.458755,-0.306908
9867902,"The Crypt","London","St James Church, Clerkenwell",,51.523991,-0.106335
9870852,"The Open Data Institute","London","3rd Floor","65 Clifton Street",51.50643,-0.12719
9870862,"The Open Data Institute","London","3rd Floor, 65 Clifton St, London",,51.522163,-0.083438
10008462,"Songkick","London","Third Floor, 12-18 Hoxton Street, N1 6NG",,51.513435,-0.109462
10028072,"Club Workspace","London","Clerkenwell Workshops,27-31 Clerkenwell Close. EC1R 0AT",,51.524334,-0.10651
1002824,"The Kensington Close Hotel","London","Wrights Lane"," Kensington, W8 5SP",51.500033,-0.192926
10077632,"The Jugged Hare","London","49 Chiswell St., London, EC1Y 4SA",,51.520779,-0.090923
1008287,"MWB Liverpool Street","London","55 Old Broad Street",,51.516473,-0.083513
10117112,"Queen Mary University Room 1.13A, Bancroft Building","London","London E1 4NS",,51.523411,-0.040532
10173942,"Apex City of London Hotel  (New Bar Area)","London EC3N 4AX","1 Seething Lane",,51.510582,-0.07932
10185392,"Open Credo","SE1 0NZ, London","5-11 Lavington Street",,51.505108,-0.099677
10185422,"OpenCredo","London","5 - 11 Lavington Street, London, SE10NZ",,51.505241,-0.101121
1023590,"The George Tavern","London","373 Commercial Road","Stepney, E1 0LA",51.514198,-0.052919
10252182,"University of London Union (ULU)  ","London"," Malet Street, London, WC1E 7HY ",,51.521408,-0.13024
1026588,"Hilton London Metropole","London","225 Edgware Road,W2",,51.519077,-0.168782
10316822,"Crowne Plaza London - The City","London","19 New Bridge Street",,51.513943,-0.10444
10323572,"Fleet River Bakery","London","71 Lincoln's Inn Fields, WC2A 3JF",,51.515709,-0.117884
10336352,"Basho Technologies Ltd","London","61 Rivington Street",,51.526176,-0.080659
10351432,"The Perseverance ","London","63 Lamb's Conduit Street, WC1N 3NB",,51.522274,-0.11885
10375152,"THE VICTORIA AND ALBERT MUSEUM","London","SOUTH KENSINGTON SW7 2RL",,51.496819,-0.172531
1040306,"The Skills Matter eXchange","London","116-120 Goswell Road","EC1V 7DP",51.524521,-0.099231
1044625,"Hilton Metropole Hotel","London","Edgware Road",,51.518966,-0.168643
1047572,"29 London Fruit & Wool Exchange ","London","Brushfield Street "," E1 6EU ",51.518925,-0.078963
1048496,"Astoria","Stockholm","Stockholm 114 39","Nybrogatan 15",59.335557,18.077456
1048498,"Clockhouse at the Ericsson Conference Centre","Stockholm","Götalandsvägen 230","12544 Stockholm",59.280293,18.004006
10494552,"81 Leonard Street Events","London, EC2A 4QS","81 Leonard Street",,51.524712,-0.083073
10499892,"The William Morris","London W6 0QA","2-4 King Street",,51.492924,-0.225645
10558052,"NESTA","London","1 Plough Place, EC4A 1DE",,51.51672,-0.108908
1057276,"The Crown Tavern","London","43 Clerkenwell Green","EC1R 0EB",51.522906,-0.105205
1059209,"Hilton Boston Logan Airport","Marbella","One Hotel Drive",,36.527049,-4.893847
1059212,"RSA","London","8 John Adam Street",,51.509035,-0.123241
1059214,"Inter Expo","Sofia","Centre",,42.678611,23.320556
1059217,"Seminaris Campushotel Berlin ","Berlin","Takustraße 39 ",,52.455704,13.294459
1059221,"The Clarion Congress Hotel","Prague","Freyova 33",,50.106316,14.502606
1059223,"IBBT Zuiderpoort Office Park ","Ghent","Gaston Crommenlaan 8 (bus 102)",,51.036245,3.735427
1062684,"The Bell Pub","London","50 Middlesex Street","E1 7EX",51.515803,-0.075801
10630452,"3rd Floor Space, Google Campus, ","London","4-5 Bonhill Street, London, EC2A 4BX",,51.522694,-0.085303
10634122,"Tingewick Hall, John Radcliffe Hospital","Oxford","Headington, OX3 9DU",,51.76387,-1.219806
10667672,"Royal Festival Hall South Bank Centre","London","Royal Festival Hall South Bank Centre  Level 4 - Green Side Belvedere Road SE1 8XX",,51.505775,-0.116837
10791882,"Grand Connaught Rooms","London","61-65 Great Queen Street, Holborn, WC2B 5DA ",,51.515686,-0.120627
1080177,"Krakow User Group Meeting Venue","Kraków","Al. 3 Maja 9","Room 126.",50.060234,19.919951
1080178,"Kreditor headquarters","Stockholm","St Eriksgatan 117",,59.347094,18.03991
10803772,"Level 39 ","London","One Canada Square, Canary Wharf, E14 5AB",,51.504955,-0.01945
10804032,"Imperial College London","London","Prince Consort Road, South Kensington, SW7 2BP",,51.499844,-0.177209
10817332,"National Hall Olympia","London","Hammersmith Road, West Kensington, W14 8UX",,51.49698,-0.209884
10881482,"Radisson BLU Portman Hotel","London, W1H 7BG","22 Portman Square, ",,51.516087,-0.156455
1093733,"The Counting House pub","London","50 Cornhill Road, Bank",,51.508129,-0.128005
1095331,"UCL University","London","Gower Street, WC1E 6BT",,51.522644,-0.132834
1101586,"The Salisbury","London","90 St Martins Lane",,51.510851,-0.12701
11044852,"Telefonica Digital  "," W1B 5AN London"," 20 Air Street ",,51.510632,-0.136521
1104572,"The Elgin","London","96 Ladbrooke Grove","W11 1PY",51.516054,-0.209067
1106260,"Victoria and Albert Museum ","London ","Cromwell Road ","SW7 2RL",51.494934,-0.184045
11103902,"The Barrowboy & Banker","London","6-8 Borough High Street,   SE1 9QQ",,51.50626,-0.08884
1113633,"The Shooting Star","London E1 7JF","125-129 Middlesex St",,51.51685,-0.07702
11154212,"Rockwell House Studios (Fri) + Method Offices @ the Tea Building (Sat)","London","56 Shoreditch High Street, London, E1 6PQ",,51.52383,-0.076979
1118949,"London Olympia","London","Kensington Olympia tube","W14 8UX",51.497809,-0.210383
11195852,"Doggetts Coat and Badge","Central London","1 Blackfriars Bridge SE1 9UD London",,51.509819,-0.104189
11204992,"online","London","online",,51.490025,-0.132004
11319182,"News International","London","3 Thomas More Square London E98 1XY",,51.508415,-0.068952
1134655,"San Francisco Bay Area","San Francisco","San Francisco Bay Area",,37.853333,-122.3675
1136882,"Southbank Centre ","London SE1 8XX","Southbank Centre Square","Belvedere Road",51.507739,-0.099049
11430282,"Tech Cube","Edinburgh","1 Summerhall Place, EH9",,55.939285,-3.182142
1148722,"Caesar Room, Imperial Hotel","London ","Russell Square","WC1B 5BB",51.521905,-0.124066
1156315,"The Walrus and Carpenter","London","45 Monument Street, EC3R 8BU ",,51.509449,-0.084481
1158515,"The New Moon","City of London","88 Gracechurch Street","EC3V 0DN",51.51289,-0.084413
11629722,"Google Campus 3rd Floor","London EC2A 4BX","4-5 Bonhill Street",,51.522709,-0.085336
11654212,"The Horse","London","124 Westminster Bridge Road, Waterloo, London SE1 7XG",,51.497208,-0.109586
1166953,"indigO2 at The O2 Arena","Greenwich","Peninsula Square","North Greenwich",51.47879,-0.010677
11675582," Penderel's Oak","London"," 283-288 High Holborn Holborn Greater London WC1V 7HP",,51.51759,-0.119855
11692622,"Google Campus ","London","4-5 Bonhill Street, EC2A 4BX",,51.522709,-0.085336
1169467,"ONLINE","London","Online meeting",,51.500152,-0.126236
11698192,"Club Workspace","SE1 3ER","Weston Street, London, ",,51.50108,-0.085582
11725832,"London School of Economics, Sheikh Zayed Theatre, New Academic Bldg, ","London","Sardinia Street, WC2A",,51.515228,-0.117524
11749332,"Slug and Lettuce","London","19–20 Hanover Street, W1S 1YR",,51.513832,-0.141772
1176166,"Slaughtered Lamb","London EC1V 0DX","34-35 Great Sutton Street",,51.5235,-0.100178
11780282,"Bar Kick","E1 6JE","127 Shoreditch High Street",,51.526417,-0.078275
1178561,"The Queen Elizabeth II Conference Centre","London","Broad Sanctuary","Westminster, SW1P 3EE",51.50008,-0.127838
11801112,"Imperial college","London","Room TBD",,51.517097,-0.146084
11824122,"Darwin B40 Lecture Theatre, UCL","London","Gower Street, London, WC1E 6BT",,51.522484,-0.132641
11836342,"London Olympia Conference Centre","W14 8UX","Hammersmith Road, London",,51.494667,-0.212373
11877292,"BCS, The Chartered Institute for IT"," WC2E 7HA","First Floor, The Davidson Building, 5 Southampton Street, London",,51.510826,-0.121762
11928892,"Merchant Venturers Building","Bristol","University of Bristol",,51.45797,-2.601474
1195004,"Skinkers","London SE1 2SZ","42 Tooley Street",,51.504918,-0.08387
1195147,"PINEWOOD FILM STUDIOS","Iver Heath","PINEWOOD ROAD","SL0 0NH",51.544235,-0.530871
11965052,"iBurbia Studios","London","3 Heathfield Terrace Chiswick London W4 4JE",,51.491634,-0.26343
11996992,"BrewDog Shoreditch","London","51-55 Bethnal Green Rd, London E1 6LA, United Kingdom",,51.523838,-0.074589
12012142,"Online Webinar","London","Online Webinar",,51.511215,-0.119824
12049722,"The Wayra Academy","London","2-10 Capper Street, WC1E 6JA",,51.52253,-0.135579
12081002,"Coco Momo Cafe Bar, Holborn","London","64, Theobalds Road, WC1X 8SF",,51.520794,-0.116825
12104282,"Google Campus - Ground Floor","London","4-5 Bonhill Street, London, UK, London",,51.522709,-0.085336
12123712,"Makers Academy","London EC1Y 1AA","25 City Road,  4th Floor",,51.522995,-0.08713
12140722,"Level 39 Technology Accelerator at Canary Wharf","London E14","One Canada Square",,51.505001,-0.019611
12197842,"Headrooms","London","1-2 St John’s Path, Clerkenwell, EC1M4DD",,51.521866,-0.104053
12258622,"Tobacco Dock","London","Porter's Walk, Wapping E1W 2SF",,51.508308,-0.05928
12312882,"Novotel Tower Hill","London","EC3N 2NR",,51.510647,-0.077325
1232158,"Centre for Creative Collaboration","London","16 Acton Street","16 Acton Street, London WC1X 9NG",51.528741,-0.116529
12364772," Mary Ward House Conference and Exhibition Centre","London","Bloomsbury",,51.521015,-0.130518
1236675,"SkillsMatter","London EC1V 7DP","116-120 Goswell Road","116-120 Goswell Road",51.52653,-0.100107
12371662,"JustAddRed","London","81 Leonard Street, EC2A 4QS",,51.524712,-0.083073
12405302,"Minster Exchange ","London","Minster Pavement, Mincing Lane, EC3R 7PP",,51.511612,-0.080728
12503012,"London Hackspace","London","447 Hackney Road, E2 9DY",,51.532082,-0.060795
12573452,"Wolfson Theatre","London","Lower Ground Floor, New Academic Building, 54 Lincolns Inn Fields, London, WC2A 3LJ",,51.515541,-0.118469
12579232,"Bloomberg SPACE","EC2A 1HD London","50 Finsbury Square ",,51.520401,-0.087082
12597162,"Mountbatten Building 59","Southampton","University of Southampton, SO17",,50.936871,-1.396931
12641942,"Rutland Arms","Sheffield - S1 2BS","Brown Street",,53.376888,-1.466169
12660772,"Crypt on the Green","London","St James Clerkenwell, Clerkenwell Close, EC1R 0EA",,51.523354,-0.105433
12705882,"London School of Economics, New Theatre, East Building","London","Houghton Street, WC2A 2AE",,51.513634,-0.116773
12737932,"Financial Times - FT Offices, Southwark Bridge","London","One Southwark Bridge, 6th floor SE1 9HL ",,51.507465,-0.09442
12780672,"Visual DNA","London","67-71 Shoreditch High Street London",,51.524128,-0.076224
12843772,"The George on the Strand","London","213 Strand, London WC2R 1AP",,51.513088,-0.112993
12860062,"Anatomy G29 JZ Young Lecture Theatre, ","London","UCL, London",,51.524349,-0.134458
12873722,"Exeter, Glasgow, Leicester, York","London","Skype",,51.511215,-0.119824
12875162,"Health and Social Care Information Centre","Leeds","Boar Lane, LS1",,53.795822,-1.544769
12878792,"Timber Yard","London","61-67 Old Street",,51.52423,-0.09643
12897552,"Hotel Novotel - Bank Suite","London","10 Pepys Street, London, EC3N 2NR",,51.510811,-0.077375
1292646,"Royal Geographic Society","London","Next to Hyde Park ",,51.512837,-0.161449
12974312,"Pinewood Studios","Slough","Pinewood Road, Iver, Buckinghamshire, SL0 0NH",,51.545315,-0.531002
1298005,"HP offices","London","88 Wood street","EC2V 7QT",51.517296,-0.093673
13032532,"Expedia","London","Angel Building, 407 St John St, London, England EC1V",,51.526794,-0.098381
1305028,"Institute of Psychiatry","Camberwell","De Crespigny Park",,51.470378,-0.090302
1308323,"Novotel - W6 8DR","Hammersmith","1 Shortlands ","Hammersmith International Centre",51.491457,-0.219424
13145892,"iMakr Store","London","79 Clerkenwell road EC1R 5AR",,51.521988,-0.108785
13191472,"Cafe – Campus London, 4-5 Bonhill Street, London EC2A 4BX","London","4-5 Bonhill Street",,51.522709,-0.085336
13220332,"The Work Foundation","London","21 Palmer Street, SW1H 0AD",,51.499004,-0.135449
13264312,"Hackney Community College","London","Shoreditch Campus, Falkirk St, N1 6HQ",,51.530708,-0.078284
1328124,"The Red Lion pub","London","Kingly Street","W1B 5PP",51.512781,-0.139465
13299022,"Mozilla Office London","London","101 St Martin's Ln",,51.510372,-0.127545
13368692,"Skype London Office","London","2 Waterhouse Square, 138 Holborn, London, EC1N 2ST",,51.51886,-0.109649
13385582,"Shoreditch Studios","London","37 Batemans Row",,51.525181,-0.078771
1343566,"Zenika","Paris","28 rue de Châteaudun","75009",48.86,2.34
13439322,"Makeshift HQ #0002 (not the old one)","London","12 Mallow Street London EC1Y 8RQ",,51.525017,-0.088886
13536652,"Electron Building, Harwell Science & Innovation Campus","Didcot","Fermi Ave, Harwell, OX11 0QR",,51.575726,-1.312306
1357346,"The Old Ship","London","25 Upper Mall","Hammersmith",51.49039,-0.238115
13670472,"South Place Hotel","London","3 South Place, EC2M 2AF",,51.518993,-0.086544
13680592,"Royal Society of Chemistry","London W1J 0BA","Burlington House, Picadilly",,51.508671,-0.139601
1373233,"ExCeL London","London","One Western Gateway","Royal Victoria Dock",51.508066,0.021828
13757312,"Arcola Theatre","London","24 Ashwin Street  Dalston, E8 3DL    ",,51.546875,-0.075023
1380339,"Kings Place","London","90 York Way",,51.358568,-0.305431
13869982,"Harwell Science and Innovation Campus","Didcot","Electron Building, Fermi Avenue , OX11 0QR ",,51.576054,-1.312873
13879762,"TMW","London","10 Great Pulteney Street, London, W1F 9NB",,51.512142,-0.136113
13902242,"Social Care Institute for Excellence","London","2-4 Cockspur St, SW1Y 5BH",,51.507751,-0.129686
1392263,"The Tower Guoman","London","St. Katharine's Way","E1W 1LD",51.508462,-0.07345
13923692,"Novotel Leeds Centre","Leeds","4 Whitehall Quay",,53.795254,-1.552516
13924532,"Leeds City Museum","Leeds","Millenium Square, LS2 8BH",,53.800964,-1.548059
13931072,"Cow & Coffee Bean","London","Regents Park, NW1 4NU",,51.532692,-0.141995
13951032,"Alumni Theatre, Lower Ground Floor, New Academic Building","London","54 Lincoln's Inn Fields London, Greater London WC2A 3LJ",,51.515312,-0.117738
13954812,"UCL - Christopher Ingold XLG1 LT","WC1H 0AJ","Christopher Ingold Building, 20 Gordon Street, London",,51.524376,-0.131734
13955372,"Level39, One Canada Square,","London","Canary Warf, London",,51.504955,-0.01945
13956192,"Campus London","London","4-5 Bonhill Street, EC2A 4BX",,51.52269,-0.08535
13969032,"19 Eastbourne Terrace, W2 6LG ","London","Entrance off Platform 1, Paddington Station  ",,51.518188,-0.17828
13989752,"The Whisky Bond","Glasgow","Dawson Road",,55.876835,-4.256888
14017382,"Department of Computer Science","Warwick","University Of Warwick",,52.381615,-1.564279
14038792,"Fazeley Studios","Birmginham","191 Fazeley Street",,52.477859,-1.881424
14060422,"The Bakery","London"," 25 City Road, London, EC1Y 1AA ",,51.523106,-0.08729
1407733,"The Two Chairmen","London","39 Dartmouth St","SW1H 9BP",51.500644,-0.13176
14081162,"Urban Coffee Company","Birmingham","30 Church St, B3 2NP",,52.482677,-1.901019
1408458,"Cavendish Conference Centre","London W1G 9DT","22 Duchess Mews",,51.519542,-0.145541
14107602,"The Green Man ","London EC2R 8EJ","No 1 Poultry",,51.513573,-0.090713
1417100,"The Marquis of Granby","London","142 Shaftesbury Avenue,","Cambridge Circus",51.513437,-0.128906
14204082,"Enterprise Zone","Sheffield","210 Portobello, S1 4AE",,53.381428,-1.480548
1420824,"The Pipeline Bar","London","Middlesex Street E1 7 DA",,51.51284,-0.057643
14262722,"The Flying Horse","London, EC2A 2ER","52 Wilson Street",,51.520485,-0.084997
14308262,"Business Design Centre","London","52 Upper St  London, Greater London N1 0QH",,51.535686,-0.106237
14311302,"Microsoft Campus","RG6 1WG","Thames Valley Business Park",,51.461231,-0.925947
14321962,"Just Eat offices","London EC4M 7RF","2 Fleet Place",,51.515308,-0.1033
1432252,"IBM Southbank (SE1 9PZ)","London","76/78 Upper Ground","Southbank",51.506952,-0.111438
14370222,"Skills Matter at the Dumbo Spot, NYC","NYC","160 Water Street, New York, 11201",,40.703106,-73.987167
1439150,"Bierschenke","London","46 Essex Street","Westminster",51.512933,-0.113116
14399202,"Cardinal Place","London","76-98 Victoria St, SW1E 5JD",,51.497093,-0.13845
1441185,"Quest Room, Institute of Directors","London","116 Pall Mall",,51.507066,-0.132654
144119,"the Hope","London","15, Tottenham Street","Fitzrovia, W1T 2AJ",51.52,-0.1
1449910,"Bletchley Park - National Codes Centre","Milton Keynes","The Mansion","MK3 6EB",51.996826,-0.738573
1453826,"The Brewery","London","Chiswell Street","EC1Y 4SD",51.520996,-0.092077
1470355,"White Bear Yard","London","2nd Floor, White Bear Yard","144a Clerkenwell Road",51.522272,-0.109804
1470768,"Orrick","London","107 cheapside","EC2V 6DN",51.513972,-0.093158
14724712,"etc.venues - Shoreditch - Bonhill House","London","3 Bonhill St  EC2A",,51.522686,-0.085283
14764322,"Malvern Hills District Council, Council Chamber, The Council House","Malvern ","Avenue Road",,52.110077,-2.318691
14808212,"MicroTek","New York City","90 Broad St 11th Floor New York City, NY 10004-2",,40.703754,-74.011627
1485879,"The Lord Raglan","London"," 61 St Martin's Le Grand, City of London",,51.515862,-0.097026
1499037,"Cargo","London","83 Rivington Street","Shoreditch, EC1V 9EY",51.526233,-0.079205
14997342,"The Argyle","London","1 Greville Street, London, EC1N 8PQ",,51.519146,-0.108939
15074632,"Rainmaking Loft"," London, E1W 1TW","International House 1 St Katharine’s Way",,51.50724,-0.074055
15118212,"Ticketmaster","London, N1 9HF","4 Pentonville Road",,51.531849,-0.108151
15186722,"East Midlands Conference Centre","Nottingham","University Park, NG7 2RJ",,52.938637,-1.195158
1519884,"Erlang Solutions","London","The London Fruit and Wool Exchange E1 6EU",,51.518826,-0.075438
152044,"White Cross Pub","Richmond","Water Ln","TW9 1TJ",51.458947,-0.307783
15220702,"King","London","Central Saint Giles, 1 St Giles High Street, WC2H 8AG",,51.51564,-0.127833
15225682,"VisualDNA HQ","London","67-71 Shoreditch High Street, E1 6JJ",,51.524128,-0.076224
1531258,"Congress Centre","London","28 Great Russell Street",,51.517807,-0.127561
15348582,"University of Westminster - Cavendish ","London","115 New Cavendish St, London W1W 6UW",,51.520756,-0.13989
1538335,"Elmia ","Jönköping","-",,57.781799,14.15851
15390272,"Grovensor Casino Russell Square","London","61-66 Russell Square",,51.521835,-0.124163
15457252,"BAE Systems Detica","London","Blue Fin Building, 110 Southwark Street, London, SE1 0SU",,51.506313,-0.099871
15549602,"Virgin Media Game Space","London","73 Leonard Street, EC2A 4QS",,51.524765,-0.082999
15647792,"Bristol Hotel","Bristol","Prince St",,51.44996,-2.596754
15648522,"Erlang Solutions","London","Suite 1.01, New Loom House, 101 Back Church Lane , E1 1LU London",,51.51276,-0.067536
15734512,"New Mountbatten Building","Southampton","University of Southampton",,50.936871,-1.396931
1577132,"Thomson Reuters","London","South Colonnade, Canary Wharf",,51.505085,-0.02105
15785872,"Pizza Express Clerkenwell - Road","London","1 Clerkenwell Road, Clerkenwell, EC1M 5PA",,51.523151,-0.098785
15797612,"Fitch Ratings","London","30 North Colonnade, London E14 5GN",,51.504829,-0.016271
1581180,"Channel 4 Television Corporation","SW1P 2TX","124 Horseferry Road, London",,51.495758,-0.133237
15835382,"IntuDigital","SW1H 0BT","40 Broadway, London ",,51.499767,-0.132984
1592672,"Innovation Warehouse","London","Smithfield - 2nd Fl., Suite J","EC1A 9PT",51.500152,-0.126236
15940262,"Edmond J Safra Lecture ","London WC2R 2LS ","Strand Campus",,51.50547,-0.112444
15981332,"Garden Room and Conservatory, Level 3, Barbican Centre","London","Silk Street, EC2Y 8DS",,51.51996,-0.092998
15987532,"Garden Room and Conservatory, Level 3, Barbican Centre","London","Silk Street, EC2Y 8DS, London",,51.519863,-0.091699
15987872,"Buckingham Room, Hilton Metropole","London","225 Edgware Rd, London W2 1JU",,51.519142,-0.169493
1603678,"National Audit Office","London","157-197 Buckingham Palace Road",,51.492218,-0.148023
1607618,"Forward","London","Floor 1, Centro 3, 19 Mandela Street, Camden NW1 0DU",,51.538654,-0.137305
1607643,"IT University","Copenhagen","Rued Langgaards Vej 7 2300 Copenhagen, Denmark 7218 5000",,55.659889,12.591188
16122292,"Ye Olde Rose & Crown","E17 4SA","53 Hoe Street, London.",,51.587505,-0.020743
1612324,"The Guardian","London","90 York Way, N1 9GU",,51.53373,-0.12234
1619822,"The Rochelle School","London","Arnold Circus, London, E2 7ES",,51.526241,-0.074549
16210072,"The Yorkshire Grey","London","2 Theobalds Road WC1X 8PN",,51.52153,-0.113559
16224832,"Mozilla London","London","101 St. Martins Lane (3rd Floor)","WC2N 4AZ",51.510342,-0.127076
16225002,"Mozilla","London","Mozilla, Floor 3, 101 St Martin's Ln, London, United Kingdom","WC2N 4AZ",51.511215,-0.119824
16384932,"The Proud Archivist","London","2-10 Hertford Road, London N1 5ET",,51.538296,-0.078784
16393922,"Ravensbourne","London","6 Penrose Way Greenwich Peninsula London SE10 0EW",,51.501736,0.005539
16434612,"Kings Place","London","90 York Way, N1 9AG",,51.534649,-0.122138
16463102,"Jailmake","London","Unit 1a, East Dulwich Road, SE22 9BA",,51.462006,-0.067536
16511202,"Naturbier","Madrid","Plaza de Santa Ana 9",,40.414413,-3.700767
16529572,"BL-NK","London, N1 6AZ"," 37 East Road",,51.528011,-0.088357
16573452,"Idea London","London","69 Wilson Street, EC2A 2BB",,51.521965,-0.084819
16596212,"DigitasLBi","London","146 Brick Lane",,51.523487,-0.071515
16596702,"Red Badger","London","12 Mallow Street, EC1Y 8RQ",,51.524769,-0.088613
16599012,"London college of fashion","London","20 John Prince's Street London, W1G 0BJ",,51.51525,-0.142927
16637492,"Red Badger","London","12 Mallow Street London EC1Y 8RQ, London",,51.524769,-0.088613
16729312,"WEB CONFERENCE ONLY","San Jose","See Description for Details","BDU University",37.39,-121.9
16731112,"Judge Business School","Cambridge","Trumpington Street",,52.200577,0.119811
16759532,"Central working","London","6-8 Bonhill Street",,51.522648,-0.085298
16815432,"Southampton University","Southampton","University Road 1",,50.932808,-1.39543
16887402,"Gumtree","Richmond","2 Whittaker House, Whittaker Avenue, TW9 1EH",,51.458687,-0.307594
16999532,"Rainmaking Loft","London","International House 1 St Katharine’s Way, London, E1W 1UN",,51.50724,-0.074055
17011422,"Queen Ann Building - Room 175 (QA175)","London","Old Royal Naval College, 30 Park Row, University of Greenwich",,51.483315,-0.00396
17145382,"Aspect Capital","London","10 Portman Square",,51.516552,-0.154794
17145432,"Pivotal Labs","London","Bentima House, 168-172 Old Street",,51.525024,-0.090486
17300632,"uSwitch","London","Notcutt House, 36 Southwark Bridge Road","SE1 9EU",51.50612,-0.095859
17397392,"HQs of Facebook, Twitter, Google, LinkedIn and HubSpot ","Dublin","Grand Canal Square",,0,0
17445082,"Grange Tower Bridge Hotel","London E1 8GP ","45 Prescot Street ",,51.511654,-0.071703
17492492,"Create Space London, 11th Floor Wembley Point","Wembley","1 Harrow rd",,51.54518,-0.272973
17492492,"Create Space London, 11th Floor Wembley Point","Wembley","1 Harrow rd",,51.545181,-0.272973
1752361,"Innovation Warehouse","London","1st Floor, 1 East Poultry Avenue","EC1A 9PT",51.519054,-0.102713
1752361,"Innovation Warehouse","London","1st Floor, 1 East Poultry Avenue","EC1A 9PT",51.519106,-0.101962
17636092,"Telerik Offices","London","14 Austin Friars",,51.515663,-0.085618
17720442,"Space Expo","Noordwijk","Keplerlaan 3, 2201 AZ Noordwijk Zh, Netherlands",,52.215271,4.42089
17891112,"Bloomberg European HQ","EC2A 1PQ","39-45 Finsbury Square, City Gate House",,51.520084,-0.086223
17905002,"Central Foundation Boys’ School","London","Cowper Street EC2A 4SH",,51.525265,-0.085861
17948492,"Skimlinks","London, N1 6BL","52 Bevenden Street",,51.52951,-0.085943
17973542,"Shoreditch Village Hall","London","33 Hoxton Square N1 6NN",,51.527618,-0.080601
1798261,"Forward","London","Forward Floor 2, Centro 4, 19 Mandela Street , NW1 0DU  ",,51.537757,-0.136775
1798261,"Forward","London","Forward Floor 2, Centro 4, 19 Mandela Street , NW1 0DU  ",,51.537758,-0.136775
17997452,"Pivotal Labs","London","Bentima House, 168-172 Old Street, EC1V 9BP",,51.525036,-0.090498
18003942,"Makerversity","London","Somerset House, Victoria Embankment, West Goods Entrance, WC2R 1LA",,51.510742,-0.11695
18040192,"Google London, St Giles High Street","WC2H 8AG","1-13 St Giles High Street, London",,51.516113,-0.127293
18041762,"The Village Hall","London","Shoreditch Works, 33 Hoxton Square",,51.527737,-0.08092
18089902,"Goldman Sachs","London","7th Floor, River Court, 120 Fleet Street, London, EC4A 2BE",,51.514534,-0.105537
18111882,"News UK","London","13th Floor, 3 Thomas More Square, E98 1XY",,51.508183,-0.067389
18114952,"Rainmaking Loft - St. Katherines Docks","London","International House, 1 St. Katharines Way, London, E1W 1UN",,51.507324,-0.07373
1811611,"London Hilton","London","Park Lane",,51.508205,-0.154591
18226492,"Greater London House","London","Hampstead Road, NW1 7QX",,51.53345,-0.13963
18226492,"Greater London House","London","Hampstead Road, NW1 7QX",,51.533451,-0.13963
18230402,"MOO ","London","32-38 Scrutton Street (Rear), EC2A 4RQ",,51.522842,-0.081826
18294822,"The George IV","London","185 High Road Chiswick, W4 2DR",,51.492233,-0.257113
18316792,"Chadwick G04, Chadwick Building, UCL","London","Gower Street, London, WC1E 6BT",,51.524784,-0.133439
18427702,"7 Digital","London","3rd Floor 69 Wilson Street London, EC2A 2BB",,51.521976,-0.084831
18448082,"Dana Centre","London","165 Queens Gate, SW7 5HD",,51.4972,-0.179127
18450842,"VE Interactive Ltd.","London","15-19 Bakers Row, EC1R 3DG",,51.523758,-0.109868
18483622,"Google Campus","London","4-5 Bonhill St, London EC2A 4BX",,51.522579,-0.085512
18498302,"Mezzanine Level - BIPB Offices, 46 New Broad Street","London","EC2M 1JH",,51.517208,-0.084844
18514922,"Floor 4, Greater London House","London","Mornington Crescent, NW1 7EJ",,0,0
18519322,"Level 39","London","One Canada Square, Canary Wharf, E14 5AB",,51.504963,-0.019462
18534812,"Pervasive Media Studio ","Bristol ","Watershed, 1 Canons Rd Harbourside, BS1 5TX",,51.45163,-2.598225
18624412,"Impact Hub Westminister","London","1st Floor New Zealand House, 80 Haymarket, London, SW1Y 4TE",,51.507912,-0.131794
18647572,"UCL Medical Sciences Building -  Room number: 131 A V Hill Lecture Theatre","London","Malet Place, WC1E 6BT",,51.524784,-0.133439
18652292,"Shoreditch Village Hall","London","33 Hoxton Square N1 6NN",,51.527618,-0.080601
18670102,"The Marquis of Westminster","London","50 WARWICK WAY, LONDON, SW1V 1RY",,51.491901,-0.140516
18697142,"Barclays Accelerator ","London","69-89 Mile End Road, E1 4UJ",,51.520885,-0.051824
18697142,"Barclays Accelerator ","London","69-89 Mile End Road, E1 4UJ",,51.52116,-0.050588
18755392,"Hotels.com","London","Angel Building, 407 St John St","EC1V",51.53138,-0.106974
18778792,"Department of Computer Science, University of York","York","Deramore Lane, University of York, Heslington, York, YO10 5GH",,53.948662,-1.028911
1880951,"The Barley Mow","London","127 Curtain Road, Shoreditch EC2A 3BX",,51.525906,-0.080325
18816862,"Dennis Publishing ","London","30 Cleveland Street ",,51.519791,-0.137837
18863282,"Dennis Publishing ","London","30 Cleveland Street",,51.519791,-0.137837
18892602,"The Anthologist","London","58 Gresham Street, EC2V 7BB",,51.514812,-0.091113
18929152,"The Old Truman Brewery","London","15 Hanbury Street, The Truman Brewery, Shoreditch E1 6QR London",,51.520237,-0.073113
18951172,"12a Club","Cambridge","12a Market Hill, CB2 3NJ",,52.205441,0.119665
18960762,"Central Working Whitechapel","London","68-89 Mile End Road, E1 4TT",,51.520901,-0.052804
1907181,"Atos Origin Offices","London","4 Triton Square, NW1 3HG",,51.525173,-0.140431
19146242,"The Eight Bells Pub.","London SW6 3JS","89 Fulham High Street",,51.468067,-0.210104
19231742,"The Spectator Bar - Near St Paul's","London","6 Little Britain, London, EC1A 7BX",,51.517094,-0.098023
19480432,"Coaver Club","Exeter","County Hall, Topsham Road",,50.705849,-3.503075
19488882,"Net A Porter HQ","London"," 1 The Village Offices, Westfield London Shopping Centre, W12 7GF ",,51.50758,-0.22128
19496922,"Puppet Labs","London","2nd Floor, Woolyard, 52 Bermondsey Street",,51.50152,-0.082408
19496922,"Puppet Labs","London","2nd Floor, Woolyard, 52 Bermondsey Street",,51.506432,-0.12719
19504802,"Royal Statistical Society","EC1Y 8LX","12 Errol St, London",,51.522533,-0.090934
19546582,"Ace Hotel Shoreditch","London"," 100 Shoreditch High St, London E1 6JQ, United Kingdom",,51.525753,-0.077249
19555862,"UCL Roberts building","London","Malet Place, WC1E 7JE",,51.522984,-0.13223
19560652,"UCL Roberts building - Enter through Engineering Coffee area","London","Corner of Torrington Place and Malet Place, WC1E 7JE",,51.522984,-0.13223
19744572,"The NET-A-PORTER Group","London","Westfield London Shopping Centre, Ariel Way, W12",,54.072437,-2.784392
19748942,"Paddy Power plc, ","Dublin","Power Tower, Belfield Office Park, Beech Hill Road, Clonskeagh, Dublin 4, Ireland",,0,0
19768252,"Pivotal","London","4th Floor Bentima House, 168-172 Old Street, EC1V 9BP",,51.525036,-0.090498
1985611,"Canonical Group Limited","London","27th Floor Millbank Tower 21-24 Millbank, SW1P 4QP",,51.491699,-0.12557
19862822,"Yager Bar (St Paul's) ","London","2 Old Change Court, Peters Hill, St Pauls, London, EC4M 8EN",,51.512524,-0.097464
19978922,"The Innovation Loft","London","69-89 Mile End Road, E1 4TT",,51.520901,-0.052804
20080402,"Ministry of Justice","London","102 Petty France",,51.499359,-0.136434
20093962,"Floating Desk","Gent","Visserij 260 (tegenover huisnummer 151)",,51.047371,3.73813
20100222,"Skills Matter Dublin","Dublin","For Address Details call +44 207 183 9040",,0,0
20142822,"ASOS Plc","London","Greater London House, Hampstead Road. London. NW1 7FB",,51.533401,-0.14602
20156272,"Business and Technology Centre","Stevenage","Bessemer Dr, SG1 2DX",,51.90163,-0.215861
20156712,"Christopher Ingold Building","London","XLG2 Auditorium, Christopher Ingold Building, 20 Gordon Street, WC1H 0AJ.",,51.52543,-0.132202
20231302,"Furtherfield commons ","London","330 Seven Sisters Rd N4 2PF ",,51.568851,-0.09842
20268332,"School of Communication Arts","London","Brixton Hill, SW2 1JF",,51.459778,-0.116054
20272332,"London Marriott Hotel County Hall","London","London County Hall, Westminster Bridge Road",,51.498554,-0.111465
20304232,"hackerspace HSBXL","Brussels","Rue Moulin 40 / Molenstraat 40,  1210 St-Joost-ten-Noode,  Brussels,  Belgium",,50.855572,4.37038
20314592,"BT Centre","London","81 Newgate St, London EC1A 7AJ",,51.515751,-0.097978
20315732,"ONLINE Google Hangout","London","online",,51.50642,-0.12721
20347502,"The Helix","Dublin","Collins Ave, Glasnevin",,53.38916,-6.26478
20350782,"Birkbeck, University of London","London","Malet St WC1E 7HX",,51.521008,-0.127856
20461832,"Microsoft Devices ","London","2 Kingdom Street, Paddington, W2 6BD",,51.519039,-0.181715
20463162,"The MarketPlace, ExCeL London","London","Royal Victoria Dock, 1 Western Gateway, E16 1XL",,51.508171,0.027108
20464902,"The Vape Lab","London","232 Shoreditch High Street",,51.522068,-0.078111
20600832,"Mind Candy London","London, EC2A 4DN","15 Bonhill Street",,51.523045,-0.08519
20618902,"New Horizons ","Dublin","Ireland Strand House, 22-24 Strand Street Great, Dublin1",,53.340229,-6.22324
20685632,"Google Campus","London","4 -5 Bonhill Street",,51.522724,-0.086026
20685642,"Google Campus","London","4 -5 Bonhill Street",,51.522724,-0.086026
20751322,"Create Space","London","1 Harrow Road",,51.52216,-0.193576
20751322,"Create Space","London","1 Harrow Road",,51.544746,-0.274085
20881022,"ITV","London","200 Gray's Inn Road, London, WC1X 8XZ, UK, London",,51.523449,-0.114148
21043462,"JLab@Level42","London","One Canada Square, Level 42, Canary Wharf, E14 5AB, London,",,51.504963,-0.019462
21074222,"ustwo","London","62 Shoreditch High Street, London, E1 6JJ",,51.524136,-0.076236
21074242,"ustwo","London","62 Shoreditch High St, E1 6JJ",,51.524136,-0.076236
21099512,"IFI","Dublin","Eustace street 6",,53.34462,-6.26498
21123582,"Shoreditch Village Hall ","London","33 Hoxton Square - London, N1 6PB",,51.527145,-0.081472
21183272,"Central Foundation Boys School","London","Cowper Street, London, EC2A 4SH",,51.525265,-0.085861
21183642,"Shoreditch Village Hall  ","London N1 6PB","33 Hoxton Square",,51.527145,-0.081472
21184702,"Level 39","London","1 Canada Square",,51.504555,-0.01929
21324532,"London Fields Brewery","London","365-366 Warburton Street E8 3RR",,51.538456,-0.058414
21344142,"The White Cross","Richmond TW9 1TH","Riverside",,51.45813,-0.306317
21352642,"Facebook London","London","Brock Street NW1 2PY",,51.526398,-0.138404
21445782,"Fab Lab London","London","1-3 Fredrick's Place - off Old Jewry / Near Bank Station",,51.51413,-0.091021
21449772,"Fab Lab London","London","1, Fredericks Place London, EC2R 8AE",,51.514275,-0.091237
21462972,"Rainmaking Loft, International House","London","1 St. Katharines Way, E1W 1UN",,51.507324,-0.07373
21478452,"Shoreditch Works","London","the best coworking space in tech city, London",,51.5205,-0.09743
21501252,"University of Ulster","London EC1R 4TF","St James House, 10 Rosebery Avenue, Holborn",,51.52254,-0.111461
21634102,"GoCardless","London","338-346 Goswell Road","EC1V 7LQ",51.53071,-0.103844
21668552,"JustGiving Head Office ","London","2nd Floor, Blue Fin Building, 110 Southwark Street, London, SE1 0TA",,51.506321,-0.099883
21879322,"BSkyB","TW7 5QD","Grant Way",,51.4849,-0.323831
22045772,"Rainmaking Loft London ","London","International House  1 St Katharine's Way  London E1W 1UN",,51.507324,-0.07373
22046382,"Equal Experts","London","30 Brock Street, NW1 3FG",,51.533401,-0.14602
22048832,"The Village Hall","London, N1 6NN","Shoreditch Works, 33 Hoxton Square",,51.527618,-0.080601
22133242,"JUST EAT","London","JUST EAT Holding Ltd. Fleet Place House, 2 Fleet Place, London EC4M 7RF",,51.516418,-0.103211
22197232,"The Village Hall, Shoreditch","London","33 Hoxton Square, N1 6NN",,51.527618,-0.080601
22198102,"Scott Room, The Guardian","London","Kings Place, 90 York Way, N1 9GU",,51.53492,-0.121705
22200462,"DataStax","Uxbridge","Regus Building, Lakeside House, 1 Furzeground Way, UB11 1BD",,51.508121,-0.442958
22260852,"Fish Island Labs","London","60 Dace Road",,51.537613,-0.023622
22307982,"True Start - Francis House","London","11 Francis Street",,51.496174,-0.136958
22322272,"The TechnoCentre","Coventry","CV1 2TT",,52.402966,-1.504175
22393462,"Flavors of India","TW3 1RH","11-13 High Street",,51.470402,-0.354716
22417552,"Linux Recruit, @Waterloo, ","SE1 8HP","2-6 Boundary Row, London, ",,51.502064,-0.105824
22529932,"Vibrant Media, 3rd Floor","London","140 Aldersgate Street",,51.519764,-0.09727
22561692,"The Studio","Birmingham","Cannon Street",,52.479832,-1.897973
22576462,"The Britannia Pub, 1 Allen Street","London","Kensington,  W8 6UX",,51.497108,-0.194733
22586292,"GoCardless Ltd","London","338-346 Goswell Road","EC1V 7LQ",51.53071,-0.103844
22673972,"Queen Mary University of London, Informatics Teaching Laboratories (top floor meeting room)","London","Mile End Road E1 4NS",,51.522808,-0.043309
22673972,"Queen Mary University of London, Informatics Teaching Laboratories (top floor meeting room)","London","Mile End Road E1 4NS",,51.523418,-0.040544
22715322,"Buckley Building","London","49 Clerkenwell Green",,51.522671,-0.105531
22720082,"Google UK","London","123 Buckingham Palace Road",,51.493126,-0.147334
22754142,"ebee, Haymarket House","London","1 Oxendon St, SW1Y 4EE",,51.509991,-0.132343
22833442,"Royal Kensington Hotel ","London","2-24 Kensington High St, London W8 4PT",,51.502941,-0.188119
22939972,"Excel- London-Royal Victoria Dock","London","Royal Victoria Dock, 1 Western Gateway, London E16 1XL 020 7069 5000",,51.508171,0.027108
22948282,"Corney & Barrow","London","12-14 Masons Avenue, London, EC2V 5BT",,51.515812,-0.090192
23016272,"hotel bloom!","Brussels"," Rue Royale 250, 1210 ",,50.855221,4.36646
23034332,"CAN Mezzanine","London, SE1 0EH","32-36 Loman St",,51.502949,-0.099793
23036992,"MRM Meteorite","London","76-80 Southwark St,  SE1 0PN.",,51.505245,-0.096773
23108132,"Imperial College, Sherfield Building, Room SALC 10, Seminar and Learning Center, level 4","London","Imperial College Road, London SW7 5NH, London",,51.498753,-0.177667
23129372,"Trampery Publicis Drugstore","London","239 Old Street, EC1 9EY",,51.523579,-0.09877
23258762,"Campus london","London","4-5 BONHILL STREET LONDON EC2A 4BX",,51.522579,-0.085512
23293142,"CNCFD- Condé Nast College of Fashion & Design","London, W1D 4DR","16-17 Greek Street",,51.514126,-0.130675
23371082,"News Uk","London","1 London Bridge Street, London SE1 9GF",,51.499641,-0.09599
23371112,"News UK","London","1 London Bridge Street SE1 9GF",,51.50529,-0.087514
23396842,"Ketchum","London","35-41 Folgate St, London, E1 6BX",,51.520988,-0.077363
23415292,"The Office Group ","London","Warnford Court 29 Throgmorton St London EC2N 2AT",,51.51503,-0.086824
23442562,"Big Data for Social Good Challenge","Global","Web only",,33.86,-84.4
23474320,"ThoughtWorks (UK) Ltd","London","76 Wardour Street London W1F 0UR",,51.513191,-0.133495
23490459,"Imperial College London","London","South Kensington Campus, SW7 2AZ",,51.500515,-0.178231
23496923,"The Understudy at National Theatre","London","National Theatre, South Bank, London, SE1 9PX.",,51.50721,-0.113637
23500139,"Campus London","London","5 Bonhill Street  EC2A",,51.522717,-0.085738
23500874,"Empiric's Offices","London, EC2R 8DN","1 Old Jewery",,51.514168,-0.090679
23502527,"1 Old Jewry","London","EC2R 8DN",,51.514168,-0.090679
23505845,"Cambridge Judge Business School","Cambridge","Trumpington Street",,52.20068,0.119415
23506675,"Strand Campus, King's College London","London","Strand, WC2R 2LS, London Room number: K0.20 (Ground Floor/King's Building)- Please refer to this map: http://www.kcl.ac.uk/campu",,51.510742,-0.11695
23512042,"Queen Mary University, Mile End Campus, Arts Two Lecture Theatre","London","327 Mile End Rd, London E1 4NS",,51.523418,-0.040544
23513670,"Makers Academy","London","2nd Floor 50-52 Commercial Street E1 6LT",,51.517471,-0.073302
23517669,"Twitter HQ","London","20 Air Street, W1B 5DL",,51.510612,-0.1369
23523091,"etc venues","London","155 Bishopsgate",,51.515419,-0.082425
23523808,"Transform at Engine","London","60 Great Portland St, W1W 7RT",,51.517796,-0.141378
23524540,"New hacker house in Shoreditch ","London","(Address revealed to those who've RSVP'd)",,51.50642,-0.12721
23526916,"Google Campus (Ground Floor)","EC2A 4BX","4-5 Bonhill Street, London",,51.522579,-0.085512
23538582,"The Grand America Hotel","Salt Lake City","555 South Main Street",,40.75737,-111.889648
23558476,"ThoughtWorks ","London","78 Wardour Street, W1F",,51.513058,-0.133729
23559375,"Sir Alexander Fleming Building","London","Imperial College Road, South Kensington, SW7 2AZ",,51.500515,-0.178231
23568642,"ASOS ","London","Greater London House Hampstead Road London NW1 2JP (Opposite Mornington Crescent Tube Station, slightly to the left as you walk ",,51.531788,-0.138573
23573133,"UCL, Foster Court (Room numbers 233, 235, 243)","London","Gower Street, WC1E 6BT",,51.524784,-0.133439
23573380,"Wallacespace","London","18 Clerkenwell Green, EC1R 0DP",,51.522778,-0.104965
23577971,"Central Hall","Southampton","Evans Street, SO14 1ZA",,50.90139,-1.396888
23580931,"London Escalator","London","69-89 Mile End Road, Whitechapel, London, E1 4TT",,51.520901,-0.052804
23583745,"Minster Exchange","London","Minster Court, Mincing Lane",,51.510483,-0.081613
23589891,"The Trampery","London","239 Old Street, EC1V 9EY",,51.526634,-0.084333
23590920,"Noisy Little Monkey","Bristol","c/o Aardman, Gasferry Road, BS1 6UN",,51.447414,-2.607811
23604777,"Rockstar Hubs Ground Floor","London","3 Minster Court Mincing Lane London EC3R 7DD",,51.51033,-0.081082
23605927,"Protein Studios","London","31 New Inn Yard, London EC2A 3EY",,51.524456,-0.078182
23618046,"Facebook","London","10 Brock Street, Regents Place",,51.525562,-0.139775
23628762,"Kings Stores","E1 7HP","14 Widegate St, City of London",,51.518169,-0.078086
23634386,"Yahoo_HQ","London","Yahoo UK HQ, 5th Floor, 125 Shaftesbury Avenue, London WC2H 8AD",,51.513954,-0.128837
23634709,"8th floor - WeWork South Bank","London","22 Upper Ground",,51.507912,-0.107195
23636957,"Twitter HQ","W1B","London",,0,0
23643000,"Skills Matter","London","116-120 Goswell Road",,51.52449,-0.099247
23643045,"Breakthemold","London","69 Camden High Street",,51.536232,-0.140114
23643130,"The Shooting Star","London, E1 7JF","125-129 Middlesex Street",,51.51778,-0.078622
23647423,"AnalogFolk","London","20 Rosebery Avenue, Clerkenwell, EC1R 4SX",,51.52356,-0.111087
23650881,"Edelman","London","Southside 105 Victoria St, SW1E 6QT",,51.497032,-0.136921
23665066,"The Bull, 100 Upper Street,","London","London, N1 0NP",,51.537239,-0.103355
23669935,"Facebook London","London","10 Brock Street, NW1 3FG",,51.525608,-0.139647
23675458,"Inmarsat Conference Centre","London","99 City Road",,51.530655,-0.101061
23679585,"QA","London","Saint James House, 10 Rosebury Avenue, London EC1R 4TF",,51.522541,-0.111461
23681811,"The city","London","3 Lloyd’s Avenue",,51.512119,-0.078076
23683796,"Digital Catapult","London","101 Euston Road, London, NW1 2RA",,51.5284,-0.127423
23686356,"wagamama","London","45 Bank Street (Jubilee Park/Canary Wharf)",,51.502773,-0.018928
23690840,"Shoreditch Roundabout","London","50 Featherstone Street, EC1Y 8RT",,51.52486,-0.089683
23695102,"Launch 22","London","31 A, Corsham Street, N1 6DR",,51.527782,-0.086894
23697605,"Stackoverflow Careers","Londres","168 - 172 Old Street",,51.525318,-0.090652
23700534,"Midlands Art Centre","Birmingham","B12 9QH",,52.452774,-1.904057
23702745,"RADA - Room B25 (4th Floor) ","London","62-64 Gower Street, WC1E 6ED",,51.521748,-0.131544
23705488,"Furtherfield Commons","London","Finsbury Gate, Finsbury Park",,51.540501,-0.084044
23712496,"IDEA London","London","69 Wilson St","EC2A 2BB",51.522045,-0.084545
23719896,"BlackRock, 12 Throgmorton Avenue","London","EC2N 2DL",,51.516258,-0.086556
23723453,"Old Granada Studios","Manchester","Quay Street, Manchester",,53.479221,-2.254402
23725013,"Online Webinar","Greater London","Online Webinar",,51.462582,-0.074071
23725236,"133-135 Bethnall Green Rd","London","Shoreditch, E2 7DG",,51.525402,-0.071137
23725317,"Wayra UK","London","Shropshire House, 2-10 Capper Street",,51.522816,-0.134943
23732014,"Wahaca Canary Wharf","London/Canary Wharf","The Park Pavillion, Canada Square, London E14 5FW",,51.504883,-0.018889
23733724,"Deloitte Digital","London","49 Clerkenwell Green EC1R 0EB",,51.523319,-0.105071
23735032,"Microsoft Cardinal Place","London","80-100 Victoria Street, SW1E 5JL",,51.497265,-0.140081
23744091,"UCL University, Darwin B40LT Darwin Building","London","Gower Street London WC1E 6BT , London",,51.52478,-0.133438
23748834,"Hilton Tower Bridge","London","5 More London Place, Tooley Street, London SE1 2BY, United Kingdom",,51.50457,-0.081324
23748922,"135 Bethnal Green Road","London","133 - 135 Bethnal Green Road",,51.525024,-0.071329
23749173,"Education First","London","22 Chelsea Manor St, London SW3 5RL",,51.486824,-0.167527
23753685,"Somerset House - New Wing","London","Lancaster Place","WC2R 1LA",51.510616,-0.118771
23753723,"Beach Blanket Babylon","London","19-23 Bethnal Green Road","E1 6LA, Shoreditch",51.523804,-0.074358
23761885,"Elastic","London","Golden House, 30 Great Pulteney Street, W1F 9NN",,51.512131,-0.136391
23772413,"MESSE","Frankfurt","Ludwig-Erhard-Anlage 1",,50.112232,8.645142
23778274,"Urban Innovation Centre","London","One Sekforde St London EC1R 0BE",,51.523998,-0.104827
23778562,"Skills Matter at CodeNode","London EC2","10 South Place",,51.51889,-0.086563
23787993,"lisbon or london ?","London","O campus do Taguspark / idealondon",,51.48793,-0.146586
23802113,"All Bar One Bishopsgate","London","175 Bishopsgate, EC2M 3YD",,51.51862,-0.080446
23809826,"RockStar Hubs (ground floor) ","London EC3R 7DD","3 Minster Court (corner entry), Mincing Lane",,51.51033,-0.081082
23810151,"The Cube, Deutsche Boerse","Eschborn","Mergenthaleralle 61",,50.135578,8.56834
23816290,"Rising Sun, 44 / 46 EBURY BRIDGE Road","London","PIMLICO, LONDON, SW1W 8PZ",,51.490116,-0.150412
23825440,"MSE Meeting Rooms","London","103A Oxford Street W1D 2HG",,51.515884,-0.134768
23829646,"Harwell campus","Harwell","OX11 0QX",,51.572586,-1.315935
23830883,"Greenpeace HQ ","London","Canonbury Villas, N1 2BY",,51.540363,-0.098552
23831270,"The Nags Head 9 Orford Road, London, E17 9LP","London","Walthamstow ",,51.50642,-0.12721
23846943,"TIM Group","London","One Aldgate, EC3N 1RE",,51.511944,-0.075236
23848813,"UCL Cruciform B304 LT1, Cruciform Building Basement","London"," Gower Street, WC1E 6BT",,51.52478,-0.133438
23853557,"Create Space London","London","11th floor, Wembley Point, 1 Harrow Rd, Wembley, London, Middlesex HA9 6DE",,51.544666,-0.273945
23857724,"Lloyds Register","London","71 Fenchurch Street",,51.51265,-0.078804
23859390,"GSMA Head Office","London","Floor 2, The Walbrook Building, 25 Walbrook",,0,0
23874130,"Rocket Holborn","London","36-38 Kingsway, WC2B 6EY",,51.516052,-0.119036
23886889,"Eight Members Club","London","1 Dysart Street, EC2A 2BX",,51.521576,-0.084141
23890011,"Crane Software (Midvision Ltd)","London","Woolyard, 52 Bermondsey Street",,51.501926,-0.082524
23892101,"Interop Conference, ExCeL London ","London","1 Western Gateway  E16 1XL ",,51.508171,0.027107
23897146,"AnalogFolk London","London","20 Rosebery Avenue, Clerkenwell, EC1R 4SX, London",,51.52356,-0.111087
23909817,"UCL University Campus, Christopher Ingold XLG2 Auditorium, Christopher Ingold Building","London","20 Gordon Street, WC1H 0AJ, London",,51.525429,-0.132201
23909910,"Campus London (Google)","London","4-5 Bonhill Street, London, EC2A 4BX",,51.522579,-0.085512
23910794,"Avonmouth House","London","6 Avonmouth Street London SE1 6NX",,51.497997,-0.097838
23911143,"Skillsmatter (CodeNode)","London","CodeNode, 10 South Place, London, EC2M 2RB, GB ",,51.519547,-0.087081
23917238,"Citadines Holborn-Covent Garden","London","94-99 High Holborn - WC1V 6LF",,51.518295,-0.118713
23922150,"The Village","London","31 Orford Rd London E17 9NL",,51.582745,-0.011751
23924927,"WeWork Moorgate","London","1 Fore Street, EC2Y 5EJ",,51.51775,-0.090457
23933973,"The Assembly Rooms,Wetherspoons","Epsom","147-153 High Street Epsom Surrey KT19 8EH St",,51.332748,-0.26954
23934081,"The Cube, London","London","STUDIO 5, 155 COMMERCIAL STREET, LONDON, E1 6BJ",,51.52116,-0.075669
23934585,"Startupbootcamp","London","Rainmaking Loft International House 1 Saint Katharine's Way London E1W 1UN ",,51.507324,-0.07373
23940890,"TransferWise","London","186 City Road, London, EC1V 2NT",,51.527706,-0.090645
23947931,"Venntro London","London","Venntro, Floor 7, 10 Southampton St, WC2E 7HA ",,51.511208,-0.121844
23950649,"Barclays Accelerator","London","81 Palace Gardens Terrace, W8 4AT",,51.509239,-0.194224
23954332,"Qubit","London","35 King Street London, WC2E 8JG",,51.511875,-0.124743
23955665,"Skills Matter at CodeNode","London","10 South Place",,51.51889,-0.086563
23963169,"The London Irish Centre","London NW1 9XB","50-52 Camden Square",,51.543762,-0.132258
23963858,"Innovation Birmingham","Birmingham, B7 4BB","Faraday Wharf, Innovation Birmingham Campus, Holt Street, Birmingham Science Park Aston,",,52.488663,-1.887234
23972476,"Impact Hub King's Cross","London N1 9AB","34b York Way,  King's Cross",,51.532749,-0.122227
23973969,"Edspace","London","Block D, Hackney Community College, Shoreditch Campus, Falkirk Street, London, N1 6HQ",,51.530743,-0.079316
23974779,"Golden House","W1F 9NN","30 Great Pulteney Street",,51.512131,-0.136391
23982156,"Code Node","London","10 South Place EC2M 2RB",,51.519547,-0.087081
23993324,"CVS Brent","London","5 Rutherford Way",,51.635139,-0.340183
23994715,"Edwins Winebar","London","18 Phipps Street London EC2A 4NU",,51.524017,-0.081516
24003570,"SECC","Glasgow","Exhibition Way, G3 8YW",,55.86087,-4.288153
24003958,"TechHub Swansea","Swansea","11 Wind Street, SA1 1DP",,51.619572,-3.939572
24004594,"Hult International Business School","London","London Undergraduate Campus – Hult House East, 33-35 Commercial Road, London, E1 1LD, UK ",,51.515129,-0.068832
24008645,"Hurst Farm","Crockham Hill","Dairy Lane",,51.232761,0.053265
24012848,"St John's Church, Hoxton","London","Pitfield St, N1 6NP",,51.530544,-0.083635
24020445,"Skills Matter - CodeNode","London","10 South Pl, London, EC2M 2RB",,0,0
24020637,"Skills Matter at CodeNode","EC2M 2RB","10 South Place, London",,51.519547,-0.087081
24022425,"Hotel Kabuki","San Francisco","1625 Post Street",,37.785149,-122.428757
24023571,"Stackoverflow","London","1st Floor Bentima House, 168 - 172 Old Street ",,51.525318,-0.090652
24034987,"UCL Gustave Tuck Lecture Theatre","London","2nd Floor, Wilkins Building, UCL, Gower Street, WC1E 6BT",,51.52478,-0.133438
24035098,"MarketInvoice HQ","Greater London","Hogarth House, 136 High Holborn,",,51.5173,-0.122405
24041855,"University of Central Lancashire","Preston","Cold Bath St, PR1 2HE",,53.761196,-2.706821
24045692,"AWS Loft","London","WeWork, 1 Fore Street, EC2Y 5EJ",,51.517952,-0.090521
24047380,"Just-Eat Holding Limited","London","Floor 7, Fleet Place House, 2 Fleet Place, EC4M 7RF",,51.516418,-0.10321
24048867,"The Bricklayers Arms","London ","63 Charlotte Rd, EC2A 3PE",,51.526314,-0.081117
24049178,"Skempton Building, Imperial College","London","SW7 2AZ ",,51.500515,-0.178231
24049333,"Skills Matter","London","CodeNode, 10 South Place, London, EC2M 2RB, GB ",,51.519547,-0.087081
24052668,"Andel's Hotel","Berlin","Landsberger Allee 106, 10369 ",,52.528561,13.457339
24055571,"Satellite Applications Catapult","Oxfordshire","Electron Building, Fermi Avenue, Harwell, OX11 0QR",,51.577229,-1.309256
24057995,"Newspeak House","London","133-135 Bethnal Green Road, E2 7DG",,51.525402,-0.071136
24068767,"ONLINE","London","Online",,51.50642,-0.12721
24070604,"TechHub London  20 Ropemaker Street","London","EC2Y 9AR",,51.519695,-0.08846
24075583,"Cloudamour Limited ","London","Suite 1 Building 5,  Leavesden Park, Hercules Way, Watford, Herts,  WD25 7GS",,51.507351,-0.127758
24080592,"Coventry","Coventry","Coventry",,52.406822,-1.519693
24080640,"Founders and Coders","E2 0SY"," 14 Palmers Rd, London",,51.529533,-0.042295
24088792,"The Institute of Directors hub - City of London,","London","New Broad Street House, 35 New Broad Street, ",,51.517128,-0.084157
24099332,"Wayra London, 2-10 Shropshire House ","London","Capper Street, WC1E 6JA",,51.522758,-0.135066
24107105,"Skills Matter at CodeNode","London","10 South Place, EC2M 7EB",,51.518906,-0.086611
24109423,"Wallacespace ","London","18 Clerkenwell Green  EC1R 0DP London",,51.523403,-0.106523
24109954,"Goldman Sachs HQ","London","120 Fleet St, EC4A 2QQ",,51.514561,-0.105591
24111838,"Pushkin House","London","5A Bloomsbury Square WC1A 2TA",,51.518288,-0.123118
24113768,"Geovation","London"," 1 SEKFORDE STREET, CLERKENWELL GREEN, LONDON, EC1R 0BE",,51.522781,-0.105339
24122180,"London Fields Brewery ","London","365-366 Warburton Street, Hackney, London, E8 3RR",,0,0
24123790,"Browns Old Jewry","London","8-10 Old Jewry, London, Greater London, EC2R 8DN",,51.514076,-0.090618
24125728,"WeWork, 3rd Floor","London","9 Devonshire Square, EC2M 4YD",,51.516933,-0.078523
24126294,"Galvanize U","San Francisco","44 Tehama Street",,37.787495,-122.39653
24126788,"Slug and Lettuce, ","Surrey","10 The Derby Square, Epsom, KT18 8AG",,51.30574,-0.240402
24126788,"Slug and Lettuce, ","Surrey","10 The Derby Square, Epsom, KT18 8AG",,51.334003,-0.266395
24132930,"Etihad stadium","Manchester","M11 3FF",,53.484592,-2.202693
24133908,"Silverrail Technologies HQ","London","The Heal’s Building, 22 Torrington Place,, WC1E 7HJ",,51.521458,-0.134445
24139887,"Online","London","https://attendee.gotowebinar.com/register/3978312713778831362",,0,0
24140538,"Investec Bank PLC","London EC2V 7QP","2 Gresham Street",,51.516167,-0.096667
24141608,"NUMA Sentier","Paris","39 Rue du Caire, 75002 Paris",,48.86763,2.34954
24143706,"Skimlinks","London","2nd Floor, 52 Bevenden Street","London, N1 6BL",51.529408,-0.086795
24144148,"Hilda Porter Room, The Wesley Hotel","London","81-103 Euston Street London, England, NW1 2EZ",,51.52663,-0.136049
24147417,"PA Consulting","London","123 Buckingham Palace Road, SW1W 9SR",,51.493603,-0.146671
24148749,"Zalando Dublin","Dublin 4","Second Floor, The Warehouse, 35 Barrow Street",,0,0
24149059,"ETC.VENUES 155 BISHOPSGATE","London","155 Bishopsgate, Liverpool St, London, EC2M 3YD, London",,51.518726,-0.079838
24152820,"Skills Matter | Code Node","London","10 South Place EC2M 2RB",,51.518551,-0.086114
24158758,"Museum of Science & Industry","M3 4FP","Liverpool Road, Manchester",,53.476448,-2.254391
24159953,"Newcastle University London","London","102 Middlesex Street",,51.517315,-0.077301
24160679,"49, Oxford Street ","LE1 5XY","DS3 Labs, Innovation Centre, De Montfort University, Leicester",,52.629215,-1.135603
24162541,"etc.venues St Paul's 200 Aldersgate Street","EC1A GB","London",,51.51825,-0.102025
24162551,"Flux Lounge - Engage Works. Wool House, Unit 1. 74 Back Church Lane","E1 1AB","London",,51.511909,-0.066636
24162942,"Exeter Science Park - Babbage Way. Clyst Honiton.","EX5 2FN","Exeter",,50.731117,-3.456513
24163987,"Fablab London","EC2R 8AE","1 Frederick’s Place, Off Old Jewry ",,51.514187,-0.091538
24164279,"Campus North - 5 Carliol Square"," NE1 6UF","Newcastle upon Tyne",,54.972946,-1.608285
24164285,"Newspeak House, 133 Bethnal Green Road","E2 7DG","London",,51.525322,-0.071185
24164343,"Winton Capital","London","27 Hammersmith Grove, W6 0NE",,51.495018,-0.226458
24166588,"ustwo London, 62 Shoreditch High Street ","E1 6JJ","London",,51.524128,-0.076224
24166594,"Nottingham Trent University Clifton Campus - Pavilion Building Room 122. Clifton Lane. ","NG11 8NS","Nottingham",,52.91209,-1.185257
24166599,"Copper Box Arena, Queen Elizabeth Olympic Park","E20 3HB","London",,51.544407,-0.020082
24166618,"NCVO, National Council For Voluntary Organisations - 8 All Saints Street","N1 9RL","London ",,51.534771,-0.118714
24169626,"The Duke E17","London"," 112 Wood Street, Walthamstow",,51.588043,-0.004292
24172796,"Myjar Ltd, ","London","Moss House, 15-16 Brook's Mews, London W1K 4DS",,51.51231,-0.146482
24174934,"Ian Gulland Lecture Theatre","London","Whitehead Building, Goldsmiths University",,51.473736,-0.037207
24177026,"Artirix Office","London","2nd Floor, Venture House, Glasshouse Street",,51.510464,-0.137367
24177183,"ANDigital","London","Golden Cross House, 8 Duncannon Street, WC2N 4JF",,51.508392,-0.126372
24177775,"Rockstar hubs","London","EC3R 7DD",,51.509998,-0.08
24179718,"Andel's Hotel, Room Saphir 2 and 3","London","Landsberger Allee 106, 10369, Berlin",,52.528072,13.457125
24185525,"Stratified Medical","London","40 Churchway, NW1 1LW",,51.528511,-0.130355
24185681,"Webinar Online - See link below","London","Webinar",,51.507351,-0.127758
24185751,"Quru","London","West Wing, Somerset House, Strand, WC2R 1LA",,51.511139,-0.119413
24187786,"Amba Hotel Marbel Arch","London","Bryanston Street",,51.514137,-0.159334
24192431,"Engineering Building, Building 15, Queen Mary University of London ","London","Mile End Road, E1 4NS",,51.522499,-0.041885
24192500,"Fitch Learning","London London EC1Y 4UP","4 Chiswell Street ",,51.520798,-0.087735
24193056,"Runway East","London","10 Finsbury Square",,51.52124,-0.087505
24199621,"Traveltech Lab","London","6th Floor, 2 More London, Riverside, SE1 2RR",,51.505157,-0.080595
24200300,"WeWork Spitalfields","London","1 PRIMROSE STREET, LONDON, EC2A 2EX",,51.520279,-0.079775
24201648,"Goldsmiths Church","London","New Cross, Hatcham, St. James",,51.474247,-0.038013
24203467,"1st Floor, 20 Air Street","London"," Piccadilly Circus, W1B 5DL",,51.509972,-0.134992
24207510,"EIP, Fairfax House","London","15 Fulwood Place London WC1V 6HU",,51.518841,-0.113386
24214872,"CodeNode - 10 South Place","EC2M 7EB","London",,51.518562,-0.086245
24216434,"The Octagon","Hull","Walker Street, HU3 2RA",,53.73856,-0.354491
24230230,"Central Working (near Whitechapel)","London","69-89 Mile End Road, Whitechapel, E1 4TT",,51.520878,-0.052311
24234054,"Hotels.com","EC1V 4AB","Angel Building, 407 St John Street",,51.531151,-0.106025
24236879,"Look Mum, No Hands!","EC1V 9HX.","49 Old Street, London",,51.524166,-0.096889
24243795,"Palantir, 3rd Floor","London","27 Soho Square, W1D 3QR",,51.514812,-0.131652
24247200,"The Fox","London","28 Paul Street, Shoreditch, EC2A 4LB, London",,51.523903,-0.083815
24248895,"Hewlett Packard Enterprise, 1 Aldermanbury Square","London","EC2V 7SB",,51.516785,-0.092935
24251031,"WORKLIFE Camden","London","13 Hawley Crescent, NW1 8NP",,51.540955,-0.142647
24256931,"Interchange","London","3rd Floor, Triangle Building. Stables Market, Chalk Farm Rd, . London NW1 8AB GB",,51.507351,-0.127758
24257314,"Imperial College London","London","Imperial College London SW7 2AZ London, United Kingdom, London",,51.497974,-0.176874
24260398,"Inmarsat Conference Centre ","London","99 City Road, EC1Y 1AX",,51.525673,-0.086373
24262504,"etc.venues Bonhill House ","London","EC2A 4BX ",,51.522572,-0.0855
24271386,"The Vault SF","San Francisco"," 415 Jackson St",,37.796318,-122.402344
24279884,"Rise London (previously London Escalator)","London","69-89 Mile End Road, E1 4TT",,51.520878,-0.052311
24290402,"http://dtd.analyticsweek.com/","Online","http://dtd.analyticsweek.com/",,0,0
24291075,"Fitch Learning","Manhattan","55 Broad St, 3rd Floor",,40.705292,-74.01088
24294093,"Wayra UK","London","Shropshire House, 2-10 Capper St London WC1E 6JA",,51.522541,-0.135032
24295956,"Online","San Francisco","Webinar",,37.774929,-122.419418
24298761,"UCL, Bedford Way LG04, 26 Bedford Way","London","WC1H 0DS",,51.523983,-0.128802
24305735,"JustGiving Floor 2 Blue Fin Building ","London","110 Southwark Street London SE1 0LA",,51.505978,-0.100084
24306010,"WorldRemit","SW1E 6PA","2nd Floor, 62 Buckingham Gate, London",,51.497723,-0.136051
24319896,"Sainsbury's Headquarters","London"," 33 Holborn, EC1N 2HT",,51.517307,-0.108527
24324106,"UCL G29, Anatomy Building, JZ Young Lecture Theatre","London","Gower Street, WC1E 6BT",,51.522449,-0.132647
24327923,"CodeNode, ","London","10 South Place, London, EC2M 7EB",,51.518551,-0.086114
24329812,"Online","San Francisco","Webinar",,37.774929,-122.419418
24330162,"SchoonMeersen Campus of the University College Ghent ","London","Valentin Vaerwyckweg 1  9000 Belgium",,51.035545,3.702951
24332190,"Nakama","London","1 Fitzroy Square, London W1T 5HF",,51.523182,-0.139171
24332378,"Medical Sciences 31 A V Hill LT, Medical Sciences Building,","London","UCL, Malet Place, WC1E 6BT ",,51.524773,-0.133427
24339854,"Online","San Francisco","Webinar",,37.774929,-122.419418
24342602,"The Craft Beer Company","London","82 Leather Lane, Clerkenwell, London, EC1N 7TR",,51.521271,-0.109661
24344424,"http://dtd.analyticsweek.com/","England","http://dtd.analyticsweek.com/",,0,0
24347145,"Novotel Bristol Centre Hotel","Bristol","BS1 6HY",,51.450817,-2.586057
24359838,"Angel Square","EC1V 1NS","Block 1",,0,0
24361081,"WeWork Old Street","London","18-21 Corsham Street, London  N1 6DR",,51.527657,-0.086574
24372678," Futurice(Turnpoint Building, 4th floor)","London","26-28 Underwood street, N1 7JQ",,51.529964,-0.091132
24372890,"Isarpost Eventlocation","München"," Sonnenstraße 24-26",,48.135494,11.564827
24375505,"King Arms","London","27 Wormwood Street, Bishopsgate, EC2M 1RP",,51.516113,-0.081778
24376907,"The Saint","London","Paternoster Square, EC4M 7DQ",,51.514706,-0.09917
24382724,"Sainsburys","London","33 Holborn, London, EC1N 2HT",,51.517307,-0.108527
24384760,"Twitter","London","20 Air St London W1B 5DL",,51.51059,-0.13656
24385133,"IDEA London","London","9 Wilson Street, Shoreditch, London EC2A 2BB",,51.521832,-0.084641
24388293,"Edmond J Safra Lecture Theatre","London","King's College London, Strand WC2R 2LS",,51.511791,-0.115784
24391550,"Argos","London, SW1V 1EJ","279 Vauxhall Bridge Road, Victoria",,51.494823,-0.14203
24397270,"Angel Building","London","407 St John Street, Clerkenwell, London EC1V 4AD",,51.531151,-0.106024
24412528,"NEW LIVE STREAM LINK","London","http://bit.ly/watchpanelforparity",,0,0
24414858,"Hotels.com (NOTE DIFFERENT BUILDING)","London","Address: Block 1, Angel Square, London EC1V 1NS, United Kingdom",,51.507351,-0.127758
24418714,"Arthur & Paula Lucas Lecture Theatre (S-2.18)","London","King's Building",,51.49585,-0.126188
24418745,"The Pinnacle, Transport Systems Catapult","Milton Keynes","170 Midsummer Boulevard ",,52.036427,-0.767443
244202,"The Betjamin Arms","London NW1 2QP","Unit 53, St. Pancras Station","Pancras Road",51.545597,-0.105074
24421151,"Sainsburys","London","33 Holborn, London, EC1N 2HT",,51.517307,-0.108527
24421151,"Sainsburys","London","33 Holborn, London, EC1N 2HT",,51.51753,-0.108834
24421399,"ITV London","London","ITV",,51.507351,-0.127758
24426694,"PopUp Patio","London","Finsbury Square, London EC2A 1RR",,51.520885,-0.085772
24429225,"Brew Dog Soho","London","21 Poland Street, Soho, W1F 8QG",,51.515095,-0.137235
24434839,"King's College London, Anatomy Lecture Theatre (K6.29)","London","King's Building, Strand Campus",,51.507351,-0.127758
24434912,"Sky Osterley Campus","London"," West Cross House, West Cross Way, Osterley, London, TW8 9DE, GB ",,51.507351,-0.127758
24435032,"Geovation Hub","London","1 Sekforde Street, Clerkenwell Green, EC1R 0BE",,51.52374,-0.104754
24439604,"King's College London, Anatomy Lecture Theatre (room K6.29) - ","London","Strand, London WC2R 2LS, United Kingdom",,51.511139,-0.119413
24439662,"UCL AV Hill LT, Medical Sciences Building, Malet Place, WC1E 6BT ","London","UCL AV Hill LT, Medical Sciences Building, Malet Place, WC1E 6BT ",,51.52298,-0.132006
24439689,"The Dishroom","London","7 Boundary St, London E2 7JE",,51.524532,-0.07694
24445542,"Convention Centre Dublin","Dublin","Spencer Dock, Dublin 1",,53.350174,-6.241654
24451424,"Runway East","London","10 Finsbury Square",,51.52124,-0.087505
24456001,"Online","London","Online",,51.507351,-0.127758
24456951,"Sofitel St. James Hotel","London","6 Waterloo Pl, London SW1Y 4AN, UK",,51.507603,-0.132266
24462832,"All Bar One","London","42 Mackenzie Walk, Canary Wharf, London, Greater London, E14 5EH",,51.504314,-0.020532
24464930,"Origin Boutique Nightclub","San Francisco","1538 Fillmore St.,",,37.783878,-122.432556
24467442,"ExCel London","London","Royal Victoria Dock, 1 Western Gateway, London E16 1XL",,51.508362,0.020277
24476117,"The Frog ","Paris","Bercy Village",,48.835457,2.385683
24476195,"NBBJ","London","230 City Road, EC1V 2TT",,51.528477,-0.093009
24485303,"The Economist Office","London","20 Cabot Square",,51.504711,-0.022627
24485893,"ESA Business Incubation Centre","Oxfordshire","Harwell Campus, OX11 0QX",,51.572575,-1.315923
24485932,"Affiliate Window","London","5th Floor, 2 Thomas More Square, E1W 1YN",,51.508232,-0.067345
24486582,"INMARSAT","London","99 CITY ROAD",,51.525673,-0.086373
24489921,"UCL Roberts 106 LT Lecture Theatre","WC1E 7JE","Roberts Building, Malet Place",,51.523563,-0.132634
24493017,"Bartlett School of Architecture","05/17/2016"," 140 Hampstead Road, London NW1 2BX.",,51.529774,-0.138246
24495125,"Robert Half The Shard","London","Level 10, 32 London Bridge Street SE1 9SG",,51.504417,-0.0863
24495246,"Red Hat","London","4th floor, 30-36 Monument Street, London EC3R 8NB",,51.509609,-0.08528
24498857,"The Queens Head ","London"," 64 Theobalds Rd, London WC1X 8SF",,51.520741,-0.116977
24501702,"Meltdown, 342 Caledonian Road","London","N1 1BB",,51.540142,-0.116676
24505761,"Eagle Labs Incubator, Barclays Bank, Cambridge CB4 3AZ","Cambridge","28 Chesterton Road",,52.21418,0.125057
24508893,"King's College London - Hodgkin Building Guy's Campus","London","SE1 1UL ",,51.5028,-0.089629
24522262,"London Zoo","London","Regent's Park, London, NW1 4RY",,51.532692,-0.141995
24523731,"Empiric","London","First Floor, 1 Old Jewry, London EC2R 8DN",,51.513824,-0.090765
24526320,"etc.venues Moorgate","London","8th Floor Tenter House 45 Moorfields",,51.518856,-0.089205
24527493,"The Red Lion","London","41 Hoxton St, London N1 6NH",,51.527283,-0.080618
24529311,"Great Hall (K0.64), King's Building","London","King's College London, Strand Campus",,51.51145,-0.116
24531113,"Huddle","E1 8FA","2 Leman Street, 2nd Floor Aldgate Tower",,51.514919,-0.071885
24531264,"The Studio","Manchester","51 Lever Street, M1 1FN",,53.483009,-2.23321
24536348,"Skills Matter | Code Node","London","10 South Place","EC2M 7EB",51.51855,-0.086114
24538402,"The Shard","London SE1 9SG","32 London Bridge St, 18th Floor",,51.504417,-0.0863
24542681,"1.11, Franklin-Wilkins Building, Waterloo Campus ","London","Stamford Street, SE1 9NH ",,51.506222,-0.11007
24547251,"Level 24/25 The Shard - iland Europe Ltd.","London","32 London Bridge St. London SE1 9SG",,51.504417,-0.0863
24550495,"Future Cities Catapult, Urban Innovation Centre","London","One Sekforde Street EC1R 0BE",,51.523857,-0.104779
24550521,"etc.venues","London","8 Fenchurch Place, Fenchurch Street",,51.512642,-0.079409
24552101,"Generator Hostel","Dublin","Smithfield",,53.315369,-6.48128
24555884,"Innovation Warehouse","London","1 E Poultry Avenue, London, EC1A 9PT",,51.519085,-0.102783
24563320,"Fox@ExCel","London","Warehouse K, Hotel ibis London Excel Docklands, Excel Centre, 2 Western Gateway, London E16 1DR",,51.508919,0.02452
24568245,"Lloyds Banking Group","London","48 Chiswell Street, EC1Y 4XX ",,51.522133,-0.091891
24570780,"Grow@Green Park","Reading","250 South Oak Way, Reading, RG2 6UG",,51.420158,-0.987615
24572934,"Puppet Offices","SE1 3UD","Woodyard, 52 Bermondsey St, London",,51.501842,-0.082424
24581652,"Global Online Hackathon","Any City","Any Street",,36.778259,-119.417931
24583532,"Room 114, Foster Court, Malet Place, Off Torrington Place","London","WC1E 7JE",,51.522972,-0.132217
24584593,"White Loft","London","Silex Street, Southwark, SE1 0DW",,51.500267,-0.101996
24584818,"The Alchemist","London","6 Bevis Marks",,51.514851,-0.079658
24589489,"Progress Software","Bracknell","3 Arlington Square, Downshire Way, Bracknell, RG12 1WA",,51.411854,-0.757427
24590296,"110 Rochester Row","SW1P 1JP London","110 Rochester Row",,51.493187,-0.137888
24598524,"Rise London","London","69-89 Mile End Rd E1 4TT",,51.520878,-0.052311
24605768," Lecture Theatre 1.02 Malet Place Engineering Building, Enter through Roberts Building, Malet Place, Off Torrington Place","London","WC1E 7JE",,51.522697,-0.132539
24609759,"Pivotal","London","2nd floor, The Warehouse, 207 Old Street, EC1V 9NR",,51.526226,-0.088893
24609759,"Pivotal","London","2nd floor, The Warehouse, 207 Old Street, EC1V 9NR",,51.526459,-0.089065
24613908,"Infusion","London"," Exchange Tower, Suite 7.04, 2 Harbour Exchange Square, E14 9GE",,51.498947,-0.01482
24618196,"Coventry Transport Museum","Coventry","Millennium Place","Hales Street",52.410744,-1.510289
24618311,"MVF Global","London","Perren St, London NW5 3ED",,51.54718,-0.146319
24624319,"Prufrock","EC1N 7TE","23-25 Leather Ln, London ",,51.519947,-0.109537
24631059,"Unit 20, The Stables Market ","London","Chalk Farm Rd,NW1 8AA",,51.541252,-0.149726
24633347,"Red Lion Pub ","London","1 Eldon Street, EC2M 7LS",,51.51881,-0.086052
24634831,"BlackRock","London","12 Throgmorton Ave, EC2N 2DL",,51.515652,-0.086673
2464191,"Craft Beer Co.","London","82 Leather Lane, EC1N 7TR",,51.52129,-0.109947
24643797,"La Tasca West India Docks Road E14 ","London","West India Docks Road E14 ",,51.509308,-0.024874
24648665,"Double Tree by Hilton","San Jose","2050 Gateway Pl, CA 95110",,37.371693,-121.92276
24658423,"St John's Church","London","Pitfield St, N16NP",,51.53101,-0.082917
24660392,"WeWork","EC2M 4YD","9 Devonshire Square, London",,51.516933,-0.078523
24661868,"Innovation Warehouse","London","1 E Poultry Avenue, London, EC1A 9PT",,51.519085,-0.102783
24666537,"Design Offices München Arnulfpark","80636 Munich ","Luise-Ullrich-Straße 20",,48.143764,11.537694
24670678,"WeWork","London","41 Corsham Street, N16DR",,51.52726,-0.08729
24673433,"St Mary's Fleming Library Imperial College London","London","W2 1PG",,51.517738,-0.173178
24681797,"BAM Mobile","London","Innovation Warehouse, 1 East Poultry Avenue, EC1A 9PT",,51.519085,-0.102783
24684590,"Webcast","London","Online",,0,0
24684613,"Webcast","London","Online",,0,0
24689983,"Hoxton Shoreditch Lobby","London","81 Great Eastern St, London EC2A 3HU",,51.525509,-0.082926
24702607," Excel, Royal Victoria Dock, 1 Western Gateway","London","E16 1XL",,51.50816,0.02712
24717708,"Mozilla","London","30 Great Guildford St, London SE1 0HS",,51.504871,-0.097048
24722643,"etc.venues Prospero House","London","241 Borough High St, Southwark, SE1 1GA London",,51.50042,-0.094119
24725188,"WSO2 Office ","London SW9 6DE","CC1 07, Kennington Park, 1-3 Brixton Road",,51.480434,-0.10958
24725572,"Interchange Triangle","London","Stables Market, Chalk Farm Rd",,51.54229,-0.148351
24729109,"King's Cross St. Pancras","London","N1C 4QP",,51.531429,-0.126133
24740413,"Mariott Hotel","Frankfurt","Hamburger Allee 2 60486",,50.11459,8.650314
24745891,"Hudson Mercantile Bldg","New York","500 West 36th Street",,40.755863,-73.99865
24747785,"Newspeak House","London","133 Bethnal Green Road, E2 7DG",,51.525097,-0.071239
24756118,"ASI Data Science","London","48 Fitzroy Street W1T 5BS",,51.523708,-0.140051
24757414,"Accelerate West","London","Accelerate West, One Hammersmith Broadway, W69DL",,51.493042,-0.224498
24761645,"General Assembly","London"," The Relay Building, 1 Commercial Street, London E1 7PT",,51.51548,-0.072057
24763808,"oracle","London","Level 29,  40 Bank Street Canary Wharf",,51.502628,-0.019492
24765377,"Bandra Area,","Mumbai","Bandra",,19.060692,72.83625
24770588,"2 Kingdom Street","London","Paddington, W2 6BD",,51.515446,-0.175451
2526131,"Ravensbourne College","London","6 Penrose Way Greenwich Peninsula SE10 0EW",,51.500153,-0.126236
2674661,"The Mermaid Conference & Events Centre","London","Puddle Dock Blackfriars, EC4V 3DB",,51.511593,-0.102261
3046741,"Roberts Building UCL","London","Torrington Place and A400",,51.522236,-0.13317
3228392,"ARSENAL EMIRATES STADIUM","London","N5 1BU",,51.55793,-0.102236
332342,"Theodore Bullfrog","London","28 John Adam Street","WC2N 6HL",51.509033,-0.123241
3369182,"SapientNitro","London E1 6DU","8 Spital Square",,51.520271,-0.076569
3425742,"Club Workspace Clerkenwell Workshops  EC1R 0AT London United Kingdom","London","27/31 Clerkenwell Close ",,51.524548,-0.10642
359032,"Bar Music Hall","London","134 Curtain Road, London, EC2A 3AR",,51.524475,-0.080335
362539,"The Apostle","London","34 Ludgate Hill","EC4M 7DE",51.513851,-0.101582
3628292,"Oracle Corporation","London","One South Place London EC2M 2RB",,51.519234,-0.087501
3697812,"The Slaughtered Lamb","London EC1V 0DX ","34-35 Great Sutton St",,51.523769,-0.09932
379978,"The Old Crown Public House (second/top floor)","London","33 New Oxford Street","WC1A 1BH",51.517097,-0.125057
3873472,"Hand & Flower","London W14 8XJ","1 Hammersmith Road",,51.495953,-0.208504
3929882,"The Hub Westminster","London","First floor, New Zealand House, 80 Haymarket, SW1Y 4TE",,51.507904,-0.131782
3930402,"New World Stages","New York","340 West 50th St",,40.762791,-73.987503
3931122,"Digital Sandbox Network Events Center, ","New York","New York Information Technology Center, 55 Broad Street, New York, NY 10005",,40.705296,-74.011047
3931342,"Hand & Flower","Hammersmith, W14 8XJ","1 Hammersmith Road",,51.495953,-0.208504
409450,"The Antelope","London","22-24 Eaton Terrace","SW1W 8EZ",51.496212,-0.150197
4199012,"Oracle City Office ","EC2M 2RB","One South Place, London",,51.519234,-0.087501
420213,"The Albannach","London","66 Trafalgar Square, WC2N 5DS",,51.507461,-0.128659
4203522,"Cafe Nouf","London","8 lower Grosvenor Place, Victoria SW1W 0EN",,51.49826,-0.145161
4233342,"UCL Darwin Lecture Theatre (Lower Floor)","London, WC1E 7JG","Darwin Building, Malet Place",,51.523148,-0.132008
4233352,"UCL","London","UCL Darwin Lecture Theatre (Lower Floor) - Darwin Building, Malet Place, London, WC1E 7JG  ",,51.523148,-0.132008
4268362,"ExCeL - London","Poplar","1 Western Gateway, Royal Victoria Dock","London Docklands, E16 1XL",51.508782,-0.010522
4445402,"The Larrik Inn","London","32 Crawford Street W1H 5NN London ",,51.519402,-0.161757
4477842,"THECUBE, Studio 5, 155 Commercial Street","London","E1 6BJ",,51.521149,-0.075657
4756672,"Henry's Bar - Piccadilly ","London","W1J 8HX",,51.506737,-0.143285
4809572,"University of Westminster","London","Room C1.15, 115 New Cavendish Street",,51.52079,-0.140143
4817212,"The Westminster Hub","London","1st Floor, New Zealand House, 80 Haymarket, SW1Y 4TE",,51.507915,-0.131582
4817342,"Skills Matter","London","116-120 Goswell Road London, EC1V 7DP United Kingdom",,51.524509,-0.099154
486153,"Shoreditch Town Hall","London","380 Old Street","EC1V 9LT",51.527229,-0.079718
4882362,"Forward Technology (http://forwardtechnology.co.uk/venue)","London","Floor 2, Centro 3, 19 Mandela Street",,51.47789,-0.111501
4981602,"Razorfish UK","London","4th Floor, 23 Howland Street, W1T 4AY",,51.52132,-0.137359
5050822,"UCL Roberts 106","London","Roberts Building, Torrington Place, WC1E 7JE",,51.521744,-0.134188
5117352,"The Theodore Bullfrog"," London","26-30 John Adam Street, WC2N 6HL",,51.508839,-0.123962
5121422,"The Slaughtered Lamb,","London"," Great Sutton Street",,51.52322,-0.100609
5154822,"Sapient Global Markets","London","Eden House, 8 Spital Square London E1 6DU",,51.5205,-0.078337
5167652,"The O2","London SE10 0DX","Peninsula Square",,51.500019,-0.018276
5200222,"University College London - Wilkins Building, Wilkins Old Refectory","London","GOWER STREET, LONDON, WC1E 6BT",,51.524708,-0.133625
5212832,"Bonhill House","London","1-3 Bonhill Street, London, EC2A 4BX",,51.522724,-0.084817
5230562,"Gilt Bar & Lounge","EC3R 7NA","14 New London Street, London",,51.511147,-0.079239
5248032,"Cittie of Yorke ","London","22 High Holborn, WC1V 6BN",,51.515942,-0.107227
5409472,"London Business School","London","Regent's Park London, NW1 4SA",,51.528046,-0.155747
5588392,"Skills Matter","London","116-120 Goswell Road London, EC1V 7DP",,51.524506,-0.099152
5755172,"The Grand Connaught Rooms Hotel","London","61-65 Great Queen Street","WC2B5DA",51.515161,-0.121137
5775322,"Media Science","London","53 Frith St, Soho, London, W1D 4SN",,51.513718,-0.13202
5885862,"Balls Brothers","London","Minster Court, Mincing Lane, EC3R 7PP",,51.510994,-0.081514
6020822,"BSkyB offices","TW8 9DF","Great West House",,51.48774,-0.3133
6034372,"kalared.com","Maidstone","Bank st",,51.273052,0.521556
6034372,"kalared.com","Maidstone","Bank st",,51.273228,0.522114
6143962,"Forward Internet Group","London","Floor 2, Centro 3, 19 Mandela Street, NW1",,51.537804,-0.136739
6183482,"Google Campus - Central Working","London","4-5 Bonhill Street, London, UK",,51.52272,-0.085474
6270312,"The Old Doctor Butlers Head","London","2 Mason's Avenue (Off Coleman Street), Moorgate, London, EC2V 5BT",,51.515816,-0.09041
6293062,"Earls Court 2","London","Warwick Rd, SW5 9TA",,51.490124,-0.195271
6357312,"Forward","London","Floor 2, Centro 3 19 Mandela Street  London, NW1 0DU",,51.537758,-0.136774
6373392,"The Waldorf Hilton","London   WC2B 4DD","22 Aldwych",,51.512447,-0.118834
6415442,"Tech Hub","London","4-5 Bonhill Street, EC2A 4BX",,51.522713,-0.08535
6519152,"Techhub @ Campus","London EC2A 4BX","4-5 Bonhill St",,51.522713,-0.08535
6617232,"HUB WESTMINSTER","London","New Zealand House","80 Haymarket",51.507789,-0.131651
6647742,"DoES Liverpool","Liverpool, L1 4LN","Gostins Building","32-36 Hanover Street ",53.40292,-2.984439
6741752,"TIM Group","London","3 Copthall Avenue, EC2R 7BH",,51.515968,-0.087815
6764882,"Gibson Hall","London","13 Bishopsgate London EC2N 3BA",,51.514557,-0.083627
6775182,"Concrete (below Pizza East), Lower Ground Floor, 56 Shoreditch High Street London, E1 6JJ","London","Lower Ground Floor, 56 Shoreditch High Street London, E1 6JJ",,51.524128,-0.076224
6777292,"Mozilla","London","Mozilla, Floor 3, 101 St Martin's Ln","WC2N 4AZ",51.51026,-0.12705
6807372,"Olympia National Hall","London","Hammersmith Road W14 8UX",,51.496639,-0.210557
682646,"93 Feet East","London","150 Brick Lane",,51.521464,-0.071799
6858902,"Google Campus","London","4-5 BONHILL STREET LONDON EC2A 4BX",,50.453995,0.02024
6858902,"Google Campus","London","4-5 BONHILL STREET LONDON EC2A 4BX",,51.522724,-0.084817
6860372,"Park Plaza Riverbank","London","18 Albert Embankment",,51.490562,-0.122527
687651,"The British Interplanetary Society ","London","27/29 South Lambeth Road SW8 1SZ  ",,51.48548,-0.122337
687711,"Barbican Centre","London","Silk Street, EC2Y 8DS",,51.520115,-0.092562
6931892,"Park Plaza Westminster Bridge Hotel","London SE1 7 UT","200 Westminster Bridge Road",,51.501411,-0.117241
6954692,"New York","New York","TBC",,40.714352,-74.005974
6960412,"Münchenbryggeriet","Stockholm","Torkel Knutssonsgatan 2 Stockholm T-bana: Mariatorget",,59.320747,18.056202
6967312,"OpenCredo","London","42 Southwark Street",,51.504898,-0.093604
6974102,"UCL, Darwin Building, University College London, Gower Street ","London","University College London, Gower Street, London WC1E",,51.524536,-0.134037
716492," Doggetts Coat and Badge","London","1 Blackfriars Bridge","SE1 9UD",51.511022,-0.104256
7226762,"KPMG","London","15 Canada Square, E14 5GL",,51.505413,-0.016434
724891,"Old Salt Quay","London","Rotherhithe St",,51.504992,-0.045569
737596,"Natural History Museum","London","Cromwell Rd",,51.494998,-0.183198
7382212,"The Skills Matter eXchange","London","116-120 Goswell Road London, EC1V 7DP",,51.524506,-0.099152
7382392,"SkillsMatter eXchange","London","116-120 Goswell Road London, EC1V 7DP",,51.524506,-0.099152
742447,"Nordic Bar","London","25 Newman St","(just off Oxford street to the North)",51.517805,-0.135793
7495992,"Join us on Skype for an online meetup","London","Skype ID to add: marcalondres",,51.508129,-0.128005
7725682,"Liverpool Art and Design Academy","Liverpool","2 Duckinfield Street",,53.405094,-2.97032
7730702,"balls brother minster exchange","London","ec3r 7pp",,51.510807,-0.08105
7772022,"Central Working","London","11-13 Bayley Street Bedford Square WC1B 3HD",,51.519314,-0.130426
7772472,"Tattershall Castle","London","Victoria Embankment Whitehall London SW1A 2HR ",,51.506088,-0.122374
7831562,"Nordic Bar","London","25 Newman STreet",,51.517857,-0.135665
7911132,"Bskyb, 1 Braham Street, near Aldgate East Tube Station","London"," SKY NETWORK SERVICE, MAERSK HOUSE    1 BRAHAM STREET    London, London E1 8EP",,51.514278,-0.071724
7931512,"Shaping Cloud HQ","Manchester","Unit 1.1, 51 Bengal Street, M4 6LN",,53.484272,-2.226346
793683,"London’s Business Design Centre","Islington","Islington ",,51.534961,-0.103742
798859,"The Plough","London","27 Museum St","Bloomsbury",51.517777,-0.125644
8025682,"Skills Matter Exchange","London","116-120 Goswell Road",,51.524506,-0.099152
805913,"Skills Matter","London EC1V7DP","The Skills Matter eXchange","116-120 Goswell Road",51.524823,-0.099109
8078582,"General Assembly London Campus   ","London","144a Clerkenwell Road, 2nd Floor ",,51.522198,-0.109762
809434,"ExCeL London","London","1 Gateway",,51.509148,0.033197
809843,"Camel & Artichoke","London","121 Lower Marsh, SE1 7AE",,51.500688,-0.113125
813778,"Hoop and Grapes","City of London","80 Farringdon Street ","EC4A 4BL ",51.516402,-0.104873
8188772,"Joe and The Juice","London","Dean Street",,51.514145,-0.132907
8247242,"Event Space 1, Google Campus, ","London","4-5 Bonhill Street, London, EC2A 4BX",,51.522724,-0.084817
8285102,"Google Campus","EC2A 4BX","4-5 Bonhill Street",,51.52272,-0.085348
835790,"Counting House Pub","London","50 Cornhill Rd","EC3V 3PD",51.513407,-0.085022
835790,"Counting House Pub","London","50 Cornhill Rd","EC3V 3PD",51.51341,-0.085022
8382672,"Ace Hotel","New York","20W 29TH STREET NEW YORK CITY, NY 10001",,53.962292,-1.0819
839148,"The Heeltap Pub","London SE1 1NX","White Hart Yard","Borough High Street",51.50428,-0.08907
8418232,"10gen London Office","London","2F-G, 5-25 Scrutton Street",,51.523361,-0.08379
844780,"Old Sessions House (Skills Matter)","London","  22 Clerkenwell Green",,51.522491,-0.105554
844785,"The Crypt (Skills Matter)","Islington","St James Church Clerkenwell ","Clerkenwell Close",51.55,-0.12
8466892," The Hillgate Pub","London","24 Hillgate Street, W8 7SR",,51.507851,-0.197569
847784,"Dana Centre Science Museum","London","165 Queens Gate","South Kensington, SW7 5HD",51.501984,-0.177638
8496192,"Clerkenwell Workshops","London","27/31 Clerkenwell Close",,51.523908,-0.106662
8499092,"Local Government Association House","London","Smith Square, SW1P 3HZ",,51.495693,-0.127037
852285,"Slug And Lettuce, ","London","Islington, London, N1 2XH ",,51.537294,-0.116067
8535062,"General Assembly London Campus","London","9 Back Hill  4/F ",,51.522533,-0.109436
8548342,"1 Old Billingsgate Walk 16 Lower Thames Street ","EC3R 8DX","London",,51.509064,-0.082897
8548412,"Facebook London","London","42 Earlham Street",,51.51384,-0.126126
855574,"London Zoo","London","Regent's Park",,51.532693,-0.156861
8598392,"Google London Campus","London","4-5 BONHILL STREET LONDON EC2A 4BX",,51.522724,-0.084817
861311,"Brighton Dome","Brighton","Church Street",,50.824764,-0.141598
868959,"Knights Templar (Wetherspoons)","London","95 Chancery Lane","WC2A 1DT",51.515456,-0.112059
8764022,"Campus, powered by Google","London","4-5 Bonhill Street",,51.522721,-0.085348
8769222,"Shoreditch House","London E1 6JJ","13 Bethnal Green Road",,51.523666,-0.076196
887281,"Cellar bar at the Brook Green Hotel","London","170 Shepherds Bush Road","Hammersmith",51.497172,-0.223093
8881762,"Juno","London E1 6JE","134-135 Shoreditch High Street",,51.526512,-0.078196
896087,"Hop Poles Bar & Pub","London","17-18 King Street","Hammersmith W6 0QS",51.492629,-0.227799
9071522,"The Parcel Yard","London","Kings Cross Station",,51.530659,-0.12317
911368,"University of Manchester Core Technology Facility","Manchester","46 Grafton Street",,53.418861,-2.166074
9127852,"Microsoft","SW1E 5JL","Cardinal Place, 80-100 Victoria Street, London",,51.497253,-0.140069
9325252,"Erlang Solutions","E1 1LU London","Suite 2.05, New Loom House, 101 Back Church Lane ",,51.512894,-0.067163
9326302,"Erlang Solutions","London","Unit 2.05, New Loom House, 101 Back Church Lane , E1 1LU London",,51.508129,-0.128005
9361762,"Bloomberg","London","39-45 Finsbury Square",,51.520458,-0.086959
9365192,"Campanja's offices","Stockholm","Kungsgatan 27, 111 56 Stockholm",,59.33585,18.06727
9400502,"Old Truman Brewery London","London"," Hanbury Street, London E1 6QR",,51.519657,-0.069014
9431172,"The Camel & Artichoke ","London","121 Lower Marsh City of London SE1 7AE",,51.500729,-0.113285
9565212,"Bloomberg","London","50 Finsbury Square, EC2A 1HD",,51.5204,-0.087082
9565212,"Bloomberg","London","50 Finsbury Square, EC2A 1HD",,51.520401,-0.087082
9709222,"Mendeley Ltd.","London","Ground Floor, White Bear Yard, 144a Clerkenwell Road London, EC1R 5DF",,51.522198,-0.109762
9709692,"Skills Matter at the MWB Business Exchange","London","107-111 Fleet Street, EC4A 2AB",,51.51421,-0.108423
9710442,"Manchester, Sheffield, Cambridge, London & Southampton","-","-",,55.378052,-3.435973
9710842,"Summerhall","London","1 Summerhall Edinburgh, EH9 1PL",,51.507336,-0.127683
978403,"Marriott Hotel","Poplar","22 Hertsmere Road","Canary Wharf",51.507808,-0.023367
980577,"BBC Worldwide","Ealing","Media Centre Board Room","3rd Floor, 201 Wood Lane",51.51,-0.3
9810282,"Mary Ward House","London","5-7 Tavistock Place, WC1H 9SN",,51.525276,-0.128508
9853252,"Whittaker House","London","2 Whittaker Avenue, TW91EH ",,51.458755,-0.306908
9870852,"The Open Data Institute","London","3rd Floor","65 Clifton Street",51.50643,-0.12719
9915852,"London Transport Museum","London WC2E 7BB","Covent Garden Piazza,",,51.512062,-0.122965
9917492,"Hong Kong Theatre - London School of Economics","London","Clement House",,51.513268,-0.115002
9970742,"The Open Data Institute","London","3F, 65 Clifton St, EC2A 4JE",,51.522163,-0.083438
9971312,"University of Southampton, Highfield Campus, Building 53","Southampton","University Road 1, SO17 1BJ",,50.93346,-1.395961
9990722,"Westminster University, welcome drinks & food in room C1.04 (1st floor) and talks in large lecture theatre (2nd Floor)","London","115 New Cavendish Street",,51.52071,-0.139973
10008462,"Songkick","London","Third Floor, 12-18 Hoxton Street, N1 6NG",,51.513435,-0.109462
10199082,"Firebox Café","Camden Town, London","108 Cromer St, WC1H ",,51.527653,-0.12351
10252182,"University of London Union (ULU)  ","London"," Malet Street, London, WC1E 7HY ",,51.521408,-0.13024
1040306,"The Skills Matter eXchange","London","116-120 Goswell Road","EC1V 7DP",51.524521,-0.099231
10450042,"Arete Research","London","27 St John's Lane",,51.52169,-0.102302
10650782,"Modern Jago (gallery space above)","London","Club Row, Arnold Circus, E2 7ES",,51.526333,-0.074826
1067281,"Hilton London Metropole Hotel","Paddington","225 Edgeware Road","London W2 1JU",51.519077,-0.168782
1113633,"The Shooting Star","London E1 7JF","125-129 Middlesex St",,51.51685,-0.07702
1140333,"The Old Star","London","66 Broadway, Westminster, SW1H 0DB","Outside St James Park Tube",51.499954,-0.133796
11661062,"meeting place to be announced","London","Address tba",,51.507336,-0.127683
11973262,"Keyworth Centre Events Theatre, London South Bank University","London","Keyworth Street, London SE1 6NG",,51.498089,-0.10213
12027492,"SSEES School of Slavonic and Eastern European Studies ","London, WC1H 0BE","16 TAVITON STREET, room #433",,51.525372,-0.131554
12123712,"Makers Academy","London EC1Y 1AA","25 City Road,  4th Floor",,51.522995,-0.08713
12140722,"Level 39 Technology Accelerator at Canary Wharf","London E14","One Canada Square",,51.505001,-0.019611
12230552,"Arrows Group","London","23 Wootton Street",,51.504055,-0.108323
1232158,"Centre for Creative Collaboration","London","16 Acton Street","16 Acton Street, London WC1X 9NG",51.528741,-0.116529
12503012,"London Hackspace","London","447 Hackney Road, E2 9DY",,51.532082,-0.060795
12563952,"Asadal","London, WC1V 7DA","227 High Holborn",,51.517811,-0.117946
12604482,"College Arms","London","18 Store Street, WC1E 7DH",,51.51976,-0.131739
1269832,"The Royal Society","London","6 - 9 Carlton House Terrace","SW1Y 5AG ",51.506312,-0.13208
12716292,"Queens Tower Rooms, Sherfield Building, Imperial College","London","Imperial college road, SW7 2AZ",,51.497944,-0.177121
12878762,"Timber Yard","London","61-67 Old Street, London EC1V 9HW",,51.524231,-0.09643
12895732," The Argyle","London","1 Greville Street, London, EC1N 8PQ ",,51.519157,-0.108518
12919932,"Red Hat London Office","London","64 Baker Street, 4th Floor",,51.519157,-0.156212
12920142,"Red Hat London Office","London","64 Baker Street, 4th Floor,",,51.519157,-0.156212
13191472,"Cafe – Campus London, 4-5 Bonhill Street, London EC2A 4BX","London","4-5 Bonhill Street",,51.522709,-0.085336
13368692,"Skype London Office","London","2 Waterhouse Square, 138 Holborn, London, EC1N 2ST",,51.51886,-0.109649
13417662,"Horwood House","Milton Keynes","Little Horwood, Milton Keynes, Buckinghamshire MK17 0PH",,51.958839,-0.843194
13460012,"Xively","London","4th Floor, 13-21 Curtain Road, EC2A 3LT",,51.522598,-0.081117
1348151,"Epsom Playhouse","Epsom KT18 5AL","Ashley Road ",,51.323033,-0.261507
13484432,"Innovation Warehouse","London","1st Floor,  1 East Poultry Ave, London EC1A 9PT",,51.519085,-0.102783
13639452,"Somewhere central for easy access","London","Suggestions?",,51.517624,-0.099783
1373233,"ExCeL London","London","One Western Gateway","Royal Victoria Dock",51.508066,0.021828
13835092,"The Clubhouse London","London","11-14 Grafton Street, Greater London, W1S 4EW",,51.510208,-0.143303
14143102,"The University of Exeter Forum","EX4 4QJ","Streatham Campus",,50.737263,-3.529642
14321962,"Just Eat offices","London EC4M 7RF","2 Fleet Place",,51.515308,-0.1033
14321962,"Just Eat offices","London EC4M 7RF","2 Fleet Place",,51.516544,-0.103397
1432252,"IBM Southbank (SE1 9PZ)","London","76/78 Upper Ground","Southbank",51.506952,-0.111438
1445938,"The Lamb","London","94 Lambs Conduit Street","WC1N 3LZ",51.522974,-0.119092
14834822,"Net-A-Porter. 1 The Village Offices, Westfield London Shopping Centre","London","Ariel Way W12 London",,51.50662,-0.219758
14834822,"Net-A-Porter. 1 The Village Offices, Westfield London Shopping Centre","London","Ariel Way W12 London",,51.507526,-0.219097
15074632,"Rainmaking Loft"," London, E1W 1TW","International House 1 St Katharine’s Way",,51.50724,-0.074055
15083952,"The Breakfast Club","London","12-16 Artillery Lane, Spitalfields",,51.520306,-0.07741
15200122,"Home of the Royal College of General Practitioners","London","30 Euston Square",,51.527443,-0.130868
15348582,"University of Westminster - Cavendish ","London","115 New Cavendish St, London W1W 6UW",,51.520756,-0.13989
15372632,"Gourmet Burger Kitchen","London","Old Spitalfields Market",,51.519157,-0.076845
15459432,"Red Hat London Office","London","4th Floor, 64 Baker Street, W1 7BU",,51.519157,-0.156212
15522402,"Mind Candy HQ","London","15 Bonhill Street, EC2A 4DN",,51.523033,-0.085178
15628052,"The Crown and Shuttle Pub","London","226 Shoreditch High Street London, Greater London E1 6JE",,51.526409,-0.078068
15673222,"makeshift.io","London","12 Mallow Street, London EC1Y 8RQ",,51.524769,-0.088613
1569305,"London South Bank University","London","90 - 100 London Road, Elephant and Castle, SE1 6LN",,51.496994,-0.102633
1570565,"BMA House","London","Tavistock Square, London, WC1H 9JP",,51.52499,-0.129736
1581180,"Channel 4 Television Corporation","SW1P 2TX","124 Horseferry Road, London",,51.495758,-0.133237
1588855,"Somerset House","London","WC2R 1LA",,51.510731,-0.116938
15973952,"Keyworth Centre, London South Bank University","London","SE1 0AA",,51.49734,-0.101183
15973952,"Keyworth Centre, London South Bank University","London","SE1 0AA",,51.498035,-0.101896
15973952,"Keyworth Centre, London South Bank University","London","SE1 0AA",,51.498409,-0.101655
1612322,"The Guardian","London","Kings Place, 90 York Way",,51.53511,-0.121731
16225002,"Mozilla","London","Mozilla, Floor 3, 101 St Martin's Ln, London, United Kingdom","WC2N 4AZ",51.511215,-0.119824
16422192,"Club Quarters","London","8 Northumberland Avenue","WC2N 5BY",51.507103,-0.126016
16795082,"Centre de Convencions Internacional de Barcelona - CCIB","08019 Barcelona","Rambla Prim 1-17 ",,41.420902,2.2075
16859922,"The Old Truman Brewery","London","85 Brick Lane, London E1 6QL",,51.521683,-0.071814
17145432,"Pivotal Labs","London","Bentima House, 168-172 Old Street",,51.525024,-0.090486
17199922,"SapientNitro","London","Eden House, 8 Spital Square, E1 6DU",,51.520859,-0.077703
17258302,"6th Floor, Royal Festival Hall","London","Belvedere Road, SE1 8XX (Tube: Embankment)",,0,0
17331572,"Ozone Coffee","London","11 Leonard St",,0,0
17445082,"Grange Tower Bridge Hotel","London E1 8GP ","45 Prescot Street ",,51.511654,-0.071703
1752361,"Innovation Warehouse","London","1st Floor, 1 East Poultry Avenue","EC1A 9PT",51.519106,-0.101962
17720422,"University of Nottingham","NG7 2NR","Kings Meadow Campus, Lenton Ln, Nottingham ",,52.93494,-1.170946
17811852,"Impact Hub - King's Cross","London","34b York Way, N1 9AB",,51.532749,-0.122227
17831902,"Skills Matter","London","116-120 Goswell Road",,51.524506,-0.098982
17841542,"Skills Matter","London"," 116-120 Goswell Road, EC1V 7DP",,51.524509,-0.098982
17915622,"Kings Arms","London","65, Newcomen Street, SE1 1YT ",,51.502747,-0.091272
18114952,"Rainmaking Loft - St. Katherines Docks","London","International House, 1 St. Katharines Way, London, E1W 1UN",,51.507324,-0.07373
18239052,"LSE, Wolfson Theatre, New Academic Building","WC2A 3PH","54 Lincoln's Inn Fields",,54.072437,-2.784392
1849141,"Keyworth Centre","London","London Southbank University",,51.497368,-0.101207
1849141,"Keyworth Centre","London","London Southbank University",,51.520779,-0.130239
18503622,"Harvey Nash ","London","Heron Tower, 110 Bishopsgate, EC2N 4AY",,51.516247,-0.080935
18581162,"The Innovation Hub, SAS, 199 Bishopsgate ","EC2M 3TY","London",,0,0
18585602,"The Up Group (at the Upper Deck)","London","18th Floor, Millbank Tower, 21-24 Millbank",,51.492,-0.125671
18624412,"Impact Hub Westminister","London","1st Floor New Zealand House, 80 Haymarket, London, SW1Y 4TE",,51.507912,-0.131794
19130622,"Google London","London","123 Buckingham Palace Road, SW1W 9SH",,51.493111,-0.146531
19136882,"IDEALondon","London","69 Wilson St, EC2A 2BB ",,51.521976,-0.084831
19311912,"Nominet UK","London","74 rivington street",,51.526245,-0.079195
19341082,"The Royal Holloway","TW20 0EX","University of London, Egham, Surrey. ",,51.425331,-0.56723
19732712,"St Christopher's Inn","London","Borough High Street",,51.504475,-0.090441
19822202,"The Coin Room @ the Barclays Accelerator","London","69 – 89 Mile End Road, E1 4TT",,51.520901,-0.052804
19945602,"The Royal Statistical Society","London","The Royal Statistical Society, 12 Errol Street, London, EC1Y 8LX",,51.522533,-0.090934
20080402,"Ministry of Justice","London","102 Petty France",,51.499359,-0.136434
20244122,"Penderel's Oak","London","283-288 High Holborn",,51.51812,-0.115688
20431302,"BT Centre","London","81 Newgate Street, London. EC1A 7AJ ",,51.515751,-0.097978
20464492,"Slug & Lettuce","London","19 Hanover St, London W1S 1YR",,51.513763,-0.141758
20616922,"Land Registry HQ","Croydon","Trafalgar House, 1 Bedford Park, CR0 2AQ",,51.37878,-0.098635
20641152,"60 Cannon Street","EC4N 6NP","London ",,51.51189,-0.092388
20641162,"60 Cannon Street","EC4N 6NP","London ",,51.51189,-0.092388
20788962,"Canonical Group Limited  5th Floor, Blue Fin Building","London","110 Southwark Street",,51.505764,-0.100136
20966752,"The Lincoln Arms","Dorking","Station Approach",,51.240318,-0.32461
20980712,"The Clarence Centre","London","London Road",,51.498222,-0.104039
21051552,"The Shed","London","18 Hanway Street W1T 1UF",,51.516953,-0.131943
21123582,"Shoreditch Village Hall ","London","33 Hoxton Square - London, N1 6PB",,51.527145,-0.081472
2131221,"SOAS","London","Woburn Suite Large Room (B102) Thornhaugh Street, Russell Square",,51.522129,-0.125031
21640892,"Online Webinar","Online","Online",,51.462582,-0.074072
21677512,"M62 Visual Communications","Liverpool","402, Century Buildings Brunswick Business Park Liverpool, England L3 4BL",,53.385033,-2.979726
22114192,"Wonga","London","Floor 4, Greater London House, Hampstead Road, NW1 7EJ",,51.533451,-0.13963
22197232,"The Village Hall, Shoreditch","London","33 Hoxton Square, N1 6NN",,51.527618,-0.080601
22232602,"Simon the Tanner","London","231 Long Lane SE1 4PR",,51.498409,-0.083399
22252202,"With Associates, 54 Downham Road","London","N1 5AS",,51.539394,-0.08051
22261852,"The Village Hall","London","Shoreditch Works, 33 Hoxton Square N1 6NN",,51.527618,-0.080601
22321632,"Covent Garden Dragon Hall Trust","London"," 17 Stukeley St WC2B 5LT ",,51.516903,-0.122605
22327882,"Lecture Theatre G06, Malet Place Roberts Engineering Building, UCL","London","Torrington Place, WC1E 7JE",,51.522865,-0.131962
22332682,"Dell Software","EC2M 1JH","46 New Broad St, London",,51.517208,-0.084844
22394032,"BBC New Broadcasting House","London","Portland Place, London, W1A 1AA",,51.51857,-0.143811
22580922,"Satigo, floor 28th","EC3A 8BF","30 St Mary Axe",,51.514484,-0.080361
22619782,"01zero-one","Soho","Hopkins Street",,51.513054,-0.134979
22654802,"Kings College London, Room 1.17, Franklin-Wilkins building, Waterloo Campus","London","Stamford Street, London SE1 8WA",,51.505028,-0.112805
22749682,"Anglo Educational Monticello House ","London","45 Russell Square London WC1B 4JP",,51.520649,-0.125723
22975522,"One Fine Stay / Sherlock","London","300 St John Street, EC1V 4PA",,51.528202,-0.104494
23082262,"The Crypt @ St John's Church","London","Pitfield Street",,51.530304,-0.083583
23082262,"The Crypt @ St John's Church","London","Pitfield Street",,51.53037,-0.083626
23082262,"The Crypt @ St John's Church","London","Pitfield Street",,51.530396,-0.083497
23082262,"The Crypt @ St John's Church","London","Pitfield Street",,51.5304,-0.0837
23082262,"The Crypt @ St John's Church","London","Pitfield Street",,51.530422,-0.083669
23082262,"The Crypt @ St John's Church","London","Pitfield Street",,51.530422,-0.08369
23082262,"The Crypt @ St John's Church","London","Pitfield Street",,51.530437,-0.083626
23082262,"The Crypt @ St John's Church","London","Pitfield Street",,51.530437,-0.083647
23082262,"The Crypt @ St John's Church","London","Pitfield Street",,51.53045,-0.083712
23082262,"The Crypt @ St John's Church","London","Pitfield Street",,51.530464,-0.083647
23082262,"The Crypt @ St John's Church","London","Pitfield Street",,51.530464,-0.083669
23082262,"The Crypt @ St John's Church","London","Pitfield Street",,51.530476,-0.083497
23082262,"The Crypt @ St John's Church","London","Pitfield Street",,51.530476,-0.083669
23082262,"The Crypt @ St John's Church","London","Pitfield Street",,51.53288,-0.083068
23148512,"The Clarence Centre","London","London Road,  SE1 6FE",,51.498337,-0.104058
23148512,"The Clarence Centre","London","London Road,  SE1 6FE",,51.499641,-0.09599
23258762,"Campus london","London","4-5 BONHILL STREET LONDON EC2A 4BX",,51.522579,-0.085512
23348732,"MTV Offices 17-29 Hawley Crescent","NW1 8TT","London",,51.541348,-0.143678
23471411,"Raddison Blu Portman Hotel, Marble Arch","London","22 Portman Square, W1H7BG ",,51.516232,-0.157945
23474320,"ThoughtWorks (UK) Ltd","London","76 Wardour Street London W1F 0UR",,51.513084,-0.133667
23474320,"ThoughtWorks (UK) Ltd","London","76 Wardour Street London W1F 0UR",,51.513191,-0.133495
23492022,"DigitasLBi, 146 Brick Lane","London","E1 6RU",,51.521732,-0.071522
23500139,"Campus London","London","5 Bonhill Street  EC2A",,51.522717,-0.085738
23502527,"1 Old Jewry","London","EC2R 8DN",,51.514168,-0.090679
23502554,"lastminute.com","London","Johnson Building, 77 Hatton Garden London EC1N 8JS, London",,51.520153,-0.108792
23503401," Gustav Tuck Lecture Theatre","London WC1E 6BT","2nd Floor, Wilkins Building, UCL",,51.524784,-0.133439
23515649,"Bentham B01 LT, Bentham House","London","4-8 Endsleigh Gardens, WC1H 0EG",,51.526611,-0.130827
23533498,"The News Building","London","1 London Bridge Street, London, SE1 9GF",,51.499641,-0.09599
23533498,"The News Building","London","1 London Bridge Street, London, SE1 9GF",,51.50539,-0.087611
23547514,"Beekman Bar & Books","New York","889 1st Avenue (@ 50th Street) New York, NY 10022",,0,0
23571312,"The Internet - Hangouts on Air","Decrypted Land","London",,54.560886,-2.212512
23572184,"3rd Floor of Google Campus London","London","4-5 Bonhill St, Shoreditch EC2A 4BX",,51.522579,-0.085512
23575353,"Stack Overflow","London","Bentima House, 168-172 Old Street, London, EC1V 9BP ",,51.525036,-0.090498
23578130,"Loughborough University","Loughborough, LE11 3TU","Epinal Way",,52.764881,-1.229489
23580931,"London Escalator","London","69-89 Mile End Road, Whitechapel, London, E1 4TT",,51.520901,-0.052804
23595589,"Google - Campus London (3rd Floor)","London","4-5 Bonhill St, 3rd Floor, London, EC2A 4BX",,51.522579,-0.085512
23595723,"Bentham B10 + B11 Seminar Rm","London","Bentham House, Endsleigh Gardens, WC1H 0EG",,51.526611,-0.130826
23602107,"Simply Business","EC2A 1AE","3rd floor, 1 Finsbury Square, Greater London",,51.520718,-0.087608
23615919,"The Fine Line (upstairs bar - go up the stairs and take a left)","London","Equitable House, 1 Monument Street, EC3R 8BG",,51.510391,-0.086369
23643235,"WeWork SouthBank","London","22 Upper Ground",,51.507912,-0.107195
23651180,"See Link For Details...","London","1st Floor, 81 Palace Gardens Terrace W8 4AT",,51.509239,-0.194224
23655686,"University of Strathclyde, Technology & Innovation Centre","Glasgow","121 George Street, G1 1RD",,55.860535,-4.243995
23655697,"Conference Aston Meeting Suites (CAMS) at Aston University Business School","Birmingham. B4 7ET","Aston Triangle",,52.486645,-1.890965
23677449,"Crowd Shed","London","The Shed, 18 Hanway Street, London, W1T 1UF",,51.516953,-0.131942
23680751,"The Old Red Lion","London","42 Kennington Park Road SE114RS",,51.489349,-0.1054
23690948,"Hull University Business School","Yorkshire, HU6 7RX","Cottingham Road, Hull",,53.76965,-0.36718
23691342,"30 Euston Square","London","30 Euston Square",,0,0
23695801,"Go Cardless","London"," 338-346 Goswell Road, London EC1V 7LQ, United Kingdom",,51.530739,-0.103394
23719896,"BlackRock, 12 Throgmorton Avenue","London","EC2N 2DL",,51.516258,-0.086556
23722159,"https://global.gotomeeting.com/join/194371357","Ilford","online",,54.560886,-2.212512
23724531,"Online Goto Webinar","Kolkata","https://attendee.gotowebinar.com/register/7153358144525677825",,0,0
23761793,"https://meetings.webex.com/collabs/#/meetings/detail?uuid=MC8AU48L9GWSRZ2TI63UO4HQS4-1IIH&rnd=185432.03440","London","Webex",,51.50642,-0.12721
23761872,"http://axelta.com/AxOnlineIOTBootcamps.php","Ilford","Live Online",,54.554642,-5.852129
23762248,"GoToWebinar","Ilford","Live Online",,54.554642,-5.852129
23772223,"Google Campus London","London","4-5 Bonhill Street, London EC2A 4BX",,51.522579,-0.085512
23783283,"Address will posted and emailed","Ilford","Online",,54.560886,-2.212512
23788997,"Saint James's Hatcham, Goldsmiths University, ","London","SE14 6AD",,51.474258,-0.038001
23801613,"Address will be emailed and posted","Ilford","Online",,54.560886,-2.212512
23804275,"The App Business","N1 9BE","The Spitfire Building, 71 Collier Street",,51.531986,-0.118985
23808791,"Central Station Pub","London N1 9SD"," 37 Wharfdale Road, Kings Cross ",,51.533432,-0.120468
23812670,"Address will be emailed and posted","Ilford","Online",,54.560886,-2.212512
23816031,"Deloitte Digital","London","Buckley Building, 49 Clerkenwell Green, EC1R 0EB",,51.523319,-0.105071
23820323,"London Capital Club","London","15 Abchurch Lane, EC4N 7BW",,51.511814,-0.088226
23840978,"Pivotal London","London","Bentima House, 168-172 Old Street, London EC1V 9BP",,51.525036,-0.090498
23847350,"Address will be posted and emailed","Ilford","Online",,0,0
23857832,"London Marriott Hotel Kensington","London","147c Cromwell Road, Kensington, London SW5 0TH",,51.494427,-0.189811
23865845,"Newspeak House","London","133 Bethnal Green Road",,51.525024,-0.071329
23874130,"Rocket Holborn","London","36-38 Kingsway, WC2B 6EY",,51.516052,-0.119036
23876917,"ThoughtWorks Ltd.  First Floor ","London","76-78 Wardour Street  London, W1F 0UR",,51.513191,-0.133494
23886590,"Address will be posted and emailed","Ilford","Online",,54.560886,-2.212512
23888169,"Accelerator London","London","35 Kingsland Road, E2 8AA",,51.529076,-0.077883
23894223,"http://axelta.com/home.php","Ilford","Online",,54.560886,-2.212512
23905348,"46 New Broad Street. London. EC2M 1JH","London","46 New Broad Street. London. EC2M 1JH",,51.517208,-0.084844
23917493,"Fablab London","London","1 Frederick's Place",,51.51413,-0.091021
23919924,"Facebook Inc","London, NW1 3FG","10 Brock Street",,51.525608,-0.139647
23920660,"ICH Wolfson Room B (Ground Floor), ","London","The Wolfson Centre, Mecklenburgh Square Gardens, London, WC1N 2AP",,0,0
23931518,"Juxon House","London","100 St Paul's Churchyard, EC4M 8BU ",,51.514168,-0.100191
23931584,"Mind Candy HQ","EC2A 4DN","15 Bonhill Street, London",,51.523041,-0.08519
23973969,"Edspace","London","Block D, Hackney Community College, Shoreditch Campus, Falkirk Street, London, N1 6HQ",,51.530743,-0.079316
23982156,"Code Node","London","10 South Place EC2M 2RB",,51.519547,-0.087081
24005115,"mso","Dartford","The Old Granary, Malt House Farm, Green Street Green Road",,0,0
24010969,"Webinar - Use Link In Description To Register","London","Worldwide Web",,53.6083,-0.168923
24011444,"St. Regis Hotel","Houston","1919 Briar Oaks Ln, 77027",,29.747433,-95.450401
24016153,"BurgerBear","London","Old Street Roundabout, London, EC1Y 1BE, London",,51.525681,-0.087573
24019327,"Skills Matter | CodeNode","London","10 South Place, London, EC2M 2RB",,51.519547,-0.087081
24020637,"Skills Matter at CodeNode","EC2M 2RB","10 South Place, London",,51.519547,-0.087081
24025694,"The Monument Pub","EC3R 6DB","18 Fish Street Hill",,51.510036,-0.086701
24026019,"Lecture Room 3B ","Cambridge","Engineering department, Trumpington Street",,52.19899,0.121538
24032378,"Skills Matter at CodeNode","London","10 South Place London, EC2M 2RB",,51.519547,-0.087081
24048960,"Balderton Capital","London","The Stables, 28 Britannia Street",,51.529861,-0.118402
24068475,"IPEXPO","London","Royal Victoria Dock, 1 Western Gateway, London E16 1XL",,51.508171,0.027107
24070339,"Badoo - Medius House","London","2 Sheraton Street, W1F8BH",,51.515335,-0.13467
24071195,"ETC Venues","London","155 Bishopsgate Liverpool St London EC2M 3YD",,51.518753,-0.081437
24081887,"Wolfson Building ","Oxford ","Parks Road",,51.758602,-1.256815
24090797,"The Trainline ","London","50 Farringdon Road",,51.520344,-0.105889
24094355,"decentral vancouver","Vancouver","436 W Pender St",,49.283211,-123.112625
24095589,"Ustwo (TEA Building)","London",", 62 Shoreditch High St E1 6JJ",,51.524124,-0.077224
24096080,"Machines Room","London","45 Vyner Street","E2 9DJ",51.534794,-0.05373
24105262,"WeWork Spitalfields","London","1 Primrose Street, EC2A 2EX.",,51.520702,-0.080511
24107105,"Skills Matter at CodeNode","London","10 South Place, EC2M 7EB",,51.518906,-0.086611
24107131,"Etc Venues, Norton Folgate - Liverpool Street,","London, E1 6DQ","Bishopsgate Court",,51.521164,-0.078401
24119842,"The Crypt (basement)","London","St Johns Church, Hoxton, Pitfield Street, N1 6NP",,51.530258,-0.083511
24125945,"London's Living Room","London","City Hall, SE1 2AA",,51.51762,-0.096778
24132815,"The Crystal","London","1 Siemens Brothers Way, Royal Victoria Dock, London E16 1GB ",,51.507442,0.016295
24132857,"Advanced 365","London","230 City Road",,51.528477,-0.093009
24142254,"Skills Matter | CodeNode","London","10 South Place, EC2M 7EB",,51.518551,-0.086114
24149792,"Accelerator | Business Incubation London","London","35 Kingsland Rd, London E2 8AA",,51.527771,-0.078007
24151407,"NHow Hotel","Berlin","Stralauer Allee 3",,52.501106,13.450851
24152395,"Americano Restaurant @ Hotel Vitale","San Francisco","8 Mission St",,37.793495,-122.393333
24164343,"Winton Capital","London","27 Hammersmith Grove, W6 0NE",,51.495018,-0.226458
24167919,"Central Library Manchester","Manchester","St Peter’s Square",,53.47812,-2.244646
24173553,"Canonical,","London"," 5th Floor, Blue Fin Bldg, 110 Southwark St, SE1 0SU",,51.506176,-0.100236
24176182,"St Johns Church of Hoxton (Main Church)","London","Pitfield Street, N1 6NP",,51.53101,-0.082917
24187347,"YOOX NET-A-PORTER GROUP","London","1 The Village Offices, Westfield London Shopping Centre, Ariel Way",,51.507961,-0.219307
24192546,"Zapnito","London","18-20 Scrutton Street",,51.523212,-0.083461
24193056,"Runway East","London","10 Finsbury Square",,51.52124,-0.087505
24210182,"Gamesys","London","10 Piccadilly, London W1J 0DD",,51.509644,-0.135649
24217754,"Twitter","London","www.crowdchat.net/ibmbeinnovative or #IBMBEinnovative",,51.50735,-0.127758
24234331,"Lab49, Level 2, 30 St Mary Axe","London","London EC3A 8EP",,51.514473,-0.080349
24259557,"Building 53, Seminar Room, Cranfield University","Bedford MK43 0AL","College Rd, Cranfield, ",,52.074192,-0.630024
24259603,"Conversocial (floor 6)","London","7-11 Cavendish Place, W1G 0QD",,51.517109,-0.143505
24262943,"The Circle","S1 4FW","Sheffield",,53.380306,-1.474562
24274600,"Unit L, The Biscuit Factory ","London","100 Clements Road, Southwark, SE16 4DG",,51.494553,-0.062197
24277063,"Pret A Manger","London","7-8 St Martin's Place, London WC2N 4JH",,51.509346,-0.126702
24279884,"Rise London (previously London Escalator)","London","69-89 Mile End Road, E1 4TT",,51.520878,-0.052311
24309850," Upstairs bar of Ye Olde Watling, Pub","London","29 Watling Street, EC4M 9BR",,51.512993,-0.093666
24312241,"Room G60 (back on ground floor)","London","Sir Alexander Fleming Building South Kensington Campus Imperial College London London SW7 2AZ",,51.49773,-0.176374
24327992,"Skillsmatter (CodeNode)","London","CodeNode, 10 South Place, London, EC2M 2RB, GB",,51.507351,-0.127758
24345176,"Makers Academy","London","50 Commercial Street",,51.517342,-0.073281
24347580,"AlphaSights","London","201 Borough High Street, Borough",,51.501709,-0.092416
24361089,"Dept Medicine, Imperial College","London","Norfolk Place, London W2 1PG",,51.516743,-0.17241
24361089,"Dept Medicine, Imperial College","London","Norfolk Place, London W2 1PG",,51.517666,-0.172485
24363637,"Shack15/Meltwater","London","67-71 Shoreditch High St, E1 6JJ",,51.524559,-0.077008
24363699,"Online Competition","Barcelona","WorldWide",,41.385063,2.173404
24367058,"Ec2n 4ay","London","The Heron Tower   110 Bishopsgate",,51.516174,-0.08094
24374673,"LSE New Academic Building (NAB)","London"," 54 Lincoln's Inn Fields, London WC2A 3LJ",,51.515312,-0.117738
24377244,"StreetHub","London","20 Ropemaker St, London EC2Y 9AR",,51.519608,-0.088246
24384760,"Twitter","London","20 Air St London W1B 5DL",,51.51059,-0.13656
24384955,"Global","London","Online",,51.507351,-0.127758
24392417,"Shack 15 London - ","London","67-71 Shoreditch High St, London E1 6JJ",,51.524559,-0.077008
24400571,"Sainsbury's Headquarters","London","33 Holborn, EC1N 2HT",,51.517307,-0.108527
24412399,"Royal Statistical Society, 12 Errol Street ","EC1Y 8LX","London ",,51.522522,-0.090922
24441271,"Seven Bridges UK","London","8th Floor, 101 Euston Road, London, NW1 2RA",,51.52853,-0.126954
24459160,"East London Printmakers","London","19 Warburton Road",,51.540001,-0.06
24459225,"Entrepreneur First ","SE16 4DG","The Lincoln building (Unit L), 100 Clements Road",,51.495258,-0.062852
24472142,"HUCKLETREE SHOREDITCH","London","Alphabeta Building 18 Finsbury Square, London, EC2A 1AH, United Kingdom",,51.507351,-0.127758
24494766,"UCL Roberts G06, Roberts Building,","London","Malet Place, WC1E 7JE",,51.523563,-0.132634
24500542,"S-1.22 Strand Building, Strand campus, King’s College London","London","WC2R 2LS",,0,0
24525247,"Just IT","London","St. Clare House, 30-33 Minories, London EC3N 1DD",,51.512344,-0.075278
24535673,"Grad Gallery","London","3-4A Little Portland Street",,51.517433,-0.140677
24546034,"thoughtbot","London","Griffin Court, 15 Long Lane",,51.519726,-0.098935
24584528,"Show My Homework","E15 2SN","4th Floor, 4 Cam Road, Stratford, London",,51.536812,-0.000846
24593261,"MediaAgility Life Science Hub","London","12 Bath Road",,51.46826,-0.367599
24593261,"MediaAgility Life Science Hub","London","12 Bath Road",,51.496124,-0.253187
24655722,"Draft House","London","211 Old Street, London EC1V 9NR",,51.525902,-0.08913
24655883,"Pivotal London","London","The Warehouse  211 Old Street  London  EC1V 9NR",,51.526459,-0.089065
24674411,"Digital Detox","London SW9 9SP","Blue Star House, 234-244 Stockwell Road, Brixton",,51.464756,-0.115102
24686969,"Cha Chaan Teng","London","36-38 Kingsway, Holborn, WC2B 6EY",,51.515942,-0.118838
24706669,"Thoughtworks","London","76-78 Wardour St  London, W1F 0UR",,51.513149,-0.13362
24717489,"Cloud 23, Hilton Manchester Deansgate","Manchester","Beetham Tower, M3 4LQ",,53.475391,-2.250561
24727367,"Sky Network Services offices","London","1 Brick Lane, London E1 6PU",,51.517502,-0.070907
24729109,"King's Cross St. Pancras","London","N1C 4QP",,51.531429,-0.126133
24732473,"1 America Square","EC3N 2LB","17 Crosswall, London,  ",,51.511559,-0.075839
24758694,"The News Building","London","1 London Bridge Street",,51.505169,-0.087398
2574091,"Willy's Wine Bar","London EC3M 5JF","107 Fenchurch Street",,51.51252,-0.079103
3335042,"Harrison Pub","London","WC1H 8JF",,51.527424,-0.12092
3441202,"Pimlico Academy","London","Lupus Street, SW1V 3AT",,51.487934,-0.139915
3578552,"Le Pain Quotidien","London","64 Tottenham Court Road, London W1T 2ET",,51.520134,-0.13386
3628292,"Oracle Corporation","London","One South Place London EC2M 2RB",,51.519234,-0.087501
3929882,"The Hub Westminster","London","First floor, New Zealand House, 80 Haymarket, SW1Y 4TE",,51.507904,-0.131782
3982162,"The Fox Public House","London, EC2A 4LB","28-30 Paul St.",,51.5234,-0.084208
4199012,"Oracle City Office ","EC2M 2RB","One South Place, London",,51.519234,-0.087501
4376162,"Public Works","London, E2 9DG","1-5 Vyner Street",,51.534519,-0.055723
4571802,"TentCity University at Occupy London (St.Paul's)","London","St. Paul's Cathedral",,51.513706,-0.099528
4731132,"Bank of Ideas","London","29 Sun Street - Tube: Liverpool St. or Moorgate",,51.516998,-0.088638
4817212,"The Westminster Hub","London","1st Floor, New Zealand House, 80 Haymarket, SW1Y 4TE",,51.507915,-0.131582
5200222,"University College London - Wilkins Building, Wilkins Old Refectory","London","GOWER STREET, LONDON, WC1E 6BT",,51.524773,-0.133427
5416312,"Innovation Warehouse","London","1 East Poultry Avenue, EC1A 9PT",,51.519104,-0.101962
5446062,"UCL Chandler House","London","2 WAKEFIELD STREET, WC1N 1PF",,51.52615,-0.122735
5588392,"Skills Matter","London","116-120 Goswell Road London, EC1V 7DP",,51.524506,-0.099152
5698342,"IPC Media Building (Bluefin)","SE1 0SU","110 Southwark Street",,51.505924,-0.100221
5915942,"O2 Workshop","London","229 Tottenham Court Road, W1T 7QG",,51.519119,-0.132462
5945812,"Pachube HQ","London","3 Scrutton St.",,51.52338,-0.084103
5957342,"Crayon London","London","Bewlay House, 2 Swallow Place, London, W1B 2AE",,51.515018,-0.142617
6143962,"Forward Internet Group","London","Floor 2, Centro 3, 19 Mandela Street, NW1",,51.537804,-0.136739
6285592,"CapGemini Offices","London","40 Holborn Viaduct",,51.516876,-0.103733
6415442,"Tech Hub","London","4-5 Bonhill Street, EC2A 4BX",,51.522713,-0.08535
6525682,"Campus London","London","4-5 BONHILL STREET LONDON EC2A 4BX",,51.522724,-0.084817
6777292,"Mozilla","London","Mozilla, Floor 3, 101 St Martin's Ln","WC2N 4AZ",51.51026,-0.12705
6858902,"Google Campus","London","4-5 BONHILL STREET LONDON EC2A 4BX",,51.522724,-0.084817
6964552,"Imperial College, Alexander Fleming Building","London SW7 2AZ","South Kensington Campus",,51.498238,-0.177317
697718,"Royal Festival Hall","London","South bank, SE1 8XX",,51.507465,-0.115863
6982212,"Initiatives of Change - London Office","London","24 Greencoat Place  SW1P 1RD",,51.493782,-0.13794
7018282,"4-5 BONHILL STREET","London","EC2A 4BX",,51.522572,-0.0855
7058862,"Portcullis House (new building of the House of Commons) ","London","SW1A 2LW",,51.5014,-0.125002
710680,"Masala Zone","London","48 Floral St",,51.513118,-0.12326
7382392,"SkillsMatter eXchange","London","116-120 Goswell Road London, EC1V 7DP",,51.524506,-0.099152
7652942,"Blueberry Bar","London","2-4 Paul Street, Shoreditch, London, EC2A 4JH",,51.522099,-0.084396
7731862,"Enthuse.me Offices","London","3 Plough Yard, Shoreditch, EC2A 3LP",,51.52272,-0.078999
7736262,"Peter Jones","London","Sloane Square, Chelsea",,51.492767,-0.157017
7740002,"17 Dacre House, ","London","Beaufort Street, London, SW3 5BH",,51.48292,-0.174156
7740002,"17 Dacre House, ","London","Beaufort Street, London, SW3 5BH",,51.48447,-0.175787
7830522,"Qubit","London, W1F 8HT","20 Broadwick Street",,51.513691,-0.1354
7848052,"Vodafone ","London","1 Kingdon Street, W2 6BY",,51.549984,-0.192551
7874982,"HMS President  ","London","On The Thames, Victoria Embankment, London EC4Y 0HJ",,51.510715,-0.108508
8008292,"The Jamaica Wine House","London","St. Michael's Alley, Cornhill, EC3V 9DS",,51.513374,-0.086464
805913,"Skills Matter","London EC1V7DP","The Skills Matter eXchange","116-120 Goswell Road",51.524823,-0.099109
8071372,"Cosm","London","4th Floor, 13-21 Curtain Road, EC2A 3LT",,51.522598,-0.081117
809434,"ExCeL London","London","1 Gateway",,51.484875,-0.094532
8154242,"Pullman Hotel","London","101 Euston Rd",,51.528736,-0.12674
817320,"Barbican Hall","London","Barbican Centre","Silk Street, EC2Y 8DS",51.51992,-0.092403
823396,"Roxy Bar & Screen","London, SE1 1LB","128-132 Borough High Street","Borough",51.500428,-0.09421
8520182,"Translate","London","12-14 Kingsland Road ",,51.527584,-0.077806
855847,"Science Museum","London","Exhibition Road","South Kensington",51.50255,-0.17465
866841,"The Reliance","London","336 Old Street","Shoreditch",51.526724,-0.081585
8726152,"UCL Christopher Ingold Auditorium","London  WC1H 0AJ","20 Gordon Street",,51.525414,-0.132736
966965,"Indian YMCA","London","41 Fitzroy square","W1T 6AQ",51.53965,-0.155083
983978,"The Railway tavern","London","15 Liverpool Street","EC2M 7NX",51.517539,-0.082876
9851302,"Innovation Warehouse","London","Suite J, 1st Floor, 1 East Poultry Avenue, London EC1A 9PT",,51.518906,-0.10275
